{"version": 0.6, "generator": "Overpass API 0.7.62.5 1bd436f1", "osm3s": {"timestamp_osm_base": "2025-05-29T06:53:23Z", "copyright": "The data included in this document is from www.openstreetmap.org. The data is made available under ODbL."}, "elements": [{"type": "node", "id": 30423886, "lat": 52.525927, "lon": 13.3144925}, {"type": "node", "id": 30423887, "lat": 52.5259223, "lon": 13.3138281}, {"type": "node", "id": 150989193, "lat": 52.5642761, "lon": 13.3265108, "tags": {"addr:city": "Berlin", "addr:country": "DE", "addr:housenumber": "137", "addr:postcode": "13405", "addr:street": "Scharnweberstra\u00dfe", "addr:suburb": "Reinickendorf", "name:signed": "no", "office": "yes"}}, {"type": "node", "id": 268915335, "lat": 52.5620245, "lon": 13.3606221, "tags": {"name": "Taxi", "note": "EKT - Die Entdecker e.V.", "office": "yes"}}, {"type": "node", "id": 288529753, "lat": 52.459104, "lon": 13.5326744}, {"type": "node", "id": 288529755, "lat": 52.4590166, "lon": 13.5327944}, {"type": "node", "id": 288529758, "lat": 52.458512, "lon": 13.5318222}, {"type": "node", "id": 288529760, "lat": 52.4583779, "lon": 13.5319553}, {"type": "node", "id": 288529762, "lat": 52.4584473, "lon": 13.5323873}, {"type": "node", "id": 288529764, "lat": 52.45833, "lon": 13.5324002}, {"type": "node", "id": 288529766, "lat": 52.458274, "lon": 13.5320528}, {"type": "node", "id": 288529769, "lat": 52.4580636, "lon": 13.5322566}, {"type": "node", "id": 288529771, "lat": 52.4581348, "lon": 13.5326901}, {"type": "node", "id": 288529773, "lat": 52.458018, "lon": 13.5327015}, {"type": "node", "id": 288529775, "lat": 52.4579598, "lon": 13.5323512}, {"type": "node", "id": 288529777, "lat": 52.4577498, "lon": 13.5325567}, {"type": "node", "id": 288529779, "lat": 52.4578207, "lon": 13.532994}, {"type": "node", "id": 288529782, "lat": 52.4577025, "lon": 13.5330056}, {"type": "node", "id": 288529784, "lat": 52.4576475, "lon": 13.5326582}, {"type": "node", "id": 288529786, "lat": 52.4574555, "lon": 13.5328425}, {"type": "node", "id": 288529788, "lat": 52.4575586, "lon": 13.534155}, {"type": "node", "id": 288529790, "lat": 52.4574247, "lon": 13.5342133}, {"type": "node", "id": 288529792, "lat": 52.4573102, "lon": 13.5327636}, {"type": "node", "id": 288529795, "lat": 52.4585398, "lon": 13.5315811}, {"type": "node", "id": 288530865, "lat": 52.4578801, "lon": 13.533446}, {"type": "node", "id": 288530867, "lat": 52.4577178, "lon": 13.5335169}, {"type": "node", "id": 288530868, "lat": 52.4577217, "lon": 13.5338938}, {"type": "node", "id": 288530869, "lat": 52.4579297, "lon": 13.5337521}, {"type": "node", "id": 288531025, "lat": 52.4582167, "lon": 13.5333051}, {"type": "node", "id": 288531026, "lat": 52.4580532, "lon": 13.5333763}, {"type": "node", "id": 288531027, "lat": 52.4580575, "lon": 13.5337496}, {"type": "node", "id": 288531028, "lat": 52.4582662, "lon": 13.5336111}, {"type": "node", "id": 288531113, "lat": 52.458626, "lon": 13.5331217}, {"type": "node", "id": 288531115, "lat": 52.4584621, "lon": 13.5331919}, {"type": "node", "id": 288531116, "lat": 52.4584674, "lon": 13.5335688}, {"type": "node", "id": 288531117, "lat": 52.4586748, "lon": 13.5334286}, {"type": "node", "id": 288531530, "lat": 52.4574972, "lon": 13.5333557}, {"type": "node", "id": 288531616, "lat": 52.457358, "lon": 13.5333846}, {"type": "node", "id": 290181089, "lat": 52.4991473, "lon": 13.3773295}, {"type": "node", "id": 290181090, "lat": 52.4988761, "lon": 13.3766383}, {"type": "node", "id": 290181095, "lat": 52.4985346, "lon": 13.3758787}, {"type": "node", "id": 290346129, "lat": 52.4994107, "lon": 13.377077}, {"type": "node", "id": 290346133, "lat": 52.4993106, "lon": 13.3777466}, {"type": "node", "id": 290346173, "lat": 52.4996853, "lon": 13.3772247}, {"type": "node", "id": 353707812, "lat": 52.4985538, "lon": 13.375487}, {"type": "node", "id": 353707813, "lat": 52.4984691, "lon": 13.3757008}, {"type": "node", "id": 380447030, "lat": 52.4972897, "lon": 13.4420838, "tags": {"addr:city": "Berlin", "addr:country": "DE", "addr:postcode": "10997", "addr:street": "Cuvrystra\u00dfe", "addr:suburb": "Kreuzberg", "name": "Gewerbehof Kerngeh\u00e4use", "office": "yes", "website": "http://www.kerngehaeuse.de/"}}, {"type": "node", "id": 437254712, "lat": 52.5269967, "lon": 13.3139079}, {"type": "node", "id": 437254714, "lat": 52.52709, "lon": 13.3133456}, {"type": "node", "id": 437254716, "lat": 52.5271965, "lon": 13.3132816}, {"type": "node", "id": 437254719, "lat": 52.5272526, "lon": 13.3131007}, {"type": "node", "id": 437254721, "lat": 52.5269546, "lon": 13.3134378}, {"type": "node", "id": 437254723, "lat": 52.5268714, "lon": 13.313948}, {"type": "node", "id": 437254725, "lat": 52.5267303, "lon": 13.3139969}, {"type": "node", "id": 437254728, "lat": 52.5266794, "lon": 13.3136043}, {"type": "node", "id": 437254730, "lat": 52.526555, "lon": 13.3136758}, {"type": "node", "id": 437254733, "lat": 52.5266023, "lon": 13.3140418}, {"type": "node", "id": 437254735, "lat": 52.5263725, "lon": 13.313786}, {"type": "node", "id": 437254737, "lat": 52.526415, "lon": 13.3141086}, {"type": "node", "id": 437254739, "lat": 52.5262496, "lon": 13.3138604}, {"type": "node", "id": 437254741, "lat": 52.526289, "lon": 13.3141538}, {"type": "node", "id": 437254743, "lat": 52.5260683, "lon": 13.3139688}, {"type": "node", "id": 437254746, "lat": 52.5261004, "lon": 13.3142187}, {"type": "node", "id": 465318643, "lat": 52.4889076, "lon": 13.4388745, "tags": {"addr:city": "Berlin", "addr:country": "DE", "addr:housenumber": "34", "addr:postcode": "12045", "addr:street": "Weichselstra\u00dfe", "addr:suburb": "Neuk\u00f6lln", "check_date": "2023-05-02", "contact:email": "kontakt@zentrum-bewegung-kommunikation.de", "contact:phone": "+49 178 5134542", "contact:website": "https://zbk.berlin/", "name": "Zentrum f\u00fcr Bewegung & Kommunikation", "office": "yes", "wheelchair": "limited"}}, {"type": "node", "id": 467164153, "lat": 52.4993697, "lon": 13.3779689}, {"type": "node", "id": 467164155, "lat": 52.4992985, "lon": 13.3769371}, {"type": "node", "id": 467164163, "lat": 52.4985313, "lon": 13.375643}, {"type": "node", "id": 530715841, "lat": 52.5416168, "lon": 13.3534544, "tags": {"addr:city": "Berlin", "addr:housenumber": "18", "addr:postcode": "13353", "addr:street": "Sprengelstra\u00dfe", "name": "1A Visum", "name:signed": "no", "office": "yes"}}, {"type": "node", "id": 592636066, "lat": 52.5413537, "lon": 13.4146824, "tags": {"addr:city": "Berlin", "addr:country": "DE", "addr:housenumber": "7", "addr:postcode": "10437", "addr:street": "Lychener Stra\u00dfe", "addr:suburb": "Prenzlauer Berg", "check_date": "2025-03-01", "contact:email": "berlin@theschooloflife.com", "contact:phone": "+49 30 91514311", "contact:website": "https://www.theschooloflife.com/berlin/", "name": "The School of Life", "office": "yes", "opening_hours": "Sa 12:00-17:00"}}, {"type": "node", "id": 619167573, "lat": 52.5554847, "lon": 13.5446634}, {"type": "node", "id": 619167577, "lat": 52.5557891, "lon": 13.544933}, {"type": "node", "id": 619167579, "lat": 52.5557298, "lon": 13.545114}, {"type": "node", "id": 619167581, "lat": 52.5554251, "lon": 13.5448456}, {"type": "node", "id": 619169509, "lat": 52.5568114, "lon": 13.5471315}, {"type": "node", "id": 619169510, "lat": 52.5569155, "lon": 13.5468068}, {"type": "node", "id": 619169511, "lat": 52.5568082, "lon": 13.54671}, {"type": "node", "id": 619169512, "lat": 52.5567028, "lon": 13.5470357}, {"type": "node", "id": 619169513, "lat": 52.5565917, "lon": 13.5469431}, {"type": "node", "id": 619169514, "lat": 52.5565134, "lon": 13.5471858}, {"type": "node", "id": 619169518, "lat": 52.5578757, "lon": 13.5480775}, {"type": "node", "id": 619169520, "lat": 52.5577979, "lon": 13.5483175}, {"type": "node", "id": 656482190, "lat": 52.5200562, "lon": 13.4998891}, {"type": "node", "id": 656482191, "lat": 52.5200604, "lon": 13.4996936}, {"type": "node", "id": 656482194, "lat": 52.5209398, "lon": 13.4997446}, {"type": "node", "id": 656482301, "lat": 52.520466, "lon": 13.4997173}, {"type": "node", "id": 656482302, "lat": 52.5204644, "lon": 13.499794}, {"type": "node", "id": 656482303, "lat": 52.5205375, "lon": 13.4997982}, {"type": "node", "id": 656482304, "lat": 52.5205392, "lon": 13.4997209}, {"type": "node", "id": 867874219, "lat": 52.5032236, "lon": 13.4127481, "tags": {"addr:city": "Berlin", "addr:country": "DE", "addr:postcode": "10969", "addr:suburb": "Kreuzberg", "contact:email": "office@dko-berlin.de", "contact:fax": "+49 30 3260 8610", "contact:phone": "+49 30 3260 8612", "contact:website": "http://next.dko-berlin.de/", "name": "Deutsches Kammerorchester Berlin", "office": "yes"}}, {"type": "node", "id": 871572118, "lat": 52.5003759, "lon": 13.4176316, "tags": {"addr:city": "Berlin", "addr:country": "DE", "addr:housenumber": "9", "addr:postcode": "10999", "addr:street": "Dresdener Stra\u00dfe", "addr:suburb": "Kreuzberg", "contact:email": "kontakt@nubar.info", "contact:facebook": "https://www.facebook.com/nubarpage/", "contact:website": "http://lerne-kurdisch.de", "contact:youtube": "https://www.youtube.com/watch?v=at_u1ZI5nUg", "name": "N\u00fbbar - Kurdische Studierende in Berlin & Brandenburg", "note": "Die Webseite ist nicht erreichbar. Die Domain ist bei Dargonparking.com", "office": "yes"}}, {"type": "node", "id": 871633754, "lat": 52.5029137, "lon": 13.4139348, "tags": {"name": "synergion", "office": "yes", "website": "http://synergion.info/"}}, {"type": "node", "id": 967206087, "lat": 52.498238, "lon": 13.2905956, "tags": {"addr:city": "Berlin", "addr:country": "DE", "addr:housenumber": "4", "addr:postcode": "10711", "addr:street": "Georg-Wilhelm-Stra\u00dfe", "addr:suburb": "Halensee", "office": "yes"}}, {"type": "node", "id": 1079443359, "lat": 52.4993921, "lon": 13.3771489}, {"type": "node", "id": 1079443384, "lat": 52.4986172, "lon": 13.3759805}, {"type": "node", "id": 1079443396, "lat": 52.4985936, "lon": 13.3760151}, {"type": "node", "id": 1079443404, "lat": 52.4992984, "lon": 13.3771175}, {"type": "node", "id": 1373663769, "lat": 52.4913583, "lon": 13.2984996, "tags": {"addr:city": "Berlin", "addr:country": "DE", "addr:housenumber": "8-9", "addr:postcode": "10709", "addr:street": "Seesener Stra\u00dfe", "addr:suburb": "Halensee", "check_date": "2023-09-22", "contact:website": "https://www.auktion-dannenberg.de/", "name": "Auktionshaus Dannenberg", "office": "yes"}}, {"type": "node", "id": 1423923554, "lat": 52.5206218, "lon": 13.4688218}, {"type": "node", "id": 1423923559, "lat": 52.5206011, "lon": 13.4685226}, {"type": "node", "id": 1423923592, "lat": 52.5204867, "lon": 13.4685451}, {"type": "node", "id": 1423923594, "lat": 52.5205109, "lon": 13.4688469}, {"type": "node", "id": 1488317294, "lat": 52.4577317, "lon": 13.5324407}, {"type": "node", "id": 1488317300, "lat": 52.4580403, "lon": 13.5321374}, {"type": "node", "id": 1488317302, "lat": 52.4574412, "lon": 13.5326371}, {"type": "node", "id": 1488317304, "lat": 52.458355, "lon": 13.5318355}, {"type": "node", "id": 1488317306, "lat": 52.4588227, "lon": 13.5321314}, {"type": "node", "id": 1488317308, "lat": 52.4587329, "lon": 13.5322495}, {"type": "node", "id": 1554391934, "lat": 52.4754323, "lon": 13.7023166}, {"type": "node", "id": 1554391935, "lat": 52.4754381, "lon": 13.7020166}, {"type": "node", "id": 1554391959, "lat": 52.475588, "lon": 13.7023249}, {"type": "node", "id": 1554391963, "lat": 52.4755928, "lon": 13.7020243}, {"type": "node", "id": 1557276162, "lat": 52.4593828, "lon": 13.7031885, "tags": {"name": "Elektro-Installation Norbert Grzenkowitz", "office": "yes", "phone": "+49-30-6491213"}}, {"type": "node", "id": 1557276170, "lat": 52.4585796, "lon": 13.6994481, "tags": {"name": "Hanka Dachdecker GmbH", "office": "yes", "phone": "+49-30-65482858"}}, {"type": "node", "id": 1557276221, "lat": 52.4593794, "lon": 13.6992507, "tags": {"name": "Raumausstatter H. Skiba", "office": "yes", "phone": "+49-30-6495487"}}, {"type": "node", "id": 1557276846, "lat": 52.4786019, "lon": 13.7025149}, {"type": "node", "id": 1557276848, "lat": 52.4786373, "lon": 13.7022696}, {"type": "node", "id": 1557276859, "lat": 52.478865, "lon": 13.7026172}, {"type": "node", "id": 1557276862, "lat": 52.4789004, "lon": 13.7023718}, {"type": "node", "id": 1562676226, "lat": 52.6328486, "lon": 13.2891788, "tags": {"addr:city": "Berlin", "addr:country": "DE", "addr:housenumber": "1A", "addr:postcode": "13465", "addr:street": "Ludolfingerplatz", "addr:suburb": "Frohnau", "check_date": "2024-02-17", "contact:email": "nord@hospiz-fuer-berlin.de", "contact:phone": "+493041471035", "contact:website": "https://www.pflegewerk-berlin.de", "name": "Pflegewerk", "office": "yes", "opening_hours": "Sa[1] 10:00-13:00"}}, {"type": "node", "id": 1562725973, "lat": 52.4809399, "lon": 13.7013323, "tags": {"denomination": "lutheran", "name": "Evangelische Kirchengemeinde", "office": "yes", "opening_hours": "Tu-We 09:00-13:00", "religion": "christian"}}, {"type": "node", "id": 1562725978, "lat": 52.4809785, "lon": 13.7013785, "tags": {"name": "Friedhofsverwaltung", "office": "yes", "opening_hours": "Th 09:00-13:00"}}, {"type": "node", "id": 1562726057, "lat": 52.4810242, "lon": 13.7014362, "tags": {"denomination": "protestant", "name": "Pfarramt der evangelischen Kirchengemeinde", "office": "yes", "opening_hours": "Tu 17:30-19:00", "religion": "christian"}}, {"type": "node", "id": 1792936521, "lat": 52.4989334, "lon": 13.375677}, {"type": "node", "id": 1793002865, "lat": 52.4995193, "lon": 13.377766}, {"type": "node", "id": 1944194305, "lat": 52.5340641, "lon": 13.4202786, "tags": {"name": "GeoSolar", "office": "yes", "website": "https://www.geosolar.de/"}}, {"type": "node", "id": 1969213688, "lat": 52.4888542, "lon": 13.3652403, "tags": {"name": "Jo-Mei Games", "office": "yes", "url": "http://jo-mei.com/"}}, {"type": "node", "id": 1989907769, "lat": 52.5974405, "lon": 13.3635945, "tags": {"addr:city": "Berlin", "addr:housenumber": "96", "addr:postcode": "13439", "addr:street": "Wilhelmsruher Damm", "dance:teaching": "yes", "email": "info@tanzschule-steirl.de", "name": "Tanzschule Peter Steirl", "office": "yes", "operator": "ADTV Tanzschule Peter Steirl GmbH", "phone": "+49 30 415 26 26", "website": "https://www.tanzschule-steirl.de/"}}, {"type": "node", "id": 2317468839, "lat": 52.4573738, "lon": 13.5336084}, {"type": "node", "id": 2317468840, "lat": 52.4574012, "lon": 13.5337629}, {"type": "node", "id": 2317468841, "lat": 52.4574999, "lon": 13.5335838}, {"type": "node", "id": 2317468843, "lat": 52.4575144, "lon": 13.5337398}, {"type": "node", "id": 2317468846, "lat": 52.4576709, "lon": 13.5335803}, {"type": "node", "id": 2317468847, "lat": 52.4577243, "lon": 13.533557}, {"type": "node", "id": 2317468848, "lat": 52.4577464, "lon": 13.5329845}, {"type": "node", "id": 2317468849, "lat": 52.4577533, "lon": 13.533025}, {"type": "node", "id": 2317468850, "lat": 52.4578547, "lon": 13.5337848}, {"type": "node", "id": 2317468851, "lat": 52.4578624, "lon": 13.5338324}, {"type": "node", "id": 2317468852, "lat": 52.4580074, "lon": 13.5334402}, {"type": "node", "id": 2317468853, "lat": 52.4580599, "lon": 13.5326823}, {"type": "node", "id": 2317468854, "lat": 52.458067, "lon": 13.5327205}, {"type": "node", "id": 2317468855, "lat": 52.4580598, "lon": 13.5334174}, {"type": "node", "id": 2317468856, "lat": 52.4581916, "lon": 13.5336436}, {"type": "node", "id": 2317468857, "lat": 52.4581988, "lon": 13.533688}, {"type": "node", "id": 2317468858, "lat": 52.4584178, "lon": 13.5332566}, {"type": "node", "id": 2317468860, "lat": 52.4584689, "lon": 13.5332347}, {"type": "node", "id": 2317468861, "lat": 52.4586003, "lon": 13.5334605}, {"type": "node", "id": 2317468863, "lat": 52.458608, "lon": 13.5335086}, {"type": "node", "id": 2375950732, "lat": 52.4337539, "lon": 13.4347645}, {"type": "node", "id": 2375950764, "lat": 52.4337528, "lon": 13.4345819}, {"type": "node", "id": 2375950799, "lat": 52.4329897, "lon": 13.4348067}, {"type": "node", "id": 2375950843, "lat": 52.4332463, "lon": 13.4345065}, {"type": "node", "id": 2375950862, "lat": 52.4334207, "lon": 13.4335458}, {"type": "node", "id": 2375950885, "lat": 52.4335336, "lon": 13.4335408}, {"type": "node", "id": 2375950951, "lat": 52.4331109, "lon": 13.4335635}, {"type": "node", "id": 2375950961, "lat": 52.4332243, "lon": 13.4335601}, {"type": "node", "id": 2375950968, "lat": 52.433124, "lon": 13.4346185}, {"type": "node", "id": 2375950970, "lat": 52.4329857, "lon": 13.4346286}, {"type": "node", "id": 2375950978, "lat": 52.4336047, "lon": 13.4345876}, {"type": "node", "id": 2431839238, "lat": 52.511321, "lon": 13.3239579, "tags": {"check_date": "2023-06-14", "name": "Centre for Entrepreneurship", "office": "yes"}}, {"type": "node", "id": 2498262783, "lat": 52.4875729, "lon": 13.3915727, "tags": {"addr:city": "Berlin", "addr:country": "DE", "addr:housenumber": "28", "addr:postcode": "10965", "addr:street": "Willibald-Alexis-Stra\u00dfe", "name": "Webdesign Grafikdesign Bernoully", "office": "yes", "opening_hours": "Mo-Fr 10:00-18:00", "phone": "+49 30 43027710", "website": "https://bernoully.de/", "wheelchair": "yes"}}, {"type": "node", "id": 2574356680, "lat": 52.4919854, "lon": 13.4463759, "tags": {"addr:city": "Berlin", "addr:country": "DE", "addr:housenumber": "63", "addr:postcode": "12435", "addr:street": "Karl-Kunger-Stra\u00dfe", "addr:suburb": "Alt-Treptow", "check_date": "2024-10-09", "description": "Office for anthropocene landscapes", "name": "studio erde.", "office": "yes", "website": "https://www.studio-erde.com/"}}, {"type": "node", "id": 2575691436, "lat": 52.485379, "lon": 13.426022, "tags": {"addr:city": "Berlin", "addr:country": "DE", "addr:housenumber": "12", "addr:postcode": "12043", "addr:street": "Karl-Marx-Stra\u00dfe", "name": "Content Control GmbH", "office": "yes", "phone": "+49 30 63416758", "website": "https://contentcontrol.berlin/"}}, {"type": "node", "id": 2585585799, "lat": 52.4868468, "lon": 13.39208, "tags": {"addr:city": "Berlin", "addr:country": "DE", "addr:housenumber": "30", "addr:postcode": "10965", "addr:street": "Fidicinstra\u00dfe", "addr:suburb": "Kreuzberg", "entrance": "yes", "name": "Publixphere e.V.", "office": "yes", "website": "https://publixphere.de", "wheelchair": "limited"}}, {"type": "node", "id": 2643587657, "lat": 52.5383074, "lon": 13.4739587}, {"type": "node", "id": 2643587658, "lat": 52.5383126, "lon": 13.4738888}, {"type": "node", "id": 2643587667, "lat": 52.5383227, "lon": 13.4740052}, {"type": "node", "id": 2643587670, "lat": 52.5383292, "lon": 13.4739393}, {"type": "node", "id": 2643587675, "lat": 52.5383445, "lon": 13.4739858}, {"type": "node", "id": 2643587682, "lat": 52.5384117, "lon": 13.4738006}, {"type": "node", "id": 2643587685, "lat": 52.5384789, "lon": 13.4743941}, {"type": "node", "id": 2643587686, "lat": 52.5385781, "lon": 13.4743059}, {"type": "node", "id": 2665133376, "lat": 52.4971006, "lon": 13.442173, "tags": {"addr:city": "Berlin", "addr:country": "DE", "addr:postcode": "10997", "addr:street": "Cuvrystra\u00dfe", "addr:suburb": "Kreuzberg", "contact:website": "https://bildungsteam.de/bildungsteam/impressum/", "name": "Bildungsteam", "note": "B\u00fcro in der 23a, die Postanschrift ist jedoch Cuvrystra\u00dfe 20a.", "office": "yes", "operator": "Bildungsteam Berlin-Brandenburg e.V."}}, {"type": "node", "id": 2830768924, "lat": 52.5092247, "lon": 13.4526299, "tags": {"addr:city": "Berlin", "addr:country": "DE", "addr:housenumber": "58A", "addr:postcode": "10243", "addr:street": "Warschauer Stra\u00dfe", "addr:suburb": "Friedrichshain", "email": "info@kochorthopaedie.de", "fax": "+4930 29 36044 9", "name": "Koch Orthopadie GmbH", "name:de": "Koch Orthopadie GmbH", "name:en": "Koch Orthopaedic", "office": "yes", "opening_hours": "Mo-Fr 08:00-17:00", "phone": "+4930 29 36044 0", "source": "Geoportal Berlin / Hauskoordinaten", "website": "https://www.koch-orthopaedie.com/"}}, {"type": "node", "id": 2881217714, "lat": 52.5467267, "lon": 13.2277781, "tags": {"addr:city": "Berlin", "addr:country": "DE", "addr:housenumber": "10", "addr:postcode": "13599", "addr:street": "Pulverm\u00fchlenweg", "addr:suburb": "Haselhorst", "name": "Akzent e.V.", "office": "yes", "source": "Geoportal Berlin / Hauskoordinaten"}}, {"type": "node", "id": 2952358351, "lat": 52.5743424, "lon": 13.3491436, "tags": {"addr:city": "Berlin", "addr:country": "DE", "addr:housenumber": "46", "addr:postcode": "13407", "addr:street": "Lindauer Allee", "addr:suburb": "Reinickendorf", "name": "Christian Beier - Hundetrainer Berlin", "office": "yes", "phone": "0174 3736601", "source": "Geoportal Berlin / Hauskoordinaten", "website": "https://deinhundetrainer.berlin/"}}, {"type": "node", "id": 2980386978, "lat": 52.5690427, "lon": 13.3981779}, {"type": "node", "id": 2980386979, "lat": 52.5690435, "lon": 13.3981366}, {"type": "node", "id": 2980386980, "lat": 52.5690456, "lon": 13.3982324}, {"type": "node", "id": 2980386981, "lat": 52.5690468, "lon": 13.3981832}, {"type": "node", "id": 2980386982, "lat": 52.5690477, "lon": 13.3981281}, {"type": "node", "id": 2980386983, "lat": 52.569048, "lon": 13.3980448}, {"type": "node", "id": 2980386985, "lat": 52.5690524, "lon": 13.3980451}, {"type": "node", "id": 2980386986, "lat": 52.5690931, "lon": 13.3982377}, {"type": "node", "id": 2980386987, "lat": 52.5691066, "lon": 13.398262}, {"type": "node", "id": 2980386988, "lat": 52.5691346, "lon": 13.3982613}, {"type": "node", "id": 2980386989, "lat": 52.5691349, "lon": 13.3982753}, {"type": "node", "id": 2980386990, "lat": 52.5691427, "lon": 13.3982917}, {"type": "node", "id": 2980386991, "lat": 52.5691639, "lon": 13.3982923}, {"type": "node", "id": 2980386992, "lat": 52.5691687, "lon": 13.3980535}, {"type": "node", "id": 2980386993, "lat": 52.569169, "lon": 13.3982332}, {"type": "node", "id": 2980386994, "lat": 52.569171, "lon": 13.3981893}, {"type": "node", "id": 2980386995, "lat": 52.5691723, "lon": 13.3980538}, {"type": "node", "id": 2980386996, "lat": 52.5691725, "lon": 13.3982344}, {"type": "node", "id": 2980386997, "lat": 52.5691726, "lon": 13.3980865}, {"type": "node", "id": 2980386998, "lat": 52.5691728, "lon": 13.3982423}, {"type": "node", "id": 2980386999, "lat": 52.5691737, "lon": 13.3981898}, {"type": "node", "id": 2980387000, "lat": 52.5691741, "lon": 13.3982768}, {"type": "node", "id": 2980387001, "lat": 52.5691751, "lon": 13.3982419}, {"type": "node", "id": 2980387002, "lat": 52.5691761, "lon": 13.3980865}, {"type": "node", "id": 3028339730, "lat": 52.4660861, "lon": 13.694145, "tags": {"name": "Kr\u00fcger & Kr\u00fcger Ingenieurbau GmbH", "office": "yes"}}, {"type": "node", "id": 3073431286, "lat": 52.5045663, "lon": 13.2762091, "tags": {"name": "Exhibitor Service/Business Center", "office": "yes"}}, {"type": "node", "id": 3127816190, "lat": 52.5137635, "lon": 13.4579124, "tags": {"addr:city": "Berlin", "addr:country": "DE", "addr:housenumber": "10", "addr:postcode": "10247", "addr:street": "Niederbarnimstra\u00dfe", "addr:suburb": "Friedrichshain", "contact:phone": "+49 30 275 747 45", "contact:website": "http://lucid.berlin", "name": "Lucid. Berlin", "office": "yes"}}, {"type": "node", "id": 3129290189, "lat": 52.4631107, "lon": 13.3332472}, {"type": "node", "id": 3129290191, "lat": 52.463258, "lon": 13.3329412}, {"type": "node", "id": 3159212225, "lat": 52.5081, "lon": 13.3909444, "tags": {"addr:city": "Berlin", "addr:country": "DE", "addr:housenumber": "79-80", "addr:postcode": "10117", "addr:street": "Zimmerstra\u00dfe", "addr:suburb": "Mitte", "name": "UNHCR Deutschland", "office": "yes", "phone": "+49 (0)30 - 202 202 0", "website": "http://www.unhcr.de/", "wheelchair": "yes", "wikidata": "Q132551", "wikipedia": "de:UNHCR"}}, {"type": "node", "id": 3168440867, "lat": 52.4296231, "lon": 13.4583483}, {"type": "node", "id": 3168440868, "lat": 52.4296239, "lon": 13.4579281}, {"type": "node", "id": 3168440940, "lat": 52.4297516, "lon": 13.4579271}, {"type": "node", "id": 3168440941, "lat": 52.4297519, "lon": 13.4583464}, {"type": "node", "id": 3295594267, "lat": 52.4628412, "lon": 13.3328976}, {"type": "node", "id": 3295594275, "lat": 52.4629885, "lon": 13.3325917}, {"type": "node", "id": 3305027291, "lat": 52.5272721, "lon": 13.3130327}, {"type": "node", "id": 3305073652, "lat": 52.5270414, "lon": 13.3140913}, {"type": "node", "id": 3305073653, "lat": 52.5270765, "lon": 13.3138864}, {"type": "node", "id": 3305073671, "lat": 52.5271794, "lon": 13.3130884}, {"type": "node", "id": 3305073674, "lat": 52.5271388, "lon": 13.3133173}, {"type": "node", "id": 3305073675, "lat": 52.5270378, "lon": 13.3138968}, {"type": "node", "id": 3305073676, "lat": 52.5270007, "lon": 13.3141076}, {"type": "node", "id": 3343975895, "lat": 52.5145212, "lon": 13.325146, "tags": {"addr:city": "Berlin", "addr:country": "DE", "addr:housenumber": "135", "addr:postcode": "10623", "addr:street": "Stra\u00dfe des 17. Juni", "addr:suburb": "Charlottenburg", "check_date": "2024-04-30", "contact:phone": "+49 30 31428590", "contact:website": "http://www.unicat.tu-berlin.de/", "name": "Gerhard Ertl Center", "office": "yes", "operator": "UniCat"}}, {"type": "node", "id": 3355061557, "lat": 52.5484185, "lon": 13.4023388, "tags": {"addr:city": "Berlin", "addr:country": "DE", "addr:housenumber": "42", "addr:postcode": "10437", "addr:street": "Kopenhagener Stra\u00dfe", "addr:suburb": "Prenzlauer Berg", "name:signed": "no", "office": "yes"}}, {"type": "node", "id": 3363880755, "lat": 52.4576229, "lon": 13.5324881}, {"type": "node", "id": 3363880766, "lat": 52.4579344, "lon": 13.5321847}, {"type": "node", "id": 3363880778, "lat": 52.4582507, "lon": 13.531883}, {"type": "node", "id": 3363880783, "lat": 52.4583743, "lon": 13.5323805}, {"type": "node", "id": 3363880784, "lat": 52.4583815, "lon": 13.5324192}, {"type": "node", "id": 3431399338, "lat": 52.5771371, "lon": 13.3697531, "tags": {"addr:city": "Berlin", "addr:housenumber": "60", "addr:postcode": "13407", "addr:street": "Flottenstra\u00dfe", "check_date": "2023-09-22", "name": "Adolf und Ralf Meyer GbR", "office": "yes"}}, {"type": "node", "id": 3505752011, "lat": 52.5456364, "lon": 13.1747701, "tags": {"name": "Schulpraktische Seminare Spandau", "office": "yes", "operator": "Senatsverwaltung f\u00fcr Bildung, Jugend und Sport Berlin"}}, {"type": "node", "id": 3561949187, "lat": 52.4396014, "lon": 13.5657198, "tags": {"name": "K\u00f6penicker Sportverein Ajax-Neptun Berlin 1879 e.V.", "office": "yes"}}, {"type": "node", "id": 3605164303, "lat": 52.4868855, "lon": 13.4328002, "tags": {"addr:city": "Berlin", "addr:housenumber": "21", "addr:postcode": "12045", "addr:street": "Weserstra\u00dfe", "amenity": "coworking_space", "name": "Weserland Coworking Berlin", "office": "yes", "opening_hours": "09:00-23:30", "smoking": "outside", "website": "http://coworking.weser.land", "wheelchair": "limited"}}, {"type": "node", "id": 3618225718, "lat": 52.3937371, "lon": 13.2436319, "tags": {"name": "Union Sozialer Einrichtungen gGmbH", "office": "yes"}}, {"type": "node", "id": 3644622312, "lat": 52.5931906, "lon": 13.4596597}, {"type": "node", "id": 3644622314, "lat": 52.5932076, "lon": 13.4597989}, {"type": "node", "id": 3644622319, "lat": 52.5933593, "lon": 13.4596025}, {"type": "node", "id": 3644622320, "lat": 52.5933763, "lon": 13.4597431}, {"type": "node", "id": 3658977973, "lat": 52.4733862, "lon": 13.3235396, "tags": {"addr:city": "Berlin", "addr:housenumber": "23", "addr:postcode": "12161", "addr:street": "Taunusstra\u00dfe", "check_date": "2025-03-31", "name": "wolter & works - die web manufaktur", "office": "yes", "website": "https://www.wolterworks.de/"}}, {"type": "node", "id": 3685510682, "lat": 52.5299689, "lon": 13.4244006, "tags": {"addr:city": "Berlin", "addr:country": "DE", "addr:housenumber": "8", "addr:postcode": "10405", "addr:street": "Heinrich-Roller-Stra\u00dfe", "addr:suburb": "Prenzlauer Berg", "name": "Demartistudio", "office": "yes"}}, {"type": "node", "id": 3763639079, "lat": 52.5136542, "lon": 13.4605563, "tags": {"addr:city": "Berlin", "addr:country": "DE", "addr:housenumber": "23", "addr:postcode": "10247", "addr:street": "Kreutzigerstra\u00dfe", "addr:suburb": "Friedrichshain", "contact:email": "buero@sogeg.de", "contact:fax": "+49 30 293 65718", "contact:phone": "+49 30 54719690", "contact:website": "http://sogeg.de", "craft": "metal_construction", "identity": "commons;solidarity_economy;subsistence_economy", "mode_of_organisation:self_managed": "yes", "name": "Selbstverwaltete Ostberliner GenossInnenschaft", "office": "yes", "provides": "housing", "short_name": "SOG", "source": "Solikon 2015"}}, {"type": "node", "id": 3797940482, "lat": 52.534561, "lon": 13.3426317}, {"type": "node", "id": 3797940484, "lat": 52.5345495, "lon": 13.3425216}, {"type": "node", "id": 3830165689, "lat": 52.4995945, "lon": 13.3776645}, {"type": "node", "id": 3830165714, "lat": 52.4996316, "lon": 13.377501}, {"type": "node", "id": 3837620196, "lat": 52.5001006, "lon": 13.3598798, "tags": {"addr:city": "Berlin", "addr:country": "DE", "addr:housenumber": "1", "addr:postcode": "10783", "addr:street": "Frobenstra\u00dfe", "addr:suburb": "Sch\u00f6neberg", "office": "yes"}}, {"type": "node", "id": 4064442702, "lat": 52.4926762, "lon": 13.3813925, "tags": {"check_date": "2025-02-02", "name": "Tom Treasure (Entr\u00fcmpelungen)", "office": "yes", "phone": "+493078899585"}}, {"type": "node", "id": 4095081877, "lat": 52.4421996, "lon": 13.6861264, "tags": {"name": "B\u00fcro Wohnheim K\u00f6penick", "office": "yes"}}, {"type": "node", "id": 4179380580, "lat": 52.5419589, "lon": 13.4712223}, {"type": "node", "id": 4179380582, "lat": 52.5420277, "lon": 13.4713142}, {"type": "node", "id": 4179380584, "lat": 52.5421869, "lon": 13.4707611}, {"type": "node", "id": 4179380586, "lat": 52.5422942, "lon": 13.4709045}, {"type": "node", "id": 4320996989, "lat": 52.5167555, "lon": 13.4418479, "tags": {"addr:city": "Berlin", "addr:housenumber": "94", "addr:postcode": "10243", "addr:street": "Karl-Marx-Allee", "name": "MAK Fordertechnik & Aufz\u00fcge GmbH", "office": "yes"}}, {"type": "node", "id": 4325055144, "lat": 52.5571241, "lon": 13.3406758, "tags": {"office": "yes"}}, {"type": "node", "id": 4411039098, "lat": 52.3883681, "lon": 13.4913083}, {"type": "node", "id": 4411039099, "lat": 52.3882388, "lon": 13.4913049}, {"type": "node", "id": 4411039100, "lat": 52.3882418, "lon": 13.4909966}, {"type": "node", "id": 4411039101, "lat": 52.3883711, "lon": 13.491}, {"type": "node", "id": 4423432663, "lat": 52.4927945, "lon": 13.3304461, "tags": {"addr:city": "Berlin", "addr:country": "DE", "addr:housenumber": "23", "addr:postcode": "10717", "addr:street": "Bundesallee", "email": "info@iep-berlin.de", "name": "Institut f\u00fcr Europ\u00e4ische Politik e.V.", "office": "yes", "phone": "+49 30 88 91 34 0", "website": "https://www.iep-berlin.de/"}}, {"type": "node", "id": 4454229198, "lat": 52.5308177, "lon": 13.3264507, "tags": {"addr:city": "Berlin", "addr:country": "DE", "addr:housenumber": "35", "addr:postcode": "10553", "addr:street": "Rostocker Stra\u00dfe", "addr:suburb": "Moabit", "alt_name": "Moabit West", "contact:fax": "+49 30 39907197", "contact:phone": "+49 30 39907195", "contact:website": "https://www.moabitwest.de/", "name": "Quartiersmanagement Beusselstra\u00dfe", "note": "Bis 2020: \"Quartiersmanagement Moabit West\"", "office": "yes", "opening_hours": "Tu,Th 11:00-13:00; We 16:00-18:00", "website": "https://www.qm-beusselstrasse.de/"}}, {"type": "node", "id": 4465965909, "lat": 52.4979953, "lon": 13.3014772, "tags": {"addr:city": "Berlin", "addr:country": "DE", "addr:housenumber": "2", "addr:postcode": "10709", "addr:street": "Cicerostra\u00dfe", "addr:suburb": "Halensee", "name": "Warth & Klein Grant Thornton AG", "office": "yes", "phone": "+49 30 89 04 82-0", "website": "https://www.wkgt.com"}}, {"type": "node", "id": 4513799859, "lat": 52.5010472, "lon": 13.3883883, "tags": {"addr:city": "Berlin", "addr:housenumber": "138", "addr:postcode": "10963", "addr:street": "Wilhelmstra\u00dfe", "check_date": "2023-09-28", "name": "Institut des Bewertungsausschusses", "office": "yes"}}, {"type": "node", "id": 4601595899, "lat": 52.5429722, "lon": 13.4733178}, {"type": "node", "id": 4601595900, "lat": 52.5432244, "lon": 13.473666}, {"type": "node", "id": 4601595901, "lat": 52.543126, "lon": 13.4738588}, {"type": "node", "id": 4601595902, "lat": 52.5428737, "lon": 13.4735107}, {"type": "node", "id": 4601595903, "lat": 52.5429344, "lon": 13.4733919, "tags": {"entrance": "yes"}}, {"type": "node", "id": 4601595905, "lat": 52.5421785, "lon": 13.4711387, "tags": {"entrance": "yes"}}, {"type": "node", "id": 4672835109, "lat": 52.499125, "lon": 13.4638922, "tags": {"addr:city": "Berlin", "addr:housenumber": "54", "addr:postcode": "10245", "addr:street": "Corinthstra\u00dfe", "contact:phone": "+49 30 577 00 34 00", "email": "Info@AlterHausVerwalter.de", "name": "AlterHausVerwalter.de - aventies GmbH", "office": "yes", "opening_hours": "Mo-Fr 09:00-18:00", "website": "http://alterhausverwalter.de"}}, {"type": "node", "id": 4672835110, "lat": 52.4991182, "lon": 13.4639116, "tags": {"addr:city": "Berlin", "addr:housenumber": "54", "addr:postcode": "10245", "addr:street": "Corinthstra\u00dfe", "name": "Messhelden", "office": "yes"}}, {"type": "node", "id": 4672835111, "lat": 52.4991096, "lon": 13.4639338, "tags": {"addr:city": "Berlin", "addr:housenumber": "54", "addr:postcode": "10245", "addr:street": "Corinthstra\u00dfe", "name": "Comby GmbH", "office": "yes"}}, {"type": "node", "id": 4732186829, "lat": 52.5266061, "lon": 13.3142535}, {"type": "node", "id": 4876921944, "lat": 52.4993923, "lon": 13.3759973}, {"type": "node", "id": 4876921945, "lat": 52.4992626, "lon": 13.3758389}, {"type": "node", "id": 4876921946, "lat": 52.4993955, "lon": 13.3759051}, {"type": "node", "id": 4893458642, "lat": 52.5196011, "lon": 13.3860721, "tags": {"check_date": "2023-07-10", "name": "Initiative Neue Soziale Marktwirtschaft", "office": "yes"}}, {"type": "node", "id": 4917111350, "lat": 52.4575133, "lon": 13.5335686}, {"type": "node", "id": 4917111351, "lat": 52.4574996, "lon": 13.5335707}, {"type": "node", "id": 5026742624, "lat": 52.5555275, "lon": 13.5449864}, {"type": "node", "id": 5026742625, "lat": 52.5555604, "lon": 13.5450156}, {"type": "node", "id": 5026742626, "lat": 52.5555402, "lon": 13.5449475}, {"type": "node", "id": 5026742627, "lat": 52.5555735, "lon": 13.5449756}, {"type": "node", "id": 5026742629, "lat": 52.5555073, "lon": 13.5446835}, {"type": "node", "id": 5026742635, "lat": 52.5556543, "lon": 13.5448136}, {"type": "node", "id": 5026742636, "lat": 52.5556345, "lon": 13.5447961}, {"type": "node", "id": 5137799765, "lat": 52.5575834, "lon": 13.547822}, {"type": "node", "id": 5137799814, "lat": 52.5567277, "lon": 13.54739}, {"type": "node", "id": 5137799815, "lat": 52.5566195, "lon": 13.5472968}, {"type": "node", "id": 5137799816, "lat": 52.5566245, "lon": 13.5472807}, {"type": "node", "id": 5137799817, "lat": 52.5567329, "lon": 13.5473736}, {"type": "node", "id": 5137799818, "lat": 52.5574327, "lon": 13.5476903}, {"type": "node", "id": 5137799819, "lat": 52.5574378, "lon": 13.5476764}, {"type": "node", "id": 5137799820, "lat": 52.5573537, "lon": 13.5479354}, {"type": "node", "id": 5137801021, "lat": 52.5573594, "lon": 13.5479172}, {"type": "node", "id": 5300453183, "lat": 52.5385717, "lon": 13.4055491, "tags": {"addr:city": "Berlin", "addr:country": "DE", "addr:housenumber": "41", "addr:postcode": "10435", "addr:street": "Schwedter Stra\u00dfe", "addr:suburb": "Prenzlauer Berg", "contact:website": "http://www.venturebase.de/", "name": "Venture Base GmbH", "office": "yes", "wheelchair": "yes"}}, {"type": "node", "id": 5349147021, "lat": 52.4735438, "lon": 13.4508647, "tags": {"check_date": "2023-08-07", "name": "Tagespflege TMG Neuk\u00f6lln", "office": "yes"}}, {"type": "node", "id": 5351992522, "lat": 52.5522148, "lon": 13.4112067, "tags": {"addr:housenumber": "40", "addr:postcode": "10439", "addr:street": "Paul-Robeson-Stra\u00dfe", "name": "NVKV", "office": "yes", "website": "https://nvkv.de/"}}, {"type": "node", "id": 5354951067, "lat": 52.5474227, "lon": 13.4087129, "tags": {"name": "Meramo", "office": "yes"}}, {"type": "node", "id": 5386371547, "lat": 52.5543759, "lon": 13.4093213, "tags": {"name": "Alness Transport", "office": "yes"}}, {"type": "node", "id": 5588264868, "lat": 52.4858736, "lon": 13.3623225, "tags": {"addr:city": "Berlin", "addr:housenumber": "52", "addr:postcode": "10829", "addr:street": "Kolonnenstra\u00dfe", "contact:email": "cu@cursprung.com", "contact:phone": "+49 30 69531088", "contact:website": "http://cursprung.com/", "description": "design.digitale medien", "level": "0", "name": "c'ursprung", "office": "yes", "wheelchair": "no"}}, {"type": "node", "id": 5640327494, "lat": 52.5441925, "lon": 13.3917958, "tags": {"addr:city": "Berlin", "addr:housenumber": "86", "addr:postcode": "13355", "addr:street": "Brunnenstra\u00dfe", "check_date": "2023-06-07", "description": "Personalvermittlung und -beratung rund um Kinderbetreuung", "name": "Hautstadtkinder gGmbH", "office": "yes"}}, {"type": "node", "id": 5684250173, "lat": 52.5200584, "lon": 13.4997833}, {"type": "node", "id": 5689680839, "lat": 52.5207562, "lon": 13.4997337, "tags": {"entrance": "main"}}, {"type": "node", "id": 5710306052, "lat": 52.5205348, "lon": 13.4999199}, {"type": "node", "id": 5717120633, "lat": 52.5202786, "lon": 13.4999021, "tags": {"entrance": "yes"}}, {"type": "node", "id": 5717120634, "lat": 52.5207572, "lon": 13.499933, "tags": {"entrance": "yes"}}, {"type": "node", "id": 5741680791, "lat": 52.5420411, "lon": 13.4712872}, {"type": "node", "id": 5741680792, "lat": 52.5420796, "lon": 13.4713387}, {"type": "node", "id": 5754228276, "lat": 52.5905783, "lon": 13.3311595, "tags": {"addr:city": "Berlin", "addr:country": "DE", "addr:housenumber": "25", "addr:postcode": "13437", "addr:street": "Alt-Wittenau", "addr:suburb": "Wittenau", "check_date": "2023-10-26", "name": "Lebenskraft", "office": "yes", "operator": "Silvia Szelies", "phone": "+49 30 43774849", "website": "https://lebenskraft-berlin.de/"}}, {"type": "node", "id": 5768701971, "lat": 52.4418704, "lon": 13.3540727, "tags": {"addr:housenumber": "129a", "addr:street": "Kaiser-Wilhelm-Stra\u00dfe", "check_date": "2023-06-30", "name": "ahead Personalvermittlung", "office": "yes"}}, {"type": "node", "id": 5784527286, "lat": 52.4575152, "lon": 13.5337512}, {"type": "node", "id": 5784527287, "lat": 52.4575289, "lon": 13.5337498}, {"type": "node", "id": 5784527288, "lat": 52.4574025, "lon": 13.5337791}, {"type": "node", "id": 5784527289, "lat": 52.4573885, "lon": 13.5337817}, {"type": "node", "id": 5784527290, "lat": 52.4573536, "lon": 13.53333}, {"type": "node", "id": 5784527291, "lat": 52.4573671, "lon": 13.5333263}, {"type": "node", "id": 5784527292, "lat": 52.4573474, "lon": 13.5332515}, {"type": "node", "id": 5784527293, "lat": 52.4573612, "lon": 13.5332501}, {"type": "node", "id": 5784527301, "lat": 52.4582242, "lon": 13.5318753}, {"type": "node", "id": 5784527302, "lat": 52.4576191, "lon": 13.5324646}, {"type": "node", "id": 5784527303, "lat": 52.4579376, "lon": 13.5321829}, {"type": "node", "id": 5784527305, "lat": 52.4577269, "lon": 13.5324426}, {"type": "node", "id": 5784527307, "lat": 52.4580444, "lon": 13.5321362}, {"type": "node", "id": 5784527308, "lat": 52.4580292, "lon": 13.5320704}, {"type": "node", "id": 5784527309, "lat": 52.4582465, "lon": 13.5318852}, {"type": "node", "id": 5784527310, "lat": 52.4582476, "lon": 13.531861}, {"type": "node", "id": 5784527311, "lat": 52.4586297, "lon": 13.5318125}, {"type": "node", "id": 5784527312, "lat": 52.4585951, "lon": 13.5317414}, {"type": "node", "id": 5784527313, "lat": 52.4586131, "lon": 13.5317248}, {"type": "node", "id": 5784527314, "lat": 52.4586472, "lon": 13.5317917}, {"type": "node", "id": 5784527315, "lat": 52.458359, "lon": 13.5318349}, {"type": "node", "id": 5784527316, "lat": 52.458343, "lon": 13.5317696}, {"type": "node", "id": 5838141184, "lat": 52.5475479, "lon": 13.3972715, "tags": {"addr:city": "Berlin", "addr:housenumber": "20", "addr:postcode": "13355", "addr:street": "Ramlerstra\u00dfe", "name": "mauergarten e.V.", "note": "Weltacker-Club-Mitglied", "office": "yes"}}, {"type": "node", "id": 5843928698, "lat": 52.5225491, "lon": 13.3836841, "tags": {"addr:city": "Berlin", "addr:housenumber": "19/20", "addr:postcode": "10117", "addr:street": "Marienstra\u00dfe", "name": "bauerngarten", "note": "Weltacker-Club-Mitglied", "office": "yes", "website": "https://www.bauerngarten.net"}}, {"type": "node", "id": 5982075025, "lat": 52.4528867, "lon": 13.2907717, "tags": {"check_date": "2024-05-30", "description": "Zitat Website: \"Das Institut geh\u00f6rt zu den \u00e4ltesten universit\u00e4ren Forschungseinrichtungen f\u00fcr pr\u00e4historische Arch\u00e4ologie im deutschsprachigen Raum. Es befindet sich seit 2015 im Neubau, Fabeckstra\u00dfe 23-25.\"", "name": "Institut f\u00fcr Pr\u00e4historische Arch\u00e4ologie", "office": "yes", "website": "https://www.geschkult.fu-berlin.de/e/praehist/index.html"}}, {"type": "node", "id": 5984092876, "lat": 52.477102, "lon": 13.4296598, "tags": {"addr:city": "Berlin", "addr:country": "DE", "addr:housenumber": "24", "addr:postcode": "12053", "addr:street": "Falkstra\u00dfe", "addr:suburb": "Neuk\u00f6lln", "check_date": "2023-05-12", "entrance": "yes", "name": "medienstandort", "office": "yes"}}, {"type": "node", "id": 5986029146, "lat": 52.4764594, "lon": 13.4314221, "tags": {"entrance": "yes", "level": "1", "office": "yes"}}, {"type": "node", "id": 5986029147, "lat": 52.4764098, "lon": 13.4310013, "tags": {"entrance": "yes", "level": "1", "office": "yes"}}, {"type": "node", "id": 6032374283, "lat": 52.5605719, "lon": 13.3807165, "tags": {"check_date": "2025-04-09", "email": "lotsen-kolonie@bildungsmarkt.de", "name": "Lotsenprojekt Die Br\u00fccke", "office": "yes", "opening_hours": "Mo-Fr 09:00-15:30", "phone": "+49 30 48478064", "website": "https://www.bildungsmarkt.de/weiterbildung/migranten-und-fluechtlinge/lotsenprojekt-die-bruecke/"}}, {"type": "node", "id": 6055560148, "lat": 52.5525585, "lon": 13.4100414, "tags": {"name": "Verbum", "office": "yes"}}, {"type": "node", "id": 6157289435, "lat": 52.5695401, "lon": 13.379125, "tags": {"email": "post@ml-service-gmbh.de", "name": "ML Service GmbH", "office": "yes", "owner": "Maria Lemke", "phone": "+49 152 59581771", "wheelchair": "no", "wheelchair:entrance_width": "15"}}, {"type": "node", "id": 6208096151, "lat": 52.5370078, "lon": 13.4106927, "tags": {"noname": "yes", "note": "maybe coworking, no name visible", "office": "yes"}}, {"type": "node", "id": 6376432646, "lat": 52.5528074, "lon": 13.4070609, "tags": {"addr:city": "Berlin", "addr:housenumber": "18", "addr:postcode": "10439", "addr:street": "Paul-Robeson-Stra\u00dfe", "disused:name": "Loptafilm", "disused:office": "company", "disused:website": "https://loptafilm.de/", "healthcare:speciality": "covid19", "name": "LA-Films", "office": "yes", "temporary": "yes"}}, {"type": "node", "id": 6383316363, "lat": 52.5091452, "lon": 13.4247436, "tags": {"name": "Caseless", "office": "yes"}}, {"type": "node", "id": 6462692486, "lat": 52.5563076, "lon": 13.3842392, "tags": {"check_date:opening_hours": "2023-04-20", "name": "Berlin Lastmile", "office": "yes", "wheelchair": "no"}}, {"type": "node", "id": 6620568361, "lat": 52.5476205, "lon": 13.5882365, "tags": {"addr:city": "Berlin", "addr:country": "DE", "addr:housenumber": "31 - 33", "addr:postcode": "12629", "addr:street": "Zossener Stra\u00dfe", "addr:suburb": "Hellersdorf", "name": "KileLe gGmbH", "office": "yes", "operator": "Kinder lernen Leben gGmbH", "source": "Geoportal Berlin / Hauskoordinaten", "website": "https://www.kilele-berlin.de/"}}, {"type": "node", "id": 6767105192, "lat": 52.461272, "lon": 13.4614424, "tags": {"addr:city": "Berlin", "addr:country": "DE", "addr:housenumber": "53-59", "addr:postcode": "12057", "addr:street": "Bergiusstra\u00dfe", "addr:suburb": "Neuk\u00f6lln", "contact:email": "info@camelion.com", "contact:fax": "+49 30 767647199", "contact:phone": "+49 30 7676470", "contact:website": "https://www.camelion.com/", "name": "Camelion Batterien", "office": "yes", "operator": "Camelion Batterien GmbH"}}, {"type": "node", "id": 6770928284, "lat": 52.4995898, "lon": 13.387482, "tags": {"addr:housenumber": "23", "addr:street": "Stresemannstra\u00dfe", "name": "Tuscheteam (CAD)", "office": "yes", "website": "https://tuscheteam.de/"}}, {"type": "node", "id": 7025879070, "lat": 52.5343446, "lon": 13.4361715, "tags": {"addr:city": "Berlin", "addr:housenumber": "146", "addr:postcode": "10407", "addr:street": "Danziger Stra\u00dfe", "email": "info@femkit.de", "name": "Femkit Modekonstrukt Gmbh", "office": "yes", "opening_hours": "Tu-Sa 11:00-18:00", "phone": "+49 30 24355167", "website": "https://femkit.de"}}, {"type": "node", "id": 7025879074, "lat": 52.5348919, "lon": 13.4350504, "tags": {"check_date": "2023-07-22", "name": "Froschking", "office": "yes"}}, {"type": "node", "id": 7025879186, "lat": 52.5365319, "lon": 13.4310448, "tags": {"addr:city": "Berlin", "addr:housenumber": "110", "addr:postcode": "10405", "addr:street": "Danziger Stra\u00dfe", "check_date": "2025-03-15", "name": "Gastro-Technik Gerd Bludau", "office": "yes", "website": "http://www.gastrotechnik-bludau.de/"}}, {"type": "node", "id": 7063624996, "lat": 52.5521421, "lon": 13.4120507, "tags": {"name": "Fr\u00e4uleinwunder Hamburg", "office": "yes", "website": "https://fraeuleinwunder-hamburg.de/"}}, {"type": "node", "id": 7169300373, "lat": 52.5330697, "lon": 13.4387429, "tags": {"addr:city": "Berlin", "addr:housenumber": "162", "addr:postcode": "10407", "addr:street": "Danziger Stra\u00dfe", "check_date": "2024-04-14", "name": "Arne Eberle press+sales", "office": "yes", "website": "http://arneeberle.de/"}}, {"type": "node", "id": 7191522539, "lat": 52.4829235, "lon": 13.4441687, "tags": {"name": "MARKS", "office": "yes"}}, {"type": "node", "id": 7237064963, "lat": 52.5542917, "lon": 13.4108789, "tags": {"name": "LNSGRP", "office": "yes"}}, {"type": "node", "id": 7280320396, "lat": 52.47304, "lon": 13.425598, "tags": {"addr:city": "Berlin", "addr:housenumber": "49", "addr:postcode": "12049", "addr:street": "Leinestra\u00dfe", "contact:email": "info@jungs.berlin", "contact:phone": "+49 30 23633983", "contact:website": "https://jungs.berlin/", "description": "Hilfe f\u00fcr Jungen* bei sexualisierter Gewalt", "name": "berliner jungs - Hilfe f\u00fcr Jungen* bei sexualisierter Gewalt", "office": "yes"}}, {"type": "node", "id": 7280320397, "lat": 52.4732474, "lon": 13.4274665, "tags": {"addr:city": "Berlin", "addr:housenumber": "56", "addr:postcode": "12049", "addr:street": "Leinestra\u00dfe", "contact:fax": "+49 30 81726842", "contact:phone": "+49 30 81726814", "contact:website": "http://www.kinderhoffnung-ev.de/", "name": "Kinderhoffnung e.V.", "office": "yes"}}, {"type": "node", "id": 7454721564, "lat": 52.4689001, "lon": 13.4541868, "tags": {"addr:city": "Berlin", "addr:country": "DE", "addr:housenumber": "11", "addr:postcode": "12055", "addr:street": "Lahnstra\u00dfe", "addr:suburb": "Neuk\u00f6lln", "name": "Gottschalk Und Michaelis Gmbh - Aufzugbau Seit 1880", "office": "yes", "source": "Geoportal Berlin / Hauskoordinaten"}}, {"type": "node", "id": 7734703597, "lat": 52.5123247, "lon": 13.4021928, "tags": {"addr:city": "Berlin", "addr:country": "DE", "addr:housenumber": "10", "addr:postcode": "10117", "addr:street": "Spittelmarkt", "addr:suburb": "Mitte", "check_date": "2023-09-11", "name": "Deutsche Akkreditierungsstelle", "office": "yes", "short_name": "DAkkS"}}, {"type": "node", "id": 7871627253, "lat": 52.5350757, "lon": 13.4266386, "tags": {"addr:city": "Berlin", "addr:housenumber": "26", "addr:postcode": "10405", "addr:street": "Winsstra\u00dfe", "addr:suburb": "Prenzlauer Berg", "name": "Stahlmedien", "office": "yes", "website": "https://www.stahlmedien.com/"}}, {"type": "node", "id": 7872056571, "lat": 52.5517105, "lon": 13.4107083, "tags": {"addr:city": "Berlin", "addr:housenumber": "7", "addr:postcode": "10439", "addr:street": "Seelower Stra\u00dfe", "email": "kontakt@bellaseven.com", "name": "BellaSeven", "office": "yes", "phone": "+49 30 74922024", "website": "https://www.bellaseven.com/"}}, {"type": "node", "id": 8042804321, "lat": 52.4621354, "lon": 13.3433134, "tags": {"name": "MietCamperAustralien", "office": "yes", "operator": "Sebastian Hopf", "shop": "travel_agency", "website": "https://www.mietcamperaustralien.de"}}, {"type": "node", "id": 8118755959, "lat": 52.4686353, "lon": 13.3231578, "tags": {"addr:city": "Berlin", "addr:country": "DE", "addr:housenumber": "11", "addr:postcode": "12161", "addr:street": "Hertelstra\u00dfe", "addr:suburb": "Friedenau", "name": "Amiguitos", "office": "yes", "operator": "Claudia von Holten", "website": "https://www.amiguitos.de/"}}, {"type": "node", "id": 8176586576, "lat": 52.4864534, "lon": 13.397631}, {"type": "node", "id": 8176586577, "lat": 52.4864959, "lon": 13.397633}, {"type": "node", "id": 8176586578, "lat": 52.4864936, "lon": 13.3977634}, {"type": "node", "id": 8176586579, "lat": 52.4864511, "lon": 13.3977613}, {"type": "node", "id": 8176586580, "lat": 52.4864895, "lon": 13.3977694}, {"type": "node", "id": 8176586581, "lat": 52.4864888, "lon": 13.3978214}, {"type": "node", "id": 8176586582, "lat": 52.486451, "lon": 13.3978201}, {"type": "node", "id": 8176586583, "lat": 52.4864516, "lon": 13.397768}, {"type": "node", "id": 8176586584, "lat": 52.4865001, "lon": 13.3978254}, {"type": "node", "id": 8176586585, "lat": 52.4864996, "lon": 13.3979453}, {"type": "node", "id": 8176586586, "lat": 52.4864449, "lon": 13.3979447}, {"type": "node", "id": 8176586587, "lat": 52.4864454, "lon": 13.3978248}, {"type": "node", "id": 8176586588, "lat": 52.4864708, "lon": 13.3980155}, {"type": "node", "id": 8176586589, "lat": 52.4864686, "lon": 13.3981238}, {"type": "node", "id": 8176586590, "lat": 52.4864374, "lon": 13.3981221}, {"type": "node", "id": 8176586591, "lat": 52.4864395, "lon": 13.3980138}, {"type": "node", "id": 8176586592, "lat": 52.4864764, "lon": 13.3981422}, {"type": "node", "id": 8176586593, "lat": 52.4864744, "lon": 13.3981948}, {"type": "node", "id": 8176586594, "lat": 52.4864508, "lon": 13.3981924}, {"type": "node", "id": 8176586595, "lat": 52.4864491, "lon": 13.398235}, {"type": "node", "id": 8176586596, "lat": 52.4864327, "lon": 13.3982333}, {"type": "node", "id": 8176586597, "lat": 52.4864369, "lon": 13.3981276}, {"type": "node", "id": 8176586598, "lat": 52.4864689, "lon": 13.398131}, {"type": "node", "id": 8176586599, "lat": 52.4864685, "lon": 13.3981414}, {"type": "node", "id": 8261764939, "lat": 52.431038, "lon": 13.7553894, "tags": {"addr:city": "Erkner", "addr:housenumber": "15", "addr:postcode": "15537", "addr:street": "Julius-R\u00fctgers-Stra\u00dfe", "name": "Containerservice Petter", "office": "yes"}}, {"type": "node", "id": 8289766307, "lat": 52.5268745, "lon": 13.3141587}, {"type": "node", "id": 8322034510, "lat": 52.4458472, "lon": 13.5290768, "tags": {"check_date": "2024-04-23", "name": "DB Simulatorzentrum Berlin-Sch\u00f6neweide", "office": "yes"}}, {"type": "node", "id": 8422865850, "lat": 52.4875991, "lon": 13.3340053, "tags": {"addr:city": "Berlin", "addr:country": "DE", "addr:housenumber": "159", "addr:postcode": "10715", "addr:street": "Berliner Stra\u00dfe", "addr:suburb": "Wilmersdorf", "check_date": "2023-03-06", "description": "Energieverbrauchsberatung", "name": "Green Aktiv", "office": "yes", "wheelchair": "no"}}, {"type": "node", "id": 8502916685, "lat": 52.4284765, "lon": 13.7491482, "tags": {"name": "Postmost", "office": "yes", "source": "survey 2021-03-09"}}, {"type": "node", "id": 8502916686, "lat": 52.4283448, "lon": 13.749332, "tags": {"name": "LAT", "office": "yes", "source": "survey 2021-03-09"}}, {"type": "node", "id": 8502916687, "lat": 52.4283334, "lon": 13.7492488, "tags": {"contact:fax": "+49 3362 8884061", "contact:phone": "+49 3362 8884060", "name": "Br\u00fcKo Bauelemente", "office": "yes", "operator": "Br\u00fcKo Bauelemente GmbH", "source": "survey 2021-03-09"}}, {"type": "node", "id": 8503295882, "lat": 52.4278836, "lon": 13.7454803, "tags": {"contact:email": "pruefer@funk-erkner.de", "contact:fax": "+49 3362 887299", "contact:phone": "+49 3362 887210", "name": "Funk International GmbH", "office": "yes"}}, {"type": "node", "id": 8508648492, "lat": 52.6337192, "lon": 13.2899301, "tags": {"addr:city": "Berlin", "addr:country": "DE", "addr:housenumber": "5", "addr:postcode": "13465", "addr:street": "Zeltinger Platz", "addr:suburb": "Frohnau", "check_date": "2025-03-16", "check_date:opening_hours": "2021-10-15", "contact:email": "info@philomena-pflege.de", "contact:fax": "+4930 40605495", "contact:phone": "+4930 40605493", "contact:website": "https://www.philomena-pflege.de/", "fixme": "genaue position", "level": "3", "name": "Philomena Seniorenbetreuung und Pflegedienst GmbH", "office": "yes", "opening_hours": "Mo-Fr 08:00-16:00"}}, {"type": "node", "id": 8508833138, "lat": 52.6337142, "lon": 13.2899215, "tags": {"addr:city": "Berlin", "addr:country": "DE", "addr:housenumber": "5", "addr:postcode": "13465", "addr:street": "Zeltinger Platz", "addr:suburb": "Frohnau", "check_date": "2025-03-16", "contact:email": "info@acon-energie.de", "contact:fax": "+4930 40 60 75 10", "contact:phone": "+4930 40 60 75 0", "contact:website": "https://acon-energie.de/", "fixme": "genaue position, level", "name": "acon Energie Management", "office": "yes"}}, {"type": "node", "id": 8520715770, "lat": 52.49874, "lon": 13.3882985, "tags": {"name": "SMartDe eG", "office": "yes", "website": "https://smart-eg.de"}}, {"type": "node", "id": 8569432229, "lat": 52.557551, "lon": 13.3909721, "tags": {"name": "Fbe Kinderg\u00e4rten", "office": "yes"}}, {"type": "node", "id": 8755180768, "lat": 52.4738784, "lon": 13.4505797, "tags": {"addr:city": "Berlin", "addr:country": "DE", "addr:housenumber": "42/44", "addr:postcode": "12055", "addr:street": "Schudomastra\u00dfe", "addr:suburb": "Neuk\u00f6lln", "name": "Culturalis kulturmanagement", "office": "yes"}}, {"type": "node", "id": 8767934364, "lat": 52.4821897, "lon": 13.4264331, "tags": {"addr:city": "Berlin", "addr:country": "DE", "addr:housenumber": "11", "addr:postcode": "12053", "addr:street": "Biebricher Stra\u00dfe", "addr:suburb": "Neuk\u00f6lln", "check_date": "2023-10-17", "name": "Rundu3 Handwerkerservice", "office": "yes", "source": "Geoportal Berlin / Hauskoordinaten"}}, {"type": "node", "id": 8779299190, "lat": 52.5326954, "lon": 13.326095, "tags": {"addr:city": "Berlin", "addr:country": "DE", "addr:housenumber": "7", "addr:postcode": "10553", "addr:street": "Sickingenstra\u00dfe", "addr:suburb": "Moabit", "check_date": "2023-06-27", "contact:fax": "+49 32 223381868", "contact:phone": "+49 30 85010642", "contact:website": "http://www.eiskombinat.de", "name": "Eiskombinat", "office": "yes", "operator": "Mario M\u00fcller"}}, {"type": "node", "id": 8805464365, "lat": 52.4562596, "lon": 13.4332412, "tags": {"contact:mobile": "+49 174 2048510", "contact:phone": "+49 30 99287542", "fixme": "specify office (evt Rechtsberatung?)", "name": "Betreuungsb\u00fcro AK", "office": "yes", "opening_hours": "Tu,Th 10:00-14:00", "operator": "Frau Aysel Ko\u00e7-Gencer"}}, {"type": "node", "id": 8909408079, "lat": 52.6551049, "lon": 13.3880378, "tags": {"addr:city": "M\u00fchlenbecker Land", "addr:housenumber": "19", "addr:postcode": "16567", "addr:street": "Kastanienallee", "name": "KALUZA + SCHMID GmbH", "office": "yes", "opening_hours": "Mo-Fr 09:00-18:00", "website": "http://kaluza-schmid.de", "wikidata": "Q106303371"}}, {"type": "node", "id": 9025349913, "lat": 52.6375338, "lon": 13.2949102, "tags": {"addr:city": "Berlin", "addr:country": "DE", "addr:housenumber": "29", "addr:postcode": "13465", "addr:street": "Zeltinger Stra\u00dfe", "addr:suburb": "Frohnau", "contact:phone": "+49 30 7871 5060", "contact:website": "https://www.einfachanders-berlin.de/", "name": "Einfachanders", "office": "yes"}}, {"type": "node", "id": 9079425222, "lat": 52.4715606, "lon": 13.4514196, "tags": {"addr:city": "Berlin", "addr:country": "DE", "addr:housenumber": "26", "addr:postcode": "12055", "addr:street": "Niemetzstra\u00dfe", "addr:suburb": "Neuk\u00f6lln", "check_date": "2024-09-29", "name": "Ceys Projektmanagement Gmbh", "office": "yes"}}, {"type": "node", "id": 9084110560, "lat": 52.5344171, "lon": 13.342559}, {"type": "node", "id": 9084110561, "lat": 52.5344286, "lon": 13.3426691}, {"type": "node", "id": 9087388375, "lat": 52.4335435, "lon": 13.4339684}, {"type": "node", "id": 9087388376, "lat": 52.4334313, "lon": 13.4341086}, {"type": "node", "id": 9087388377, "lat": 52.4334791, "lon": 13.4341066}, {"type": "node", "id": 9087388378, "lat": 52.4334856, "lon": 13.4344967}, {"type": "node", "id": 9087388379, "lat": 52.4335886, "lon": 13.4339659}, {"type": "node", "id": 9087388380, "lat": 52.433131, "lon": 13.4345186}, {"type": "node", "id": 9087388381, "lat": 52.4331217, "lon": 13.4345401}, {"type": "node", "id": 9102141246, "lat": 52.5410416, "lon": 13.4243151, "tags": {"addr:city": "Berlin", "addr:country": "DE", "addr:housenumber": "23", "addr:postcode": "10437", "addr:street": "Raumerstra\u00dfe", "addr:suburb": "Prenzlauer Berg", "contact:website": "https://www.markusreuter.com/", "name": "Markus Reuter", "office": "yes"}}, {"type": "node", "id": 9119714243, "lat": 52.5209355, "lon": 13.4999436}, {"type": "node", "id": 9202096361, "lat": 52.4867453, "lon": 13.3930816, "tags": {"addr:city": "Berlin", "addr:country": "DE", "addr:housenumber": "28", "addr:postcode": "10965", "addr:street": "Fidicinstra\u00dfe", "air_conditioning": "no", "app:apple": "https://apps.apple.com/de/app/canua/id1232570366", "app:google": "https://play.google.com/store/apps/details?id=com.touchingcode.canua", "email": "info@touchingcode.com", "level": "0", "name": "TouchingCode GmbH", "office": "yes", "opening_hours": "Mo-Fr 10:00-18:00", "phone": "+49 30 55578555", "website": "https://touchingcode.com", "wheelchair": "yes"}}, {"type": "node", "id": 9205576108, "lat": 52.5557639, "lon": 13.2049356, "tags": {"check_date": "2023-09-02", "craft": "caterer", "name": "Jordan Catering", "office": "yes"}}, {"type": "node", "id": 9209635523, "lat": 52.5042862, "lon": 13.4094871, "tags": {"description": "KFZ-Gutachter", "name": "Ingenieurb\u00fcro OPTIMA KFZ-Gutachten", "office": "yes"}}, {"type": "node", "id": 9428068765, "lat": 52.5665442, "lon": 13.4142524, "tags": {"craft": "chimney_sweeper", "name": "Schornsteinfeger Berlin GmbH", "office": "yes", "operator": "F\u00f6rster \u2013 Treptow"}}, {"type": "node", "id": 9661289849, "lat": 52.4895664, "lon": 13.6714748, "tags": {"addr:city": "Hoppegarten", "addr:country": "DE", "addr:housenumber": "30", "addr:postcode": "15366", "addr:street": "M\u00fcnchehofer Stra\u00dfe", "addr:suburb": "M\u00fcnchehofe", "check_date": "2024-09-12", "contact:email": "info@prosaani.de", "contact:fax": "+49 3342 4235621", "contact:phone": "+49 3342 4235620", "contact:website": "https://www.prosaani.net", "name": "ProSAANI", "office": "yes", "opening_hours": "Mo-Th 09:30-15:00; Fr 09:30-13:00; Sa,Su,PH off", "operator": "ProSAANI GmbH"}}, {"type": "node", "id": 9675620561, "lat": 52.5009192, "lon": 13.3934083, "tags": {"addr:city": "Berlin", "addr:housenumber": "5", "addr:postcode": "10969", "addr:street": "Franz-Kl\u00fchs-Stra\u00dfe", "check_date": "2024-10-22", "name": "gebana Berlin", "office": "yes", "website": "https://www.gebana.com/projects/ch/project/information/40?lang=de"}}, {"type": "node", "id": 9789822940, "lat": 52.5262092, "lon": 13.3136568}, {"type": "node", "id": 9789822941, "lat": 52.5270478, "lon": 13.3131561}, {"type": "node", "id": 9789822946, "lat": 52.5271257, "lon": 13.3131188}, {"type": "node", "id": 9789822947, "lat": 52.5271267, "lon": 13.313109}, {"type": "node", "id": 9789822948, "lat": 52.5269639, "lon": 13.314127}, {"type": "node", "id": 9789822949, "lat": 52.5269629, "lon": 13.3141183}, {"type": "node", "id": 9934395672, "lat": 52.4864466, "lon": 13.3986208}, {"type": "node", "id": 9934395673, "lat": 52.4864231, "lon": 13.3986184}, {"type": "node", "id": 9934395674, "lat": 52.4864254, "lon": 13.3985448}, {"type": "node", "id": 9934395675, "lat": 52.4864497, "lon": 13.398549}, {"type": "node", "id": 9934395676, "lat": 52.4864521, "lon": 13.3985018}, {"type": "node", "id": 9934395677, "lat": 52.4864287, "lon": 13.3984994}, {"type": "node", "id": 9934395678, "lat": 52.4864314, "lon": 13.3984289}, {"type": "node", "id": 9934395679, "lat": 52.4864553, "lon": 13.3984299}, {"type": "node", "id": 9965191427, "lat": 52.5012792, "lon": 13.353953, "tags": {"addr:housenumber": "8b", "addr:street": "Karl-Heinrich-Ulrichs-Stra\u00dfe", "check_date": "2024-03-18", "name": "von der Heydt", "office": "yes"}}, {"type": "node", "id": 9982061668, "lat": 52.4992929, "lon": 13.3770191}, {"type": "node", "id": 10009488794, "lat": 52.4587615, "lon": 13.5322119, "tags": {"barrier": "lift_gate"}}, {"type": "node", "id": 10010342498, "lat": 52.4580508, "lon": 13.5320488}, {"type": "node", "id": 10010342499, "lat": 52.4580839, "lon": 13.5322369}, {"type": "node", "id": 10161806420, "lat": 52.515759, "lon": 13.4968142, "tags": {"addr:city": "Berlin", "addr:housenumber": "7a", "addr:postcode": "10365", "addr:street": "Wotanstra\u00dfe", "currency:XBT": "yes", "description": "Online Vergleichsportal", "email": "mail@lahuge.com", "name": "Lahuge", "office": "yes", "payment:lightning": "no", "payment:lightning_contactless": "no", "payment:onchain": "no", "phone": "+49 (0) 170 369 52 57", "survey:date": "2022-11-06", "website": "https://lahuge.com"}}, {"type": "node", "id": 10224717215, "lat": 52.4330223, "lon": 13.4348049, "tags": {"amenity": "parking_entrance"}}, {"type": "node", "id": 10224777217, "lat": 52.433724, "lon": 13.4347661, "tags": {"amenity": "parking_entrance"}}, {"type": "node", "id": 10316928524, "lat": 52.4603875, "lon": 13.4656911, "tags": {"name": "WISAG - Maschinenwerkstatt", "office": "yes"}}, {"type": "node", "id": 10537333786, "lat": 52.4075171, "lon": 13.3828431, "tags": {"name": "AVISO", "office": "yes", "operator": "AVISO Wirtschaftsberatungsgesellschaft mbH"}}, {"type": "node", "id": 10554230611, "lat": 52.5402964, "lon": 13.4219327, "tags": {"addr:city": "Berlin", "addr:country": "DE", "addr:housenumber": "33", "addr:postcode": "10437", "addr:street": "Senefelderstra\u00dfe", "addr:suburb": "Prenzlauer Berg", "contact:phone": "+49 30 44039294", "contact:website": "https://coachingpodcast.de/", "name": "Michael Sch\u00fcrks", "office": "yes"}}, {"type": "node", "id": 10690692137, "lat": 52.5890597, "lon": 13.3566132, "tags": {"name": "KSZ Ingenieurb\u00fcro", "note": "Einzug im M\u00e4rz 2023", "office": "yes", "website": "http://www.ksz-akustik.de"}}, {"type": "node", "id": 10709821981, "lat": 52.5147652, "lon": 13.6676595, "tags": {"addr:city": "Hoppegarten", "addr:housenumber": "7", "addr:postcode": "15366", "addr:street": "Lindenallee", "addr:suburb": "Dahlwitz-Hoppegarten", "level": "1", "name": "Rehazentrum KFG GmbH & Co. KG", "office": "yes", "phone": "+49 03342 301828"}}, {"type": "node", "id": 10739372519, "lat": 52.5479648, "lon": 13.3994332, "tags": {"addr:city": "Berlin", "addr:postcode": "13355", "name": "fairsenden", "office": "yes", "operator": "Fairsenden GmbH", "website": "https://fairsenden.digital"}}, {"type": "node", "id": 10757687514, "lat": 52.4790735, "lon": 13.4281549, "tags": {"check_date": "2023-03-23", "level": "0", "name": "Center-Management", "office": "yes", "website": "https://www.tema-group.de/"}}, {"type": "node", "id": 10866014835, "lat": 52.5093603, "lon": 13.4647838, "tags": {"check_date": "2025-05-10", "name": "DIESE eG", "office": "yes", "website": "https://diese-eg.de/genossenschaft/"}}, {"type": "node", "id": 10911416945, "lat": 52.4996586, "lon": 13.3878277, "tags": {"addr:city": "Berlin", "addr:housenumber": "23", "addr:postcode": "10963", "addr:street": "Stresemannstra\u00dfe", "name": "Gro\u00dfberg Bau GmbH", "office": "yes", "website": "https://www.grossbergbau.de"}}, {"type": "node", "id": 10939453688, "lat": 52.4995306, "lon": 13.4461795, "tags": {"addr:city": "Berlin", "addr:housenumber": "33/34", "addr:postcode": "10997", "addr:street": "Schlesische Stra\u00dfe", "name": "Raisin GmbH", "office": "yes", "opening_hours": "Mo-Fr 08:30-16:30", "website": "https://www.weltsparen.de/"}}, {"type": "node", "id": 10961275915, "lat": 52.4810544, "lon": 13.4212265, "tags": {"addr:city": "Berlin", "addr:country": "DE", "addr:housenumber": "27", "addr:postcode": "12049", "addr:street": "Fontanestra\u00dfe", "name": "Theisen Sound", "office": "yes"}}, {"type": "node", "id": 10995087333, "lat": 52.598141, "lon": 13.3556354, "tags": {"name": "MV Gesch\u00e4ftshaus-Marketing GmbH", "office": "yes"}}, {"type": "node", "id": 11051662716, "lat": 52.5577843, "lon": 13.3789545, "tags": {"level": "4", "name": "UBB Unternehmensberatung und Bauservice GmbH", "office": "yes", "phone": "+49 30 42262030"}}, {"type": "node", "id": 11105706786, "lat": 52.5282068, "lon": 13.3358865, "tags": {"addr:city": "Berlin", "addr:housenumber": "6", "addr:postcode": "10551", "addr:street": "Oldenburger Stra\u00dfe", "name": "Kaputt B\u00fcro", "office": "yes"}}, {"type": "node", "id": 11147824381, "lat": 52.5225784, "lon": 13.377564, "tags": {"addr:city": "Berlin", "addr:country": "DE", "addr:housenumber": "52", "addr:postcode": "10117", "addr:street": "Reinhardtstra\u00dfe", "addr:suburb": "Mitte", "name": "Redaktion der Bundeswehr", "office": "yes", "source": "Geoportal Berlin / ALKIS"}}, {"type": "node", "id": 11183254526, "lat": 52.525895, "lon": 13.4489086, "tags": {"addr:city": "Berlin", "addr:housenumber": "3", "addr:postcode": "10249", "addr:street": "Petersburger Stra\u00dfe", "check_date": "2023-09-11", "contact:email": "contact@liebener-coaching.de", "currency:XBT": "yes", "name": "Liebener Coaching", "office": "yes", "payment:lightning": "yes", "payment:lightning_contactless": "no", "payment:onchain": "yes", "phone": "+491772353534", "website": "https://www.liebener-coaching.de/"}}, {"type": "node", "id": 11186565970, "lat": 52.5262935, "lon": 13.314362}, {"type": "node", "id": 11186565973, "lat": 52.5259811, "lon": 13.3144733}, {"type": "node", "id": 11290895508, "lat": 52.4634117, "lon": 13.3678237, "tags": {"addr:city": "Berlin", "addr:housenumber": "6", "addr:postcode": "12103", "addr:street": "Egelingzeile", "name": "BERLIN LASTMILE", "office": "yes", "operator": "Berlin Last Mile GmbH", "website": "https://www.berlinlastmile.de/"}}, {"type": "node", "id": 11373347027, "lat": 52.5238518, "lon": 13.3867948, "tags": {"addr:city": "Berlin", "addr:housenumber": "6", "addr:postcode": "10117", "addr:street": "Reinhardtstra\u00dfe", "email": "info@netzdenker.com", "internet_access": "yes", "level": "0", "name": "netzdenker", "office": "yes", "phone": "+4917610434133", "website": "https://www.netzdenker.com", "wheelchair": "no"}}, {"type": "node", "id": 11492276434, "lat": 52.5155044, "lon": 13.4677623, "tags": {"addr:city": "Berlin", "addr:housenumber": "39", "addr:postcode": "10247", "addr:street": "Voigtstra\u00dfe", "check_date": "2025-04-04", "name": "Berlin Buy GmbH", "office": "yes"}}, {"type": "node", "id": 11506599469, "lat": 52.5242621, "lon": 13.3917344, "tags": {"addr:city": "Berlin", "addr:housenumber": "5-6", "addr:postcode": "10117", "addr:street": "Johannisstra\u00dfe", "name": "IES Abroad Berlin Center", "office": "yes", "website": "https://www.iesabroad.org/destinations/germany/berlin"}}, {"type": "node", "id": 11551897400, "lat": 52.4400022, "lon": 13.342716, "tags": {"name": "Wasserfilter Al Masri", "office": "yes"}}, {"type": "node", "id": 11665650800, "lat": 52.4290663, "lon": 13.3814944, "tags": {"name": "Omnibus Kompetenz Berlin GmbH", "office": "yes", "phone": "+491722802485", "website": "https://www.omnibuskompetenz-berlin.de/"}}, {"type": "node", "id": 11732161489, "lat": 52.3706534, "lon": 13.5245851, "tags": {"name": "AMS Airport Service", "office": "yes", "website": "https://www.ams-gse.de/"}}, {"type": "node", "id": 11778471834, "lat": 52.3633475, "lon": 13.3901228, "tags": {"name": "Friedhofsverwaltung", "office": "yes"}}, {"type": "node", "id": 11804649880, "lat": 52.5315466, "lon": 13.4533778, "tags": {"name": "BASF Services Europe GmbH", "office": "yes", "website": "https://www.basf.com/global/de/who-we-are/organization/locations/europe/german-companies/BASF-Services-Europe-GmbH.html"}}, {"type": "node", "id": 11804649881, "lat": 52.5321925, "lon": 13.4527241, "tags": {"name": "SWARCO Solution Center GmbH", "office": "yes", "website": "https://www.swarco.com/de/unternehmen/swarco-solution-center-gmbh"}}, {"type": "node", "id": 11821291099, "lat": 52.4949892, "lon": 13.3401064, "tags": {"addr:city": "Berlin", "addr:housenumber": "59", "addr:postcode": "10777", "addr:street": "Motzstra\u00dfe", "check_date": "2024-04-18", "name": "Architekturb\u00fcro Dip.-Ing. Georg Lahr-Eigen", "office": "yes"}}, {"type": "node", "id": 11821291100, "lat": 52.4947853, "lon": 13.3400196, "tags": {"addr:city": "Berlin", "addr:housenumber": "59", "addr:postcode": "10777", "addr:street": "Motzstra\u00dfe", "name": "Die Hamburger Kinderstube", "office": "yes"}}, {"type": "node", "id": 11891655405, "lat": 52.5259263, "lon": 13.3144029}, {"type": "node", "id": 11891655413, "lat": 52.5259258, "lon": 13.3143512}, {"type": "node", "id": 11891655418, "lat": 52.5260061, "lon": 13.3144643}, {"type": "node", "id": 12022614952, "lat": 52.5534754, "lon": 13.4385641, "tags": {"name": "ProBioGen AG", "office": "yes"}}, {"type": "node", "id": 12029075559, "lat": 52.5079065, "lon": 13.3443231, "tags": {"addr:city": "Berlin", "addr:housenumber": "1", "addr:postcode": "10787", "addr:street": "Katharina-Heinroth-Ufer", "name": "IQTIG", "office": "yes", "website": "https://iqtig.org/"}}, {"type": "node", "id": 12032828116, "lat": 52.5246217, "lon": 13.4653335, "tags": {"addr:city": "Berlin", "addr:housenumber": "207", "addr:postcode": "10369", "addr:street": "Storkower Stra\u00dfe", "level": "7", "name": "ZBI", "office": "yes", "website": "https://zbi-gruppe.com/"}}, {"type": "node", "id": 12049050479, "lat": 52.5414676, "lon": 13.2300372, "tags": {"name": "Biuro 2", "office": "yes"}}, {"type": "node", "id": 12049050480, "lat": 52.5418067, "lon": 13.2284545, "tags": {"name": "Biuro 1", "office": "yes"}}, {"type": "node", "id": 12055284012, "lat": 52.5181053, "lon": 13.4549373, "tags": {"addr:city": "Berlin", "addr:housenumber": "4", "addr:postcode": "10247", "addr:street": "Rigaer Stra\u00dfe", "email": "anfrage@mut-traumahilfe.de", "name": "MUT - Traumahilfe f\u00fcr M\u00e4nner", "office": "yes", "phone": "+49 30 80 61 00 77", "website": "mut-traumahilfe.de"}}, {"type": "node", "id": 12055438502, "lat": 52.4944502, "lon": 13.3640427, "tags": {"addr:city": "Berlin", "addr:housenumber": "5", "addr:postcode": "10783", "addr:street": "Kirchbachstra\u00dfe", "name": "subway - Anlaufstelle f\u00fcr Jungs* die anschaffen gehen", "office": "yes", "opening_hours": "Mo 13-17 Uhr  Di\u00a0\u00a0 13-18 Uhr  Mi \u00a0 geschlossen  Do\u00a0 13-18 Uhr  Fr\u00a0\u00a0 15-20 Uhr", "phone": "+4930 23 52 04 76", "website": "https://subway-berlin.de/"}}, {"type": "node", "id": 12064026050, "lat": 52.4361976, "lon": 13.5355063, "tags": {"addr:city": "Berlin", "addr:country": "DE", "addr:housenumber": "12", "addr:postcode": "12489", "addr:street": "Wagner-R\u00e9geny-Stra\u00dfe", "addr:suburb": "Adlershof", "name": "VISSIO Servicegroup GmbH", "office": "yes", "website": "https://www.vissio.de/"}}, {"type": "node", "id": 12253907488, "lat": 52.5113041, "lon": 13.3772973, "tags": {"addr:city": "Berlin", "addr:housenumber": "15a", "addr:postcode": "10117", "addr:street": "Ebertstra\u00dfe", "name": "Telekom Hauptstadtrepr\u00e4sentanz (Magenta Mitte)", "office": "yes", "website": "https://www.telekom.de/"}}, {"type": "node", "id": 12271113372, "lat": 52.5126016, "lon": 13.4399666, "tags": {"addr:city": "Berlin", "addr:housenumber": "1", "addr:postcode": "10243", "addr:street": "Franz-Mehring-Platz", "name": "Pr\u00fcfungsverband der kleinen und mittelst\u00e4ndischen Genossenschaften e.V.", "office": "yes", "short_name": "PkmG", "website": "https://www.pruefungsverband.de"}}, {"type": "node", "id": 12271116259, "lat": 52.5128083, "lon": 13.4402755, "tags": {"addr:city": "Berlin", "addr:housenumber": "1", "addr:postcode": "10243", "addr:street": "Franz-Mehring-Platz", "name": "control.alt.coop eG", "office": "yes", "website": "https://ctrl.alt.coop"}}, {"type": "node", "id": 12291524291, "lat": 52.5000543, "lon": 13.4272405, "tags": {"addr:city": "Berlin", "addr:housenumber": "69", "addr:postcode": "10997", "addr:street": "Audre-Lorde-Stra\u00dfe", "name": "Martinswerk e.V.", "office": "yes", "website": "https://www.martinswerk-berlin.de/"}}, {"type": "node", "id": 12301318059, "lat": 52.4754477, "lon": 13.7020933}, {"type": "node", "id": 12301318060, "lat": 52.4754455, "lon": 13.7022127}, {"type": "node", "id": 12301318061, "lat": 52.4754367, "lon": 13.7020928}, {"type": "node", "id": 12301318062, "lat": 52.4754342, "lon": 13.7022122}, {"type": "node", "id": 12301318063, "lat": 52.4755324, "lon": 13.7023073}, {"type": "node", "id": 12301318064, "lat": 52.4754788, "lon": 13.7023046}, {"type": "node", "id": 12301318065, "lat": 52.4755321, "lon": 13.7023221}, {"type": "node", "id": 12301318066, "lat": 52.4754785, "lon": 13.702319}, {"type": "node", "id": 12301318067, "lat": 52.4755898, "lon": 13.702227}, {"type": "node", "id": 12301318068, "lat": 52.4755986, "lon": 13.7022274}, {"type": "node", "id": 12301318069, "lat": 52.4756006, "lon": 13.7021205}, {"type": "node", "id": 12301318070, "lat": 52.475591, "lon": 13.70212}, {"type": "node", "id": 12368501023, "lat": 52.5318935, "lon": 13.4134676, "tags": {"addr:city": "Berlin", "addr:housenumber": "12", "addr:postcode": "10405", "addr:street": "Kollwitzstra\u00dfe", "contact:instagram": "photoautomat_berlin", "email": "info@photoautomat.de", "name": "Photoautomat GmbH & Co. KG", "office": "yes", "ref:vatin": "DE236779618", "website": "https://www.photoautomat.de/"}}, {"type": "node", "id": 12510696082, "lat": 52.5645293, "lon": 13.3529876, "tags": {"name": "Bero Chaffeurdienst", "office": "yes"}}, {"type": "node", "id": 12543472529, "lat": 52.4790366, "lon": 13.4301883, "tags": {"name": "SODI e.V.", "office": "yes", "operator": "SODI \u2013 Solidarit\u00e4tsdienst International e. V.", "website": "https://www.sodi.de"}}, {"type": "node", "id": 12616832388, "lat": 52.433111, "lon": 13.4346195}, {"type": "node", "id": 12616832389, "lat": 52.4331218, "lon": 13.43408}, {"type": "node", "id": 12616850130, "lat": 52.4334304, "lon": 13.4340613}, {"type": "node", "id": 12616850131, "lat": 52.4333463, "lon": 13.4345024}, {"type": "node", "id": 12616850132, "lat": 52.4332363, "lon": 13.4340749}, {"type": "node", "id": 12637185200, "lat": 52.5605127, "lon": 13.4586709, "tags": {"contact:phone": "030 /  955 93 755", "contact:website": "https://wir-putzen-berlin.de/", "name": "Dirk Busch Geb\u00e4udeservice", "office": "yes"}}, {"type": "node", "id": 12658511928, "lat": 52.463323, "lon": 13.3300748, "tags": {"addr:city": "Berlin", "addr:street": "Feuerbachstra\u00dfe", "name": "Buchgenossenschaft Hennwack eG", "office": "yes"}}, {"type": "node", "id": 12706206208, "lat": 52.5446532, "lon": 13.3661722, "tags": {"addr:city": "Berlin", "addr:housenumber": "49", "addr:postcode": "13347", "addr:street": "Gerichtstra\u00dfe", "name": "ISDC \u2013 International Security and Development Center", "office": "yes", "website": "https://www.isdc.org"}}, {"type": "node", "id": 12716118260, "lat": 52.5503644, "lon": 13.3885295, "tags": {"name": "Das klingende Museum", "office": "yes"}}, {"type": "node", "id": 12717046101, "lat": 52.5174586, "lon": 13.417715, "tags": {"name": "Check 24", "office": "yes"}}, {"type": "node", "id": 12737547981, "lat": 52.4286989, "lon": 13.3785739, "tags": {"addr:city": "Berlin", "addr:housenumber": "Haus B7 0G 1", "addr:postcode": "12277", "name": "raw studios", "office": "yes", "website": "https://raw-studios.de/"}}, {"type": "node", "id": 12778908262, "lat": 52.5420187, "lon": 13.4158856, "tags": {"office": "yes"}}, {"type": "node", "id": 12794213044, "lat": 52.4921314, "lon": 13.423673, "tags": {"office": "yes"}}, {"type": "node", "id": 12834017784, "lat": 52.5166558, "lon": 13.4426244, "tags": {"name": "REC Bauelemente Showroom", "office": "yes"}}, {"type": "way", "id": 26335447, "nodes": [288529753, 288529755, 1488317308, 10009488794, 1488317306, 288529753], "tags": {"addr:city": "Berlin", "addr:country": "DE", "addr:housename": "Haus 6", "addr:street": "Gau\u00dfstra\u00dfe", "building": "yes", "building:levels": "3", "office": "yes", "roof:material": "grass", "roof:shape": "flat"}}, {"type": "way", "id": 26335550, "nodes": [288530865, 288530867, 2317468847, 2317468846, 288530868, 2317468851, 2317468850, 288530869, 288530865], "tags": {"addr:city": "Berlin", "addr:country": "DE", "addr:housename": "Haus 9", "building": "yes", "building:levels": "4", "office": "yes", "roof:material": "grass", "roof:shape": "flat"}}, {"type": "way", "id": 26335586, "nodes": [288531025, 288531026, 2317468855, 2317468852, 288531027, 2317468857, 2317468856, 288531028, 288531025], "tags": {"addr:city": "Berlin", "addr:country": "DE", "addr:housename": "Haus 8", "building": "yes", "building:levels": "4", "office": "yes", "roof:material": "grass", "roof:shape": "flat"}}, {"type": "way", "id": 26335607, "nodes": [288531113, 288531115, 2317468860, 2317468858, 288531116, 2317468863, 2317468861, 288531117, 288531113], "tags": {"addr:city": "Berlin", "addr:country": "DE", "addr:housename": "Haus 7", "building": "yes", "building:levels": "4", "office": "yes", "roof:material": "grass", "roof:shape": "flat"}}, {"type": "way", "id": 37413401, "nodes": [30423887, 11891655413, 11891655405, 30423886, 11186565973, 11891655418, 11186565970, 4732186829, 8289766307, 9789822948, 9789822949, 3305073676, 3305073652, 3305073653, 3305073675, 437254712, 437254714, 3305073674, 437254716, 437254719, 3305027291, 3305073671, 9789822946, 9789822947, 9789822941, 9789822940, 30423887]}, {"type": "way", "id": 37413403, "nodes": [437254721, 437254723, 437254725, 437254728, 437254721], "tags": {"source": "Yahoo WMS"}}, {"type": "way", "id": 37413406, "nodes": [437254730, 437254735, 437254737, 437254733, 437254730], "tags": {"source": "Yahoo WMS"}}, {"type": "way", "id": 37413407, "nodes": [437254739, 437254743, 437254746, 437254741, 437254739], "tags": {"source": "Yahoo WMS"}}, {"type": "way", "id": 48797691, "nodes": [619167573, 5026742629, 5026742636, 5026742635, 619167577, 619167579, 5026742627, 5026742625, 5026742624, 5026742626, 619167581, 619167573], "tags": {"building": "yes", "name": "P. Krause Aktenservice", "office": "yes"}}, {"type": "way", "id": 48797902, "nodes": [619169518, 5137799765, 5137799818, 5137799819, 619169509, 619169510, 619169511, 619169512, 619169513, 619169514, 5137799816, 5137799815, 5137799814, 5137799817, 5137801021, 5137799820, 619169520, 619169518], "tags": {"building": "yes", "name": "Tiefbauamt Marzahn-Hellersdorf von Berlin", "office": "yes"}}, {"type": "way", "id": 50998034, "nodes": [3168440940, 3168440868, 3168440867, 3168440941, 3168440940], "tags": {"building": "yes", "building:levels": "1", "name": "Gropius Wohnen (Verwaltung)", "office": "yes"}}, {"type": "way", "id": 51426559, "nodes": [5717120634, 5710306052, 5717120633, 656482190, 5684250173, 656482191, 656482301, 656482302, 656482303, 656482304, 5689680839, 656482194, 9119714243, 5717120634], "tags": {"building": "commercial", "building:levels": "6", "name": "BVG Unternehmensbereich Stra\u00dfenbahn", "office": "yes", "roof:colour": "black", "roof:shape": "flat"}}, {"type": "way", "id": 88720728, "nodes": [2980387002, 2980386997, 2980386995, 2980386992, 2980386985, 2980386983, 2980386982, 2980386979, 2980386978, 2980386981, 2980386980, 2980386986, 2980386987, 2980386988, 2980386989, 2980386990, 2980386991, 2980387000, 2980387001, 2980386998, 2980386996, 2980386993, 2980386994, 2980386999, 2980387002], "tags": {"addr:city": "Berlin", "addr:country": "DE", "addr:housenumber": "3-4", "addr:postcode": "13187", "addr:street": "Kreuzstra\u00dfe", "addr:suburb": "Pankow", "building": "office", "building:levels": "3", "check_date": "2023-07-12", "contact:email": "info@tanzschule-am-buergerpark.de", "dance:teaching": "yes", "name": "Tanzschule Am B\u00fcrgerpark", "office": "yes", "phone": "+49 30 4858428", "website": "https://www.tanzschule-am-buergerpark.de/"}}, {"type": "way", "id": 128978593, "nodes": [1423923559, 1423923592, 1423923594, 1423923554, 1423923559], "tags": {"addr:city": "Berlin", "addr:country": "DE", "addr:housenumber": "34", "addr:postcode": "10247", "addr:street": "Eldenaer Stra\u00dfe", "addr:suburb": "Prenzlauer Berg", "building": "commercial", "building:levels": "3", "name": "aconium GmbH", "office": "yes", "roof:levels": "1", "roof:shape": "gabled", "source:addr": "Geoportal Berlin / Hauskoordinaten", "website": "https://aconium.eu/"}}, {"type": "way", "id": 135509522, "nodes": [1488317308, 288529758, 288529760, 5784527315, 1488317304, 5784527316, 288529795, 5784527313, 5784527312, 5784527311, 5784527314, 1488317306, 10009488794, 1488317308], "tags": {"addr:city": "Berlin", "addr:country": "DE", "addr:housename": "Haus 5", "building": "yes", "building:levels": "3", "office": "yes", "roof:material": "grass", "roof:shape": "flat"}}, {"type": "way", "id": 135509523, "nodes": [288529784, 288529786, 1488317302, 5784527302, 3363880755, 288529784], "tags": {"addr:city": "Berlin", "addr:country": "DE", "addr:housename": "Haus 2", "building": "yes", "building:levels": "3", "office": "yes", "roof:material": "grass", "roof:shape": "flat"}}, {"type": "way", "id": 135509527, "nodes": [288529766, 10010342499, 288529769, 5784527307, 1488317300, 5784527308, 10010342498, 5784527301, 5784527310, 3363880778, 5784527309, 288529766], "tags": {"addr:city": "Berlin", "addr:country": "DE", "addr:housename": "Haus 4", "building": "yes", "building:levels": "3", "office": "yes", "roof:material": "grass", "roof:shape": "flat"}}, {"type": "way", "id": 135509532, "nodes": [288531616, 5784527290, 5784527291, 5784527293, 5784527292, 288529792, 1488317302, 288529786, 288531530, 4917111350, 4917111351, 2317468841, 2317468839, 288531616], "tags": {"addr:city": "Berlin", "addr:country": "DE", "addr:housename": "Haus 1b", "building": "yes", "building:levels": "5", "office": "yes", "roof:material": "grass", "roof:shape": "flat"}}, {"type": "way", "id": 142028557, "nodes": [1554391963, 12301318070, 12301318069, 12301318068, 12301318067, 1554391959, 12301318065, 12301318063, 12301318064, 12301318066, 1554391934, 12301318062, 12301318060, 12301318059, 12301318061, 1554391935, 1554391963], "tags": {"addr:city": "Sch\u00f6neiche bei Berlin", "addr:country": "DE", "addr:housenumber": "4", "addr:postcode": "15566", "addr:street": "Babickstra\u00dfe", "building": "office", "name": "EWE Netz Bezirksmeisterei Sch\u00f6neiche", "office": "yes", "opening_hours": "Mo-Th 07:30-09:00, 15:30-16:00; Fr 07:30-09:00, 12:00-12:30", "operator": "EWE Netz", "phone": "+49-30-64907430"}}, {"type": "way", "id": 142279793, "nodes": [1557276862, 1557276848, 1557276846, 1557276859, 1557276862], "tags": {"addr:city": "Sch\u00f6neiche bei Berlin", "addr:country": "DE", "addr:housenumber": "18", "addr:postcode": "15566", "addr:street": "Sch\u00f6neicher Stra\u00dfe", "building": "residential", "office": "yes", "operator": "OSL Gesellschaft f\u00fcr offene Systeml\u00f6sungen mbH", "source": "visual survey"}}, {"type": "way", "id": 167981250, "nodes": [290346173, 3830165714, 3830165689, 1793002865, 467164153, 290346133, 290181089, 290181090, 1079443384, 1079443396, 290181095, 353707813, 467164163, 353707812, 1792936521, 4876921945, 4876921946, 4876921944, 467164155, 9982061668, 1079443404, 1079443359, 290346129, 290346173], "tags": {"check_date": "2024-08-13", "name": "Berliner Verkehrsbetriebe", "office": "yes"}}, {"type": "way", "id": 222805200, "nodes": [2317468840, 2317468843, 5784527286, 5784527287, 288529788, 288529790, 5784527289, 5784527288, 2317468840], "tags": {"addr:city": "Berlin", "addr:country": "DE", "addr:housename": "Haus 1a", "addr:street": "Ostendstra\u00dfe 25", "building": "yes", "building:levels": "5", "office": "yes", "roof:material": "grass", "roof:shape": "flat"}}, {"type": "way", "id": 228946739, "nodes": [2375950732, 10224777217, 10224717215, 2375950799, 2375950970, 12616832388, 2375950968, 9087388381, 9087388380, 12616832389, 2375950951, 2375950961, 12616850132, 2375950843, 12616850131, 9087388378, 9087388377, 9087388376, 12616850130, 2375950862, 2375950885, 9087388375, 9087388379, 2375950978, 2375950764, 2375950732], "tags": {"addr:city": "Berlin", "addr:country": "DE", "addr:housenumber": "114", "addr:postcode": "12349", "addr:street": "Buckower Damm", "addr:suburb": "Britz", "building": "yes", "name": "B\u00fcrohaus Tristan", "office": "yes", "smoking": "outside"}}, {"type": "way", "id": 259036346, "nodes": [2643587657, 2643587670, 2643587658, 2643587682, 2643587686, 2643587685, 2643587675, 2643587667, 2643587657], "tags": {"addr:city": "Berlin", "addr:country": "DE", "addr:housenumber": "53", "addr:postcode": "13053", "addr:street": "Wei\u00dfenseer Weg", "addr:suburb": "Alt-Hohensch\u00f6nhausen", "building": "office", "building:levels": "1", "name": "Verwaltung Sportforum Hohensch\u00f6nhausen", "office": "yes", "roof:levels": "0", "roof:shape": "flat"}}, {"type": "way", "id": 322775050, "nodes": [3129290191, 3129290189, 3295594267, 3295594275, 3129290191], "tags": {"addr:city": "Berlin", "addr:country": "DE", "addr:housenumber": "48d", "addr:postcode": "12157", "addr:street": "K\u00f6rnerstra\u00dfe", "addr:suburb": "Steglitz", "building": "yes", "name": "B\u00e4r & Ollenroth", "office": "yes", "shop": "wholesale", "wholesale": "sanitary"}}, {"type": "way", "id": 329510297, "nodes": [3363880755, 5784527305, 1488317294, 288529777, 288529779, 2317468849, 2317468848, 288529782, 288529784, 3363880755], "tags": {"addr:city": "Berlin", "addr:country": "DE", "addr:housename": "Haus 2", "building": "yes", "building:levels": "4", "office": "yes", "roof:material": "grass", "roof:shape": "flat"}}, {"type": "way", "id": 329510300, "nodes": [3363880766, 5784527303, 1488317300, 5784527307, 288529769, 288529771, 2317468854, 2317468853, 288529773, 288529775, 3363880766], "tags": {"addr:city": "Berlin", "addr:country": "DE", "addr:housename": "Haus 3", "building": "yes", "building:levels": "4", "office": "yes", "roof:material": "grass", "roof:shape": "flat"}}, {"type": "way", "id": 329510303, "nodes": [3363880778, 1488317304, 5784527315, 288529760, 288529762, 3363880784, 3363880783, 288529764, 288529766, 5784527309, 3363880778], "tags": {"addr:city": "Berlin", "addr:country": "DE", "addr:housename": "Haus 4", "building": "yes", "building:levels": "4", "office": "yes", "roof:material": "grass", "roof:shape": "flat"}}, {"type": "way", "id": 359829817, "nodes": [3644622319, 3644622312, 3644622314, 3644622320, 3644622319], "tags": {"building": "yes", "office": "yes"}}, {"type": "way", "id": 376355600, "nodes": [3797940482, 9084110561, 9084110560, 3797940484, 3797940482], "tags": {"addr:housenumber": "72", "addr:postcode": "10551", "addr:street": "Quitzowstra\u00dfe", "building": "industrial", "building:levels": "1", "check_date": "2023-05-11", "name": "Autohaus Peter St\u00f6lting e.K.", "office": "yes", "phone": "+49303954472", "roof:shape": "flat"}}, {"type": "way", "id": 417380650, "nodes": [4179380584, 4179380586, 4601595905, 5741680792, 5741680791, 4179380582, 4179380580, 4179380584], "tags": {"building": "commercial", "name": "Verwaltung", "office": "yes"}}, {"type": "way", "id": 443532459, "nodes": [4411039098, 4411039099, 4411039100, 4411039101, 4411039098], "tags": {"building": "yes", "office": "yes", "roof:colour": "grey", "roof:shape": "flat"}}, {"type": "way", "id": 465162316, "nodes": [4601595901, 4601595900, 4601595899, 4601595903, 4601595902, 4601595901], "tags": {"building": "yes", "office": "yes"}}, {"type": "way", "id": 878927405, "nodes": [8176586576, 8176586577, 8176586578, 8176586579, 8176586576], "tags": {"building": "retail", "office": "yes"}}, {"type": "way", "id": 878927406, "nodes": [8176586580, 8176586581, 8176586582, 8176586583, 8176586580], "tags": {"building": "retail", "office": "yes"}}, {"type": "way", "id": 878927407, "nodes": [8176586584, 8176586585, 8176586586, 8176586587, 8176586584], "tags": {"building": "retail", "office": "yes"}}, {"type": "way", "id": 878927408, "nodes": [8176586588, 8176586589, 8176586590, 8176586591, 8176586588], "tags": {"building": "retail", "office": "yes"}}, {"type": "way", "id": 878927409, "nodes": [8176586592, 8176586593, 8176586594, 8176586595, 8176586596, 8176586597, 8176586598, 8176586599, 8176586592], "tags": {"building": "retail", "office": "yes"}}, {"type": "way", "id": 1084094032, "nodes": [9934395672, 9934395673, 9934395674, 9934395675, 9934395672], "tags": {"building": "retail", "office": "yes"}}, {"type": "way", "id": 1084094033, "nodes": [9934395676, 9934395677, 9934395678, 9934395679, 9934395676], "tags": {"building": "retail", "office": "yes"}}, {"type": "relation", "id": 168559, "members": [{"type": "way", "ref": 37413403, "role": "inner"}, {"type": "way", "ref": 37413406, "role": "inner"}, {"type": "way", "ref": 37413407, "role": "inner"}, {"type": "way", "ref": 37413401, "role": "outer"}], "tags": {"building": "office", "building:levels": "7", "office": "yes", "roof:shape": "flat", "type": "multipolygon"}}]}