{"version": 0.6, "generator": "Overpass API 0.7.62.5 1bd436f1", "osm3s": {"timestamp_osm_base": "2025-05-29T06:52:17Z", "copyright": "The data included in this document is from www.openstreetmap.org. The data is made available under ODbL."}, "elements": [{"type": "node", "id": 21302157, "lat": 52.5143746, "lon": 13.3364504, "tags": {"contact:website": "http://www.s-bahn-berlin.de/fahrplanundnetz/bahnhof/tiergarten/151", "light_rail": "yes", "name": "Tiergarten", "network": "Verkehrsverbund Berlin-Brandenburg", "network:short": "VBB", "network:wikidata": "Q315451", "official_name": "Berlin-Tiergarten", "operator": "DB Netz AG", "public_transport": "station", "railway": "station", "railway:ref": "BTGN", "railway:station_category": "4", "station": "light_rail", "train": "yes", "uic_ref": "8089091", "wheelchair": "yes", "wikidata": "Q572112", "wikipedia": "de:Bahnhof Berlin-Tiergarten"}}, {"type": "node", "id": 26124376, "lat": 52.5180135, "lon": 13.2844201, "tags": {"contact:phone": "+49 30 297 43333", "contact:website": "http://www.s-bahn-berlin.de/fahrplanundnetz/bahnhof/westend/157", "departures_board": "realtime", "departures_board:speech_output": "no", "description": "S Westend Gleis 1", "light_rail": "yes", "name": "Westend", "network": "Verkehrsverbund Berlin-Brandenburg", "network:short": "VBB", "network:wikidata": "Q315451", "official_name": "Berlin-Westend", "operator": "DB Netz AG", "public_transport": "station", "railway": "station", "railway:ref": "BWES", "railway:station_category": "4", "ref": "1", "station": "light_rail", "train": "yes", "uic_ref": "8089111", "wheelchair": "yes", "wikidata": "Q323214", "wikipedia": "de:Bahnhof Berlin-Westend"}}, {"type": "node", "id": 26603219, "lat": 52.4214071, "lon": 13.1798077, "tags": {"contact:phone": "+49 30 297 43333", "contact:website": "http://www.s-bahn-berlin.de/fahrplanundnetz/bahnhof/wannsee/1", "light_rail": "yes", "name": "Wannsee", "network": "Verkehrsverbund Berlin-Brandenburg", "network:short": "VBB", "network:wikidata": "Q315451", "official_name": "Berlin-Wannsee S-Bahn", "operator": "DB Netz AG", "public_transport": "station", "railway": "station", "railway:ref": "BWSS", "railway:station_category": "2", "station": "light_rail", "train": "yes", "uic_name": "Berlin Wannsee", "uic_ref": "8010405", "wheelchair": "yes", "wikidata": "Q567336", "wikipedia": "de:Bahnhof Berlin-Wannsee"}}, {"type": "node", "id": 26943869, "lat": 52.5101503, "lon": 13.2276304, "tags": {"contact:website": "http://www.s-bahn-berlin.de/fahrplanundnetz/bahnhof/pichelsberg/121", "light_rail": "yes", "name": "Pichelsberg", "network": "Verkehrsverbund Berlin-Brandenburg", "network:short": "VBB", "official_name": "Berlin Pichelsberg", "operator": "DB Netz AG", "public_transport": "station", "railway": "station", "railway:ref": "BPIC", "railway:station_category": "5", "ref": "2", "station": "light_rail", "uic_name": "Berlin-Pichelsberg", "uic_ref": "8089331", "wheelchair": "yes", "wikidata": "Q800488", "wikipedia": "de:Bahnhof Berlin Pichelsberg"}}, {"type": "node", "id": 27215654, "lat": 52.4882479, "lon": 13.2610104, "tags": {"contact:phone": "+49 30 297 43333", "contact:website": "http://www.s-bahn-berlin.de/fahrplanundnetz/bahnhof/grunewald/67", "light_rail": "yes", "name": "Grunewald", "network": "Verkehrsverbund Berlin-Brandenburg", "network:short": "VBB", "official_name": "Berlin-Grunewald S-Bahn", "operator": "DB Station&Service AG", "public_transport": "station", "railway": "station", "railway:ref": "BGWD", "railway:station_category": "4", "station": "light_rail", "uic_name": "Berlin-Grunewald", "uic_ref": "8089062", "wheelchair": "yes", "wikidata": "Q457266", "wikipedia": "de:Bahnhof Berlin-Grunewald"}}, {"type": "node", "id": 27318370, "lat": 52.3944579, "lon": 13.1272716, "tags": {"contact:phone": "+49 30 297 43333", "contact:website": "https://sbahn.berlin/fahren/bahnhofsuebersicht/griebnitzsee/", "departures_board": "timetable", "light_rail": "yes", "name": "Griebnitzsee", "network": "Verkehrsverbund Berlin-Brandenburg", "network:short": "VBB", "official_name": "Potsdam Griebnitzsee S-Bahn", "operator": "DB Netz AG", "public_transport": "station", "railway": "station", "railway:ref": "BGRI", "railway:station_category": "4", "station": "light_rail", "train": "yes", "uic_name": "Potsdam Griebnitzsee", "uic_ref": "8080530", "wheelchair": "yes", "wikidata": "Q315133", "wikipedia": "de:Bahnhof Potsdam Griebnitzsee"}}, {"type": "node", "id": 27556933, "lat": 52.5074342, "lon": 13.3325608, "tags": {"loc_name": "Bahnhof Zoo", "name": "Berlin Zoologischer Garten", "note": "S-Bahn-Bahnhof ist eigenst\u00e4ndiger Bahnhof, daher zwei Bahnh\u00f6fe hier!", "operator": "DB Netz AG;DB Station&Service AG", "public_transport": "station", "railway": "station", "railway:ref": "BZOO", "railway:station_category": "2", "start_date": "1882-02-07", "toilets:wheelchair": "yes", "train": "yes", "uic_ref": "8010406", "wheelchair": "yes", "wikidata": "Q681785", "wikipedia": "de:Bahnhof Berlin Zoologischer Garten"}}, {"type": "node", "id": 27586255, "lat": 52.5256744, "lon": 13.2414191, "tags": {"name": "Ruhleben", "public_transport": "station", "railway": "station", "station": "subway", "subway": "yes", "toilets:wheelchair": "no", "wheelchair": "yes", "wikidata": "Q656401", "wikipedia": "de:U-Bahnhof Ruhleben"}}, {"type": "node", "id": 28830281, "lat": 52.6152148, "lon": 13.4694647, "tags": {"contact:phone": "+49 30 297 43333", "contact:website": "http://www.s-bahn-berlin.de/fahrplanundnetz/bahnhof/karow/88", "image": "https://upload.wikimedia.org/wikipedia/commons/7/70/-Bahnhof_Karow_Bahnsteig.jpg", "light_rail": "yes", "name": "Karow", "network": "Verkehrsverbund Berlin-Brandenburg", "network:short": "VBB", "network:wikidata": "Q315451", "official_name": "Berlin-Karow S-Bahn", "operator": "DB Netz AG", "public_transport": "station", "railway": "station", "railway:ref": "BKRW", "railway:station_category": "4", "source": "https://de.wikipedia.org/wiki/Bahnhof_Berlin-Karow;https://www.stadtschnellbahn-berlin.de/bahnhof/bahnhof.php?bhf=275", "start_date": "1882-11-15", "station": "light_rail", "train": "yes", "uic_name": "Berlin-Karow", "uic_ref": "8011046", "wheelchair": "yes", "wikidata": "Q800480", "wikipedia": "de:Bahnhof Berlin-Karow"}}, {"type": "node", "id": 29045595, "lat": 52.5423332, "lon": 13.3501546, "tags": {"line": "U9", "name": "Amrumer Stra\u00dfe", "public_transport": "station", "railway": "station", "station": "subway", "subway": "yes", "wheelchair": "yes", "wikidata": "Q557577", "wikipedia": "de:U-Bahnhof Amrumer Stra\u00dfe"}}, {"type": "node", "id": 29046450, "lat": 52.5058669, "lon": 13.3330236, "tags": {"atm": "yes", "atm:operator": "Sparkasse", "line": "U9", "name": "Zoologischer Garten", "network": "Verkehrsverbund Berlin-Brandenburg", "network:short": "VBB", "network:wikidata": "Q315451", "operator": "Berliner Verkehrsbetriebe", "operator:short": "BVG", "operator:wikidata": "Q99633", "public_transport": "station", "railway": "station", "station": "subway", "subway": "yes", "train": "yes", "wheelchair": "yes"}}, {"type": "node", "id": 29046970, "lat": 52.5038223, "lon": 13.3314365, "tags": {"name": "Kurf\u00fcrstendamm", "public_transport": "station", "railway": "station", "station": "subway", "subway": "yes", "toilets:wheelchair": "no", "wheelchair": "yes", "wikidata": "Q663933", "wikipedia": "de:U-Bahnhof Kurf\u00fcrstendamm"}}, {"type": "node", "id": 29046976, "lat": 52.4920843, "lon": 13.3310064, "tags": {"atm": "yes", "atm:operator": "Bankhaus Lenz", "check_date:wheelchair": "2022-08-16", "line": "U9", "name": "G\u00fcntzelstra\u00dfe", "public_transport": "station", "railway": "station", "station": "subway", "subway": "yes", "wheelchair": "no", "wikidata": "Q571563", "wikipedia": "de:U-Bahnhof G\u00fcntzelstra\u00dfe"}}, {"type": "node", "id": 29046979, "lat": 52.4873298, "lon": 13.3310103, "tags": {"atm": "yes", "atm:operator": "Sparkasse", "line": "U7;U9", "name": "Berliner Stra\u00dfe", "public_transport": "station", "railway": "station", "station": "subway", "subway": "yes", "wheelchair": "yes", "wikidata": "Q637739", "wikipedia": "de:U-Bahnhof Berliner Stra\u00dfe"}}, {"type": "node", "id": 29046999, "lat": 52.4721217, "lon": 13.3287301, "tags": {"level": "-1", "line": "U9", "name": "Friedrich-Wilhelm-Platz", "public_transport": "station", "railway": "station", "station": "subway", "subway": "yes", "wheelchair": "no", "wikidata": "Q559207", "wikipedia": "de:U-Bahnhof Friedrich-Wilhelm-Platz"}}, {"type": "node", "id": 29047043, "lat": 52.4653254, "lon": 13.3282601, "tags": {"line": "U9", "name": "Walther-Schreiber-Platz", "public_transport": "station", "railway": "station", "station": "subway", "subway": "yes", "wheelchair": "yes", "wikidata": "Q638584", "wikipedia": "de:U-Bahnhof Walther-Schreiber-Platz"}}, {"type": "node", "id": 29047045, "lat": 52.461481, "lon": 13.3250946, "tags": {"internet_access": "no", "line": "U9", "name": "Schlo\u00dfstra\u00dfe", "operator": "Berliner Verkehrsbetriebe", "operator:short": "BVG", "public_transport": "station", "railway": "station", "station": "subway", "subway": "yes", "wheelchair": "no", "wikidata": "Q554474", "wikipedia": "de:U-Bahnhof Schlo\u00dfstra\u00dfe"}}, {"type": "node", "id": 29047047, "lat": 52.4567983, "lon": 13.3209344, "tags": {"line": "U9", "name": "Rathaus Steglitz", "public_transport": "station", "railway": "station", "station": "subway", "subway": "yes", "toilets:wheelchair": "no", "wheelchair": "yes", "wikidata": "Q555492", "wikipedia": "de:Bahnhof Berlin Rathaus Steglitz"}}, {"type": "node", "id": 29058259, "lat": 52.5148248, "lon": 13.3891706, "tags": {"disused:public_transport": "station", "disused:railway": "station", "disused:subway": "yes", "name": "U Franz\u00f6sische Stra\u00dfe", "platforms": "2", "station": "subway", "subway": "yes", "wheelchair": "no", "wikidata": "Q571479", "wikimedia_commons": "Category:U-Bahnhof Franz\u00f6sische Stra\u00dfe (Berlin)", "wikipedia": "de:U-Bahnhof Franz\u00f6sische Stra\u00dfe"}}, {"type": "node", "id": 29070457, "lat": 52.5344077, "lon": 13.3293873, "tags": {"check_date:wheelchair": "2022-07-11", "contact:phone": "+49 30 297 43333", "contact:website": "http://www.s-bahn-berlin.de/fahrplanundnetz/bahnhof/beusselstrasse/38", "light_rail": "yes", "name": "Beusselstra\u00dfe", "network": "Verkehrsverbund Berlin-Brandenburg", "network:short": "VBB", "official_name": "Berlin Beusselstra\u00dfe", "operator": "DB Netz AG", "public_transport": "station", "railway": "station", "railway:ref": "BBEU", "railway:station_category": "4", "station": "light_rail", "uic_ref": "8089118", "wheelchair": "yes", "wikidata": "Q323219", "wikipedia": "de:Bahnhof Berlin Beusselstra\u00dfe"}}, {"type": "node", "id": 29123754, "lat": 52.5099869, "lon": 13.2722217, "tags": {"atm": "yes", "atm:operator": "August Lenz", "check_date:wheelchair": "2022-11-06", "name": "Theodor-Heuss-Platz", "public_transport": "station", "railway": "station", "station": "subway", "subway": "yes", "wheelchair": "yes", "wikidata": "Q657857", "wikipedia": "de:U-Bahnhof Theodor-Heuss-Platz"}}, {"type": "node", "id": 29123761, "lat": 52.5162154, "lon": 13.2592357, "tags": {"check_date:wheelchair": "2022-11-06", "name": "Neu-Westend", "public_transport": "station", "railway": "station", "station": "subway", "subway": "yes", "wheelchair": "no", "wikidata": "Q656431", "wikipedia": "de:U-Bahnhof Neu-Westend"}}, {"type": "node", "id": 29123763, "lat": 52.511837, "lon": 13.3105328, "tags": {"name": "Deutsche Oper", "public_transport": "station", "railway": "station", "station": "subway", "subway": "yes", "surveillance": "indoor", "wheelchair": "no", "wikidata": "Q869501", "wikipedia": "de:U-Bahnhof Deutsche Oper"}}, {"type": "node", "id": 29123764, "lat": 52.5118853, "lon": 13.3221613, "tags": {"internet_access": "wlan", "internet_access:fee": "no", "name": "Ernst-Reuter-Platz", "operator": "Berliner Verkehrsbetriebe", "operator:short": "BVG", "public_transport": "station", "railway": "station", "station": "subway", "subway": "yes", "wheelchair": "no", "wikidata": "Q658361", "wikipedia": "de:U-Bahnhof Ernst-Reuter-Platz"}}, {"type": "node", "id": 29190897, "lat": 52.5754161, "lon": 13.3384251, "tags": {"name": "Lindauer Allee", "public_transport": "station", "railway": "station", "station": "subway", "subway": "yes", "wheelchair": "yes", "wikidata": "Q555939", "wikipedia": "de:U-Bahnhof Lindauer Allee"}}, {"type": "node", "id": 29494301, "lat": 52.5153554, "lon": 13.4181732, "tags": {"name": "Jannowitzbr\u00fccke", "public_transport": "station", "railway": "station", "station": "subway", "subway": "yes", "wheelchair": "yes", "wikidata": "Q1647893", "wikipedia": "de:Bahnhof Berlin Jannowitzbr\u00fccke"}}, {"type": "node", "id": 29497638, "lat": 52.478987, "lon": 13.3436736, "tags": {"name": "Innsbrucker Platz", "public_transport": "station", "railway": "station", "station": "subway", "subway": "yes", "wheelchair": "yes", "wikidata": "Q3799011", "wikipedia": "de:Bahnhof Berlin Innsbrucker Platz"}}, {"type": "node", "id": 29803428, "lat": 52.501288, "lon": 13.478367, "tags": {"contact:website": "http://www.s-bahn-berlin.de/fahrplanundnetz/bahnhof/rummelsburg/130", "light_rail": "yes", "name": "Rummelsburg", "network": "Verkehrsverbund Berlin-Brandenburg", "network:short": "VBB", "network:wikidata": "Q315451", "official_name": "Berlin-Rummelsburg (S-Bahn)", "operator": "DB Netz AG", "public_transport": "station", "railway": "station", "railway:ref": "BRH", "railway:ref:parent": "BOK", "railway:station_category": "4", "station": "light_rail", "train": "yes", "uic_name": "Berlin-Rummelsburg", "uic_ref": "8089084", "wheelchair": "yes", "wikidata": "Q15107132", "wikipedia": "de:Bahnhof Berlin-Rummelsburg (S-Bahn)"}}, {"type": "node", "id": 29805967, "lat": 52.5097832, "lon": 13.4961404, "tags": {"addr:city": "Berlin", "addr:housenumber": "22", "addr:postcode": "10317", "addr:street": "Weitlingstra\u00dfe", "name": "Berlin-Lichtenberg", "network": "Verkehrsverbund Berlin-Brandenburg", "network:short": "VBB", "network:wikidata": "Q315451", "operator": "DB InfraGO AG", "public_transport": "station", "railway": "station", "railway:ref": "BLO", "railway:station_category": "2", "ref:station": "549", "source:address": "DB Open Data", "start_date": "1881", "train": "yes", "uic_ref": "8010036", "wheelchair": "yes", "wikidata": "Q634247", "wikipedia": "de:Bahnhof Berlin-Lichtenberg"}}, {"type": "node", "id": 29833469, "lat": 52.4885755, "lon": 13.3405436, "tags": {"name": "Bayerischer Platz", "public_transport": "station", "railway": "station", "station": "subway", "subway": "yes", "wheelchair": "yes", "wikidata": "Q668574", "wikipedia": "de:U-Bahnhof Bayerischer Platz"}}, {"type": "node", "id": 29858596, "lat": 52.5436548, "lon": 13.5413545, "tags": {"contact:phone": "+49 30 297 43333", "contact:website": "http://www.s-bahn-berlin.de/fahrplanundnetz/bahnhof/marzahn/103", "light_rail": "yes", "name": "Marzahn", "network": "Verkehrsverbund Berlin-Brandenburg", "network:short": "VBB", "network:wikidata": "Q315451", "official_name": "Berlin-Marzahn S-Bahn", "operator": "DB Netz AG", "public_transport": "station", "railway": "station", "railway:ref": "BMAZ", "railway:station_category": "4", "station": "light_rail", "train": "yes", "uic_ref": "8089075", "wheelchair": "yes", "wikidata": "Q800486", "wikipedia": "de:Bahnhof Berlin-Marzahn"}}, {"type": "node", "id": 29881358, "lat": 52.5126122, "lon": 13.5752134, "tags": {"departures_board": "timetable", "internet_access": "wlan", "internet_access:fee": "no", "light_rail": "yes", "name": "Wuhletal", "network": "Verkehrsverbund Berlin-Brandenburg", "network:short": "VBB", "note": "steht nicht in der Bahnhofskategorieliste von 2017", "official_name": "Berlin Wuhletal", "operator": "DB Netz AG", "phone": "+49 30 29743333", "public_transport": "station", "railway": "station", "railway:ref": "BWT", "railway:ref:parent": "BKAD", "station": "light_rail", "subway": "yes", "surveillance": "indoor", "uic_ref": "8089049", "website": "http://www.s-bahn-berlin.de/fahrplanundnetz/bahnhof/wuhletal/166", "wheelchair": "yes", "wikidata": "Q552867", "wikimedia_commons": "File:U-Bahnhof Wuhletal.jpg", "wikipedia": "de:Bahnhof Berlin Wuhletal"}}, {"type": "node", "id": 29918297, "lat": 52.5120903, "lon": 13.6104126, "tags": {"contact:phone": "+49 30 29743333", "contact:website": "http://www.s-bahn-berlin.de/fahrplanundnetz/bahnhof/mahlsdorf/101", "departures_board": "timetable", "light_rail": "yes", "name": "Mahlsdorf", "network": "Verkehrsverbund Berlin-Brandenburg", "network:short": "VBB", "official_name": "Berlin-Mahlsdorf", "operator": "DB Netz AG", "public_transport": "station", "railway": "station", "railway:ref": "BMDF", "railway:station_category": "4", "station": "light_rail", "surveillance": "indoor", "surveillance:type": "camera", "uic_ref": "8089072", "wheelchair": "yes", "wikidata": "Q800484", "wikipedia": "de:Bahnhof Berlin-Mahlsdorf"}}, {"type": "node", "id": 30688290, "lat": 52.5662755, "lon": 13.5124988, "tags": {"contact:website": "http://www.s-bahn-berlin.de/fahrplanundnetz/bahnhof/hohenschoenhausen/79", "departures_board": "realtime", "departures_board:speech_output": "no", "light_rail": "yes", "name": "Hohensch\u00f6nhausen", "name:VBB": "S Hohensch\u00f6nhausen Bhf (Berlin)", "network": "Verkehrsverbund Berlin-Brandenburg", "network:short": "VBB", "network:wikidata": "Q315451", "official_name": "Berlin-Hohensch\u00f6nhausen S-Bahn", "operator": "DB Netz AG", "public_transport": "station", "railway": "station", "railway:ref": "BHH", "railway:station_category": "3", "station": "light_rail", "train": "yes", "uic_ref": "8011901", "wheelchair": "yes", "wheelchair:description": "Rampe kein WC", "wikidata": "Q800477", "wikipedia": "de:Bahnhof Berlin-Hohensch\u00f6nhausen"}}, {"type": "node", "id": 30688292, "lat": 52.572982, "lon": 13.5038322, "tags": {"contact:phone": "+49 30 297 43333", "contact:website": "http://www.s-bahn-berlin.de/fahrplanundnetz/bahnhof/wartenberg/156", "departures_board": "realtime", "departures_board:speech_output": "no", "light_rail": "yes", "name": "Wartenberg", "name:VBB": "S Wartenberg (Berlin)", "network": "Verkehrsverbund Berlin-Brandenburg", "network:short": "VBB", "network:wikidata": "Q315451", "official_name": "Berlin-Wartenberg", "operator": "DB Station&Service AG", "public_transport": "station", "railway": "station", "railway:ref": "BWAB", "railway:ref:parent": "BHH", "railway:station_category": "5", "station": "light_rail", "train": "yes", "uic_ref": "8089093", "wheelchair": "yes", "wheelchair:description": "Rampen City WC: Ausgang Egon-Erwin-Kisch Str.", "wikidata": "Q2784530", "wikipedia": "en:Wartenberg station"}}, {"type": "node", "id": 30739613, "lat": 52.4242122, "lon": 13.3746844, "tags": {"contact:phone": "+49 30 297 43333", "contact:website": "http://www.s-bahn-berlin.de/fahrplanundnetz/bahnhof/marienfelde/102", "light_rail": "yes", "name": "Marienfelde", "network": "Verkehrsverbund Berlin-Brandenburg", "network:short": "VBB", "network:wikidata": "Q315451", "official_name": "Berlin-Marienfelde", "operator": "DB Netz AG", "public_transport": "station", "railway": "station", "railway:ref": "BMF", "railway:station_category": "5", "station": "light_rail", "train": "yes", "uic_ref": "8089074", "wheelchair": "no", "wikidata": "Q800485", "wikipedia": "de:Bahnhof Berlin-Marienfelde"}}, {"type": "node", "id": 31048718, "lat": 52.4672622, "lon": 13.4314659, "tags": {"level": "-2", "name": "Hermannstra\u00dfe", "public_transport": "station", "railway": "station", "station": "subway", "subway": "yes", "toilets:wheelchair": "no", "wheelchair": "yes", "wikidata": "Q21235258", "wikipedia": "de:Bahnhof Berlin Hermannstra\u00dfe"}}, {"type": "node", "id": 31076660, "lat": 52.3913763, "lon": 13.5119895, "tags": {"description": "Berlin-Sch\u00f6nefeld Flughafen, Gleis 6", "local_ref": "6", "name": "Sch\u00f6nefeld (bei Berlin)", "old_name": "Flughafen BER - Terminal 5", "public_transport": "stop_position", "railway": "stop", "ref": "6", "train": "yes"}}, {"type": "node", "id": 31207787, "lat": 52.5115148, "lon": 13.3052393, "tags": {"atm": "yes", "atm:operator": "Sparkasse", "name": "Bismarckstra\u00dfe", "public_transport": "station", "railway": "station", "station": "subway", "subway": "yes", "surveillance": "indoor", "wheelchair": "yes", "wikidata": "Q686132", "wikipedia": "de:U-Bahnhof Bismarckstra\u00dfe"}}, {"type": "node", "id": 31207789, "lat": 52.517387, "lon": 13.306588, "tags": {"atm": "yes", "atm:operator": "Bankhaus Lenz", "check_date:wheelchair": "2022-11-06", "name": "Richard-Wagner-Platz", "public_transport": "station", "railway": "station", "station": "subway", "subway": "yes", "surveillance": "indoor", "wheelchair": "yes", "wheelchair:description": "Seit 01.07.2014 hat der Bahnhof einen Fahrstuhl Mittelinsel R Wagner Stra\u00dfe", "wikidata": "Q662201", "wikipedia": "de:U-Bahnhof Richard-Wagner-Platz"}}, {"type": "node", "id": 76474606, "lat": 52.4895529, "lon": 13.3501694, "tags": {"name": "Eisenacher Stra\u00dfe", "public_transport": "station", "railway": "station", "station": "subway", "subway": "yes", "wheelchair": "yes", "wikidata": "Q571170", "wikipedia": "de:U-Bahnhof Eisenacher Stra\u00dfe"}}, {"type": "node", "id": 107606908, "lat": 52.5883733, "lon": 13.3259254, "tags": {"name": "Rathaus Reinickendorf", "public_transport": "station", "railway": "station", "station": "subway", "subway": "yes", "wheelchair": "yes", "wikidata": "Q554477", "wikipedia": "de:U-Bahnhof Rathaus Reinickendorf"}}, {"type": "node", "id": 129730678, "lat": 52.4892983, "lon": 13.4076671, "tags": {"name": "S\u00fcdstern", "public_transport": "station", "railway": "station", "station": "subway", "subway": "yes", "wheelchair": "yes", "wikidata": "Q656081", "wikipedia": "de:U-Bahnhof S\u00fcdstern"}}, {"type": "node", "id": 174817813, "lat": 52.4929715, "lon": 13.3706891, "tags": {"name": "Yorckstra\u00dfe", "public_transport": "station", "railway": "station", "station": "subway", "subway": "yes", "wheelchair": "yes", "wikidata": "Q543907", "wikipedia": "de:Bahnhof Berlin Yorckstra\u00dfe"}}, {"type": "node", "id": 193661797, "lat": 52.5061644, "lon": 13.5128387, "tags": {"name": "Friedrichsfelde", "operator": "Berliner Verkehrsbetriebe", "operator:short": "BVG", "public_transport": "station", "railway": "station", "station": "subway", "subway": "yes", "surveillance": "indoor", "wheelchair": "yes", "wikidata": "Q429781", "wikipedia": "de:U-Bahnhof Friedrichsfelde"}}, {"type": "node", "id": 197619499, "lat": 52.654749, "lon": 13.3862202, "tags": {"contact:phone": "+49 30 297 43333", "contact:website": "https://sbahn.berlin/fahren/bahnhofsuebersicht/muehlenbeck-moenchmuehle/", "light_rail": "yes", "name": "M\u00fchlenbeck-M\u00f6nchm\u00fchle", "network": "Verkehrsverbund Berlin-Brandenburg", "network:short": "VBB", "official_name": "M\u00fchlenbeck-M\u00f6nchm\u00fchle", "operator": "DB Netz AG", "public_transport": "station", "railway": "station", "railway:ref": "BMM", "railway:station_category": "6", "station": "light_rail", "uic_ref": "8080980", "wheelchair": "yes", "wikidata": "Q6950467", "wikipedia": "en:M\u00fchlenbeck-M\u00f6nchm\u00fchle station"}}, {"type": "node", "id": 254087661, "lat": 52.5043157, "lon": 13.3026447, "tags": {"name": "Berlin-Charlottenburg", "operator": "DB Station&Service AG", "public_transport": "station", "railway": "station", "railway:ref": "BCHB", "railway:station_category": "3", "train": "yes", "uic_ref": "8010403", "wheelchair": "limited", "wikidata": "Q702596", "wikipedia": "de:Bahnhof Berlin-Charlottenburg"}}, {"type": "node", "id": 259845849, "lat": 52.4912895, "lon": 13.3958247, "tags": {"name": "Gneisenaustra\u00dfe", "official_name": "U-Bahnhof Gneisenaustra\u00dfe", "public_transport": "station", "railway": "station", "station": "subway", "subway": "yes", "wheelchair": "no", "wheelchair:source": "http://wheelmap.org", "wikidata": "Q668618", "wikipedia": "de:U-Bahnhof Gneisenaustra\u00dfe"}}, {"type": "node", "id": 261941954, "lat": 52.4938491, "lon": 13.4618296, "tags": {"contact:website": "http://www.s-bahn-berlin.de/fahrplanundnetz/bahnhof/treptower-park/152", "departures_board": "realtime", "departures_board:speech_output": "no", "light_rail": "yes", "name": "Treptower Park", "network": "Verkehrsverbund Berlin-Brandenburg", "network:short": "VBB", "network:wikidata": "Q315451", "official_name": "Berlin Treptower Park", "operator": "DB Netz AG", "public_transport": "station", "railway": "station", "railway:ref": "BTP", "railway:ref:parent": "BOK", "railway:station_category": "4", "station": "light_rail", "surveillance": "indoor", "train": "yes", "uic_ref": "8089043", "wheelchair": "yes", "wikidata": "Q559274", "wikipedia": "de:Bahnhof Berlin Treptower Park"}}, {"type": "node", "id": 266962352, "lat": 52.5112644, "lon": 13.242828, "tags": {"contact:website": "http://www.s-bahn-berlin.de/fahrplanundnetz/bahnhof/olympiastadion/111", "light_rail": "yes", "name": "Olympiastadion", "network": "Verkehrsverbund Berlin-Brandenburg", "network:short": "VBB", "official_name": "Berlin Olympiastadion", "operator": "DB Netz AG;DB Station&Service AG", "public_transport": "station", "railway": "station", "railway:ref": "BOLS", "railway:station_category": "3", "station": "light_rail", "uic_ref": "8089330", "wheelchair": "yes", "wikidata": "Q800506", "wikipedia": "de:Bahnhof Berlin Olympiastadion"}}, {"type": "node", "id": 267379240, "lat": 52.4765716, "lon": 13.3660396, "tags": {"name": "Berlin S\u00fcdkreuz", "note": "F\u00fcr den Personenverkehr benutzt die Bahn in der Regel das K\u00fcrzel BPAF und nicht BSKR oder BSKV.", "old_name": "Berlin Papestra\u00dfe", "operator": "DB Netz AG;DB Station&Service AG", "public_transport": "station", "railway": "station", "railway:ref": "BPAF", "railway:station_category": "1", "ref:station": "4859", "toilets:wheelchair": "yes", "train": "yes", "url": "https://www.bahnhof.de/berlin-suedkreuz", "wheelchair": "yes", "wheelchair:description": "WC f\u00fcr Rollifahrer befindet sich links vom Eingang und ist gut ausgeschildert", "wikidata": "Q376589", "wikipedia": "de:Bahnhof Berlin S\u00fcdkreuz"}}, {"type": "node", "id": 316021790, "lat": 52.5100921, "lon": 13.2831263, "tags": {"name": "Kaiserdamm", "public_transport": "station", "railway": "station", "station": "subway", "subway": "yes", "wheelchair": "yes", "wikidata": "Q656409", "wikipedia": "de:U-Bahnhof Kaiserdamm"}}, {"type": "node", "id": 316785013, "lat": 52.549243, "lon": 13.4155955, "tags": {"contact:website": "http://www.s-bahn-berlin.de/fahrplanundnetz/bahnhof/schoenhauser-allee/135", "light_rail": "yes", "name": "Sch\u00f6nhauser Allee", "network": "Verkehrsverbund Berlin-Brandenburg", "network:short": "VBB", "not:network:wikidata": "Q315451", "official_name": "Berlin Sch\u00f6nhauser Allee", "operator": "DB Netz AG", "public_transport": "station", "railway": "station", "railway:ref": "BSAL", "railway:station_category": "4", "ref:station": "5665", "station": "light_rail", "uic_ref": "8089039", "wheelchair": "yes", "wikidata": "Q571403", "wikipedia": "de:Bahnhof Berlin Sch\u00f6nhauser Allee"}}, {"type": "node", "id": 348348641, "lat": 52.4573763, "lon": 13.6232934, "tags": {"contact:website": "http://www.s-bahn-berlin.de/fahrplanundnetz/bahnhof/friedrichshagen/58", "internet_access": "no", "light_rail": "yes", "name": "Friedrichshagen", "network": "Verkehrsverbund Berlin-Brandenburg", "network:short": "VBB", "network:wikidata": "Q315451", "official_name": "Berlin-Friedrichshagen", "operator": "DB Netz AG", "public_transport": "station", "railway": "station", "railway:ref": "BFRH", "railway:station_category": "4", "station": "light_rail", "surveillance": "indoor", "surveillance:type": "camera", "train": "yes", "uic_ref": "8089060", "wheelchair": "yes", "wikidata": "Q800474", "wikipedia": "de:Bahnhof Berlin-Friedrichshagen"}}, {"type": "node", "id": 353664768, "lat": 52.4685507, "lon": 13.5543359, "tags": {"contact:phone": "+49 30 297 43333", "contact:website": "http://www.s-bahn-berlin.de/fahrplanundnetz/bahnhof/wuhlheide/170", "light_rail": "yes", "name": "Wuhlheide", "network": "Verkehrsverbund Berlin-Brandenburg", "network:short": "VBB", "official_name": "Berlin Wuhlheide (S-Bahn)", "operator": "DB Netz AG", "public_transport": "station", "railway": "station", "railway:ref": "BWHH", "railway:ref:parent": "BKPK", "railway:station_category": "5", "station": "light_rail", "uic_name": "Berlin-Wuhlheide", "uic_ref": "8089097", "wheelchair": "yes", "wikidata": "Q800514", "wikipedia": "de:Bahnhof Berlin Wuhlheide"}}, {"type": "node", "id": 418364613, "lat": 52.390077, "lon": 13.5107933}, {"type": "node", "id": 418364616, "lat": 52.3923757, "lon": 13.5156813}, {"type": "node", "id": 455501170, "lat": 52.421199, "lon": 13.1800603, "tags": {"name": "Berlin-Wannsee", "operator": "DB Netz AG", "public_transport": "station", "railway": "station", "railway:ref": "BWS", "railway:station_category": "2", "start_date": "1874-06-01", "train": "yes", "uic_ref": "8010405", "wheelchair": "yes", "wikidata": "Q567336", "wikipedia": "de:Bahnhof Berlin-Wannsee"}}, {"type": "node", "id": 459277140, "lat": 52.5486453, "lon": 13.3902169, "tags": {"departures_board": "realtime", "departures_board:speech_output": "no", "internet_access": "wlan", "name": "Berlin Gesundbrunnen", "network": "Verkehrsverbund Berlin-Brandenburg", "note": "Der Fernbahn-Teil des Bahnhofs ist ein betrieblich eigenst\u00e4ndiger Bahnhof und hat daher einen eigenen Node mit railway=station!", "official_name": "Berlin-Gesundbrunnen", "operator": "DB Station&Service AG", "public_transport": "station", "railway": "station", "railway:ref": "BGS", "railway:station_category": "1", "train": "yes", "uic_ref": "8011102", "url": "https://www.bahnhof.de/berlin-gesundbrunnen", "wheelchair": "yes", "wikidata": "Q678286", "wikipedia": "de:Bahnhof Berlin Gesundbrunnen"}}, {"type": "node", "id": 523045806, "lat": 52.4804671, "lon": 13.527279, "tags": {"contact:phone": "+49 30 297 43333", "contact:website": "http://www.s-bahn-berlin.de/fahrplanundnetz/bahnhof/karlshorst/87", "light_rail": "yes", "name": "Karlshorst", "network": "Verkehrsverbund Berlin-Brandenburg", "network:short": "VBB", "network:wikidata": "Q315451", "official_name": "Berlin-Karlshorst S-Bahn", "operator": "DB Netz AG", "public_transport": "station", "railway": "station", "railway:ref": "BKLH", "railway:station_category": "3", "station": "light_rail", "train": "yes", "uic_name": "Berlin-Karlshorst", "uic_ref": "8010035", "wheelchair": "yes", "wikidata": "Q464170", "wikipedia": "de:Bahnhof Berlin-Karlshorst"}}, {"type": "node", "id": 523045813, "lat": 52.458577, "lon": 13.5815192, "tags": {"contact:phone": "+49 30 297 43333", "contact:website": "http://www.s-bahn-berlin.de/fahrplanundnetz/bahnhof/koepenick/92", "internet_access": "no", "light_rail": "yes", "name": "K\u00f6penick", "network": "Verkehrsverbund Berlin-Brandenburg", "network:short": "VBB", "network:wikidata": "Q315451", "official_name": "Berlin-K\u00f6penick S-Bahn", "operator": "DB Netz AG", "public_transport": "station", "railway": "station", "railway:ref": "BKPK", "railway:station_category": "4", "station": "light_rail", "surveillance": "indoor", "surveillance:type": "camera", "toilets:wheelchair": "yes", "train": "yes", "uic_ref": "8089069", "wheelchair": "yes", "wikidata": "Q800479", "wikipedia": "de:Bahnhof Berlin-K\u00f6penick"}}, {"type": "node", "id": 530812080, "lat": 52.5201744, "lon": 13.3869884, "tags": {"layer": "5", "name": "Berlin Friedrichstra\u00dfe", "note": "railway:ref=BFRI f\u00fcr Fernbahn, BFST f\u00fcr S-Bahn oben, BFSTT f\u00fcr S-Bahn unten (vgl. wiki)", "public_transport": "station", "railway": "station", "railway:ref": "BFRI", "railway:station_category": "2", "start_date": "1882-02-07", "toilets:wheelchair": "yes", "train": "yes", "uic_ref": "8011306", "wheelchair": "limited", "wikidata": "Q702402", "wikipedia": "de:Bahnhof Berlin Friedrichstra\u00dfe"}}, {"type": "node", "id": 557830030, "lat": 52.5052929, "lon": 13.560878, "tags": {"internet_access": "wlan", "name": "Elsterwerdaer Platz", "public_transport": "station", "railway": "station", "station": "subway", "subway": "yes", "surveillance": "indoor", "surveillance:type": "camera", "wheelchair": "yes", "wikidata": "Q551802", "wikipedia": "de:U-Bahnhof Elsterwerdaer Platz"}}, {"type": "node", "id": 557840857, "lat": 52.4996047, "lon": 13.5465321, "tags": {"name": "Biesdorf-S\u00fcd", "public_transport": "station", "railway": "station", "station": "subway", "subway": "yes", "surveillance": "indoor", "surveillance:type": "camera", "wheelchair": "yes", "wikidata": "Q551805", "wikipedia": "de:U-Bahnhof Biesdorf-S\u00fcd"}}, {"type": "node", "id": 606196399, "lat": 52.4272087, "lon": 13.7524646, "tags": {"addr:city": "Erkner", "addr:postcode": "15537", "addr:street": "Bahnhofstra\u00dfe", "name": "Erkner", "phone": "+49 30 29743333", "public_transport": "station", "railway": "station", "railway:ref": "BERK", "railway:station_category": "3", "train": "yes", "uic_ref": "8013477", "website": "http://www.s-bahn-berlin.de/fahrplanundnetz/bahnhof/erkner/53", "wheelchair": "yes", "wikidata": "Q14434071", "wikipedia": "de:Bahnhof Erkner"}}, {"type": "node", "id": 614445865, "lat": 52.5427866, "lon": 13.3669996, "tags": {"contact:phone": "+49 30 297 43333", "contact:website": "http://www.s-bahn-berlin.de/fahrplanundnetz/bahnhof/wedding/175", "departures_board": "no", "level": "1", "light_rail": "yes", "name": "Wedding", "network": "Verkehrsverbund Berlin-Brandenburg", "network:short": "VBB", "network:wikidata": "Q315451", "official_name": "Berlin-Wedding (S-Bahn)", "operator": "DB Station&Service AG", "public_transport": "station", "railway": "station", "railway:ref": "BWED", "railway:station_category": "4", "station": "light_rail", "train": "yes", "uic_name": "Berlin-Wedding", "uic_ref": "8089131", "wheelchair": "yes", "wikidata": "Q638604"}}, {"type": "node", "id": 670704950, "lat": 52.4960247, "lon": 13.2905555, "tags": {"contact:phone": "+49 30 297 43333", "contact:website": "http://www.s-bahn-berlin.de/fahrplanundnetz/bahnhof/halensee/69", "light_rail": "yes", "name": "Halensee", "network": "Verkehrsverbund Berlin-Brandenburg", "network:short": "VBB", "network:wikidata": "Q315451", "official_name": "Berlin-Halensee S-Bahn", "operator": "DB Station&Service AG", "public_transport": "station", "railway": "station", "railway:ref": "BHAL", "railway:station_category": "4", "station": "light_rail", "train": "yes", "uic_name": "Berlin-Halensee", "uic_ref": "8089109", "wheelchair": "yes", "wikidata": "Q800476", "wikipedia": "de:Bahnhof Berlin-Halensee"}}, {"type": "node", "id": 670750126, "lat": 52.4294226, "lon": 13.7510608, "tags": {"addr:city": "Erkner", "addr:postcode": "15537", "addr:street": "Bahnhofstra\u00dfe", "contact:phone": "+49 30 297 43333", "contact:website": "http://www.s-bahn-berlin.de/fahrplanundnetz/bahnhof/erkner/53", "light_rail": "yes", "name": "Erkner", "network": "Verkehrsverbund Berlin-Brandenburg", "network:short": "VBB", "official_name": "Erkner S-Bahn", "operator": "DB Netz AG", "public_transport": "station", "railway": "station", "railway:ref": "BE", "railway:station_category": "3", "station": "light_rail", "uic_name": "Erkner", "uic_ref": "8013477", "wheelchair": "yes", "wikidata": "Q14434071", "wikipedia": "de:Bahnhof Erkner"}}, {"type": "node", "id": 670801913, "lat": 52.5031523, "lon": 13.4695776, "tags": {"departures_board": "realtime", "departures_board:speech_output": "no", "light_rail": "yes", "name": "Ostkreuz", "network": "Verkehrsverbund Berlin-Brandenburg", "network:short": "VBB", "network:wikidata": "Q315451", "note": "Bitte die 5 Nodes mit uic_ref in Bezug auf das Eisenbahn-Tagging so lassen und auch die Position nicht ver\u00e4ndern. Die beiden Stadtbahn-Nodes BOKS und BOKR werden gerendert.", "official_name": "Berlin Ostkreuz (S-Bahn)", "operator": "DB InfraGO AG", "public_transport": "station", "railway": "station", "railway:ref": "BOKS", "railway:ref:parent": "BOSB", "railway:station_category": "3", "ref:station": "4809", "site": "Bf", "station": "light_rail", "surveillance": "indoor", "surveillance:type": "camera", "toilets:wheelchair": "yes", "train": "yes", "uic_name": "Berlin Ostkreuz (S)", "uic_ref": "8089028", "wheelchair": "yes", "wikidata": "Q660045", "wikipedia": "de:Bahnhof Berlin Ostkreuz"}}, {"type": "node", "id": 951487093, "lat": 52.3917239, "lon": 13.5131127, "tags": {"description": "Berlin-Sch\u00f6nefeld Flughafen, Gleis 4", "local_ref": "4", "name": "Sch\u00f6nefeld (bei Berlin)", "old_name": "Flughafen BER - Terminal 5", "public_transport": "stop_position", "railway": "stop", "ref": "4", "train": "yes"}}, {"type": "node", "id": 951487100, "lat": 52.3911849, "lon": 13.5123312, "tags": {"description": "Berlin-Sch\u00f6nefeld Flughafen, Gleis 3", "local_ref": "3", "name": "Sch\u00f6nefeld (bei Berlin)", "old_name": "Flughafen BER - Terminal 5", "public_transport": "stop_position", "railway": "stop", "ref": "3", "train": "yes"}}, {"type": "node", "id": 1095078202, "lat": 52.4759806, "lon": 13.3650726, "tags": {"contact:phone": "+49 30 297 43333", "contact:website": "http://www.s-bahn-berlin.de/fahrplanundnetz/bahnhof/suedkreuz/119", "departures_board": "realtime", "departures_board:speech_output": "no", "light_rail": "yes", "name": "S\u00fcdkreuz (Ringbahn)", "network": "Verkehrsverbund Berlin-Brandenburg", "network:short": "VBB", "note": "F\u00fcr den Personenverkehr benutzt die Bahn in der Regel das K\u00fcrzel BPAF und nicht BSKR oder BSKV.", "official_name": "Berlin S\u00fcdkreuz (Ringbahn)", "operator": "DB Netz AG;DB Station&Service AG", "public_transport": "station", "railway": "station", "railway:ref": "BSKR", "railway:station_category": "1", "ref:station": "4859", "station": "light_rail", "toilets:wheelchair": "yes", "uic_name": "Berlin S\u00fcdkreuz (S)", "uic_ref": "8089073", "wheelchair": "yes", "wheelchair:description": "WC f\u00fcr Rollifahrer befindet sich links vom Eingang und ist gut ausgeschildert", "wikidata": "Q376589", "wikipedia": "de:Bahnhof Berlin S\u00fcdkreuz"}}, {"type": "node", "id": 1127966981, "lat": 52.5491748, "lon": 13.3900758, "tags": {"contact:phone": "+49 30 297 43333", "contact:website": "http://www.s-bahn-berlin.de/fahrplanundnetz/bahnhof/gesundbrunnen/62", "departures_board": "realtime", "departures_board:speech_output": "no", "internet_access": "wlan", "layer": "-1", "level": "-1", "light_rail": "yes", "name": "Gesundbrunnen", "network": "Verkehrsverbund Berlin-Brandenburg", "network:short": "VBB", "note": "Der S-Bahn-Teil des Bahnhofs ist ein betrieblich eigenst\u00e4ndiger Bahnhof und hat daher einen eigenen Node mit railway=station!", "official_name": "Berlin-Gesundbrunnen S-Bahn", "old_name": "S Nordkreuz", "operator": "DB Station&Service AG", "public_transport": "station", "railway": "station", "railway:ref": "BGB", "railway:station_category": "1", "station": "light_rail", "subway": "no", "train": "yes", "uic_name": "Berlin Gesundbrunnen(S)", "uic_ref": "8089015", "wheelchair": "yes", "wikidata": "Q678286", "wikipedia": "de:Bahnhof Berlin Gesundbrunnen"}}, {"type": "node", "id": 1198648152, "lat": 52.3924527, "lon": 13.5155863}, {"type": "node", "id": 1198648164, "lat": 52.3918471, "lon": 13.5142894}, {"type": "node", "id": 1198648176, "lat": 52.3905449, "lon": 13.5118156}, {"type": "node", "id": 1198648206, "lat": 52.3917558, "lon": 13.5143973}, {"type": "node", "id": 1198648224, "lat": 52.3901605, "lon": 13.5106846}, {"type": "node", "id": 1198648227, "lat": 52.3906615, "lon": 13.511762}, {"type": "node", "id": 1351158702, "lat": 52.5071378, "lon": 13.331868, "tags": {"contact:phone": "+49 30 297 43333", "contact:website": "http://www.s-bahn-berlin.de/fahrplanundnetz/bahnhof/zoologischer-garten/169", "light_rail": "yes", "loc_name": "Bahnhof Zoo", "name": "Zoologischer Garten", "network": "Verkehrsverbund Berlin-Brandenburg", "network:short": "VBB", "note": "S-Bahn-Bahnhof ist eigenst\u00e4ndiger Bahnhof, daher zwei Bahnh\u00f6fe hier!", "official_name": "Berlin Zoologischer Garten S-Bahn", "operator": "DB Netz AG;DB Station&Service AG", "public_transport": "station", "railway": "station", "railway:ref": "BZOS", "railway:station_category": "2", "station": "light_rail", "uic_name": "Berlin Zoologischer Garten", "uic_ref": "8010406", "wheelchair": "yes", "wikidata": "Q681785", "wikipedia": "de:Bahnhof Berlin Zoologischer Garten"}}, {"type": "node", "id": 1390287336, "lat": 52.463673, "lon": 13.3326994, "tags": {"contact:phone": "+49 30 297 43333", "contact:website": "http://www.s-bahn-berlin.de/fahrplanundnetz/bahnhof/feuerbachstrasse/11", "layer": "-1", "light_rail": "yes", "name": "Feuerbachstra\u00dfe", "network": "Verkehrsverbund Berlin-Brandenburg", "network:short": "VBB", "note": "mangels Weichen nur ein Haltepunkt", "official_name": "Berlin Feuerbachstra\u00dfe", "operator": "DB Netz AG", "public_transport": "station", "railway": "station", "railway:ref": "BFB", "railway:station_category": "5", "station": "light_rail", "uic_name": "Berlin Feuerbachstr.", "uic_ref": "8089012", "wheelchair": "yes", "wikidata": "Q800501", "wikipedia": "de:Bahnhof Berlin Feuerbachstra\u00dfe"}}, {"type": "node", "id": 1450481793, "lat": 52.3642841, "lon": 13.5081573, "tags": {"level": "-1", "level:ref": "U2", "light_rail": "yes", "name": "Flughafen BER", "official_name": "Berlin Flughafen BER (S-Bahn)", "old_name": "Flughafen BER - Terminal 1-2", "operator": "DB Station&Service AG", "public_transport": "station", "railway": "station", "railway:ref": "BFBB", "short_name": "Flughafen BER (S-Bahn)", "station": "light_rail", "uic_ref": "8011201", "wheelchair": "yes", "wikidata": "Q800759", "wikipedia": "de:Bahnhof Flughafen BER"}}, {"type": "node", "id": 1498939809, "lat": 52.5298999, "lon": 13.4011206, "tags": {"alt_name": "U Rosenthaler Platz", "atm": "yes", "atm:operator": "Bankhaus Lenz", "name": "Rosenthaler Platz", "official_name": "U-Bahnhof Rosenthaler Platz", "postal_code": "10119", "public_transport": "station", "railway": "station", "station": "subway", "subway": "yes", "wheelchair": "yes", "wikidata": "Q663231", "wikipedia": "de:U-Bahnhof Rosenthaler Platz"}}, {"type": "node", "id": 1731759740, "lat": 52.440088, "lon": 13.2154373, "tags": {"contact:phone": "+49 30 297 43333", "contact:website": "http://www.s-bahn-berlin.de/fahrplanundnetz/bahnhof/schlachtensee/4", "light_rail": "yes", "name": "Schlachtensee", "network": "Verkehrsverbund Berlin-Brandenburg", "network:short": "VBB", "network:wikidata": "Q315451", "official_name": "Berlin-Schlachtensee", "operator": "DB Netz AG", "public_transport": "station", "railway": "station", "railway:ref": "BSLS", "railway:station_category": "4", "station": "light_rail", "train": "yes", "uic_ref": "8089085", "wheelchair": "yes", "wikidata": "Q800509", "wikipedia": "de:Bahnhof Berlin-Schlachtensee"}}, {"type": "node", "id": 1736633839, "lat": 52.3639907, "lon": 13.5083312, "tags": {"level": "-1", "level:ref": "U2", "name": "Flughafen BER", "official_name": "Berlin Flughafen BER", "old_name": "Flughafen BER - Terminal 1-2", "operator": "DB Station&Service AG", "public_transport": "station", "railway": "station", "railway:ref": "BFBI", "short_name": "Flughafen BER (Fern)", "train": "yes", "uic_ref": "8011201", "wheelchair": "yes", "wikidata": "Q800759", "wikipedia": "de:Bahnhof Flughafen Berlin Brandenburg"}}, {"type": "node", "id": 1870089918, "lat": 52.4290685, "lon": 13.4299672, "tags": {"name": "Buckower Damm", "public_transport": "station", "railway": "station", "station": "miniature", "train": "yes", "usage": "tourism", "wheelchair": "limited"}}, {"type": "node", "id": 1871042745, "lat": 52.4709704, "lon": 13.3844457, "tags": {"contact:website": "http://www.s-bahn-berlin.de/fahrplanundnetz/bahnhof/tempelhof/150", "departures_board": "realtime", "departures_board:speech_output": "no", "light_rail": "yes", "name": "Tempelhof", "network": "Verkehrsverbund Berlin-Brandenburg", "network:short": "VBB", "official_name": "Berlin-Tempelhof S-Bahn", "operator": "DB Netz AG;DB Station&Service AG", "public_transport": "station", "railway": "station", "railway:ref": "BTHF", "railway:station_category": "4", "ref:station": "565", "station": "light_rail", "uic_name": "Berlin-Tempelhof", "uic_ref": "8089090", "wheelchair": "yes", "wikidata": "Q571405", "wikipedia": "de:Bahnhof Berlin-Tempelhof"}}, {"type": "node", "id": 1894165224, "lat": 52.4364063, "lon": 13.4217208, "tags": {"name": "Kalenderplatz", "public_transport": "station", "railway": "station", "station": "miniature", "train": "yes", "usage": "tourism", "wheelchair": "limited"}}, {"type": "node", "id": 1947340096, "lat": 52.5322749, "lon": 13.3878392, "tags": {"contact:phone": "+49 30 297 43333", "contact:website": "http://www.s-bahn-berlin.de/fahrplanundnetz/bahnhof/nordbahnhof/109", "departures_board": "realtime", "departures_board:speech_output": "no", "light_rail": "yes", "name": "Nordbahnhof", "network": "Verkehrsverbund Berlin-Brandenburg", "network:short": "VBB", "network:wikidata": "Q315451", "official_name": "Berlin Nordbahnhof", "operator": "DB Netz AG;DB Station&Service AG", "public_transport": "station", "railway": "station", "railway:ref": "BNB", "railway:station_category": "4", "ref:station": "532", "station": "light_rail", "train": "yes", "uic_ref": "8089024", "wheelchair": "no", "wikidata": "Q673721", "wikipedia": "de:Berlin Nordbahnhof"}}, {"type": "node", "id": 2094267047, "lat": 52.5221593, "lon": 13.4133674}, {"type": "node", "id": 2094344996, "lat": 52.5208337, "lon": 13.4127716}, {"type": "node", "id": 2094344997, "lat": 52.5211548, "lon": 13.4135449}, {"type": "node", "id": 2094344998, "lat": 52.5212308, "lon": 13.4144103}, {"type": "node", "id": 2094345000, "lat": 52.5211791, "lon": 13.4125859}, {"type": "node", "id": 2094345001, "lat": 52.521291, "lon": 13.4146965}, {"type": "node", "id": 2094345003, "lat": 52.5216631, "lon": 13.4119328}, {"type": "node", "id": 2094345004, "lat": 52.5213814, "lon": 13.4118703}, {"type": "node", "id": 2094345005, "lat": 52.5215969, "lon": 13.4144646}, {"type": "node", "id": 2094345006, "lat": 52.5217406, "lon": 13.4137631}, {"type": "node", "id": 2094345007, "lat": 52.5216619, "lon": 13.4118637}, {"type": "node", "id": 2094345009, "lat": 52.5221102, "lon": 13.4133603}, {"type": "node", "id": 2094345010, "lat": 52.5221426, "lon": 13.4134165}, {"type": "node", "id": 2094347340, "lat": 52.5207424, "lon": 13.4129352}, {"type": "node", "id": 2094347342, "lat": 52.5207605, "lon": 13.4129132}, {"type": "node", "id": 2094347344, "lat": 52.5207942, "lon": 13.4130456}, {"type": "node", "id": 2094347346, "lat": 52.5209322, "lon": 13.4128865}, {"type": "node", "id": 2094347348, "lat": 52.5213524, "lon": 13.414287}, {"type": "node", "id": 2094347350, "lat": 52.5214534, "lon": 13.4145883}, {"type": "node", "id": 2094347352, "lat": 52.521491, "lon": 13.4141238}, {"type": "node", "id": 2094347354, "lat": 52.5216418, "lon": 13.414416}, {"type": "node", "id": 2094347357, "lat": 52.5216599, "lon": 13.4144524}, {"type": "node", "id": 2094347359, "lat": 52.5218719, "lon": 13.4140991}, {"type": "node", "id": 2094347361, "lat": 52.5218882, "lon": 13.414134}, {"type": "node", "id": 2094347365, "lat": 52.5218626, "lon": 13.4135864}, {"type": "node", "id": 2094347367, "lat": 52.5220416, "lon": 13.4138365}, {"type": "node", "id": 2094347368, "lat": 52.5220512, "lon": 13.4132721}, {"type": "node", "id": 2094347370, "lat": 52.5221964, "lon": 13.4134971}, {"type": "node", "id": 2094351461, "lat": 52.5206785, "lon": 13.4127431}, {"type": "node", "id": 2094351463, "lat": 52.5207693, "lon": 13.4126251}, {"type": "node", "id": 2094351465, "lat": 52.5209977, "lon": 13.4123422}, {"type": "node", "id": 2094351471, "lat": 52.5210651, "lon": 13.4124643}, {"type": "node", "id": 2094362218, "lat": 52.5210341, "lon": 13.4122863}, {"type": "node", "id": 2094362219, "lat": 52.521062, "lon": 13.4123335}, {"type": "node", "id": 2094362221, "lat": 52.5214605, "lon": 13.4131381}, {"type": "node", "id": 2094362222, "lat": 52.5215195, "lon": 13.4132421}, {"type": "node", "id": 2094362223, "lat": 52.5216251, "lon": 13.4131366}, {"type": "node", "id": 2094362224, "lat": 52.5216249, "lon": 13.4132408}, {"type": "node", "id": 2094362225, "lat": 52.5216782, "lon": 13.4119651}, {"type": "node", "id": 2094362227, "lat": 52.5216835, "lon": 13.4119065}, {"type": "node", "id": 2094362228, "lat": 52.5216982, "lon": 13.4119359}, {"type": "node", "id": 2094392494, "lat": 52.5214974, "lon": 13.4120881}, {"type": "node", "id": 2094392646, "lat": 52.5214098, "lon": 13.4119216}, {"type": "node", "id": 2094392647, "lat": 52.521528, "lon": 13.4116504}, {"type": "node", "id": 2094392648, "lat": 52.5215539, "lon": 13.4116949}, {"type": "node", "id": 2102139395, "lat": 52.4995261, "lon": 13.3740318, "tags": {"name": "Gleisdreieck", "public_transport": "station", "railway": "station", "station": "subway", "subway": "yes", "toilets:wheelchair": "no", "wheelchair": "yes", "wikidata": "Q678372", "wikipedia": "de:U-Bahnhof Gleisdreieck"}}, {"type": "node", "id": 2134525648, "lat": 52.5252246, "lon": 13.3930145, "tags": {"contact:website": "http://www.s-bahn-berlin.de/fahrplanundnetz/bahnhof/oranienburger-strasse/113", "light_rail": "yes", "name": "Oranienburger Stra\u00dfe", "network": "Verkehrsverbund Berlin-Brandenburg", "network:short": "VBB", "network:wikidata": "Q315451", "official_name": "Berlin Oranienburger Stra\u00dfe", "operator": "DB Netz AG", "public_transport": "station", "railway": "station", "railway:ref": "BORS", "railway:ref:parent": "BNB", "railway:station_category": "4", "station": "light_rail", "train": "yes", "uic_ref": "8089027", "wheelchair": "yes", "wikidata": "Q480249", "wikipedia": "de:Bahnhof Berlin Oranienburger Stra\u00dfe"}}, {"type": "node", "id": 2459919675, "lat": 52.5246361, "lon": 13.369861, "tags": {"layer": "-2", "name": "Berlin Hauptbahnhof (tief)", "name:ja": "\u30d9\u30eb\u30ea\u30f3\u4e2d\u592e\u99c5", "note": "\"Dummy\"-Node f\u00fcr die Betriebsstellenbezeichnung (DS100) der unteren acht Ferngleise; wird unter anderem f\u00fcr die OpenRailwayMap ben\u00f6tigt; name ist ein \"educated\" guess", "official_name": "Berlin Hauptbahnhof - Lehrter Bahnhof", "operator": "DB Netz AG", "public_transport": "station", "railway": "station", "railway:ref": "BL", "railway:station_category": "1", "short_name": "Berlin Hbf (tief)", "start_date": "2006-05-28", "toilets:wheelchair": "yes", "train": "yes", "uic_name": "Berlin Hauptbahnhof (tief)", "uic_ref": "8098160", "wheelchair": "yes", "wikidata": "Q1097", "wikipedia": "de:Berlin Hauptbahnhof"}}, {"type": "node", "id": 2461322542, "lat": 52.5488223, "lon": 13.3883057, "tags": {"departures_board": "realtime", "departures_board:speech_output": "no", "name": "Gesundbrunnen", "public_transport": "station", "railway": "station", "station": "subway", "subway": "yes", "wheelchair": "yes"}}, {"type": "node", "id": 2514084207, "lat": 52.396844, "lon": 13.2762483, "tags": {"addr:city": "Teltow", "addr:country": "DE", "addr:postcode": "14513", "addr:street": "Mahlower Stra\u00dfe", "contact:phone": "+49 30 297 43333", "contact:website": "http://www.s-bahn-berlin.de/fahrplanundnetz/bahnhof/teltow-stadt/181", "light_rail": "yes", "name": "Teltow Stadt", "network": "Verkehrsverbund Berlin-Brandenburg", "network:short": "VBB", "network:wikidata": "Q315451", "official_name": "Teltow Stadt", "operator": "DB Netz AG", "public_transport": "station", "railway": "station", "railway:ref": "BTLS", "railway:station_category": "5", "station": "light_rail", "train": "yes", "uic_ref": "8080450", "wheelchair": "yes", "wikidata": "Q7697867"}}, {"type": "node", "id": 2567991414, "lat": 52.5547713, "lon": 13.3978451, "tags": {"contact:phone": "+49 30 297 43333", "contact:website": "http://www.s-bahn-berlin.de/fahrplanundnetz/bahnhof/bornholmer-strasse/45", "internet_access": "wlan", "light_rail": "yes", "name": "Bornholmer Stra\u00dfe", "network": "Verkehrsverbund Berlin-Brandenburg", "network:short": "VBB", "official_name": "Berlin Bornholmer Stra\u00dfe", "operator": "DB Netz AG;DB Station&Service AG", "public_transport": "station", "railway": "station", "railway:ref": "BBOS", "railway:station_category": "4", "ref:station": "791", "station": "light_rail", "surveillance": "indoor", "surveillance:type": "camera", "uic_name": "Berlin Bornholmer Str.", "uic_ref": "8089008", "wheelchair": "yes", "wikidata": "Q32662318", "wikipedia": "de:Bahnhof Berlin Bornholmer Stra\u00dfe"}}, {"type": "node", "id": 2568010568, "lat": 52.5777843, "lon": 13.3512427, "tags": {"contact:phone": "+49 30 297 43333", "contact:website": "http://www.s-bahn-berlin.de/fahrplanundnetz/bahnhof/alt-reinickendorf/27", "light_rail": "yes", "name": "Alt-Reinickendorf", "network": "Verkehrsverbund Berlin-Brandenburg", "network:short": "VBB", "network:wikidata": "Q315451", "official_name": "Berlin Alt Reinickendorf", "operator": "DB Netz AG", "public_transport": "station", "railway": "station", "railway:ref": "BARF", "railway:station_category": "5", "station": "light_rail", "train": "yes", "uic_name": "Berlin Alt-Reinickendorf", "uic_ref": "8089103", "wheelchair": "limited", "wikidata": "Q800496", "wikipedia": "de:Bahnhof Berlin Alt-Reinickendorf"}}, {"type": "node", "id": 2568020195, "lat": 52.5881913, "lon": 13.2896968, "tags": {"contact:phone": "+49 30 297 43333", "contact:website": "http://www.s-bahn-berlin.de/fahrplanundnetz/bahnhof/tegel/149", "light_rail": "yes", "name": "Tegel", "network": "Verkehrsverbund Berlin-Brandenburg", "network:short": "VBB", "official_name": "Berlin-Tegel", "operator": "DB Netz AG;DB Station&Service AG", "public_transport": "station", "railway": "station", "railway:ref": "BTG", "railway:station_category": "5", "station": "light_rail", "uic_name": "Berlin-Tegel (S)", "uic_ref": "8089089", "wheelchair": "yes", "wikidata": "Q800493", "wikipedia": "de:Bahnhof Berlin-Tegel"}}, {"type": "node", "id": 2613268560, "lat": 52.4105417, "lon": 13.3827559, "tags": {"contact:website": "http://www.s-bahn-berlin.de/fahrplanundnetz/bahnhof/buckower-chaussee/47", "light_rail": "yes", "name": "Buckower Chaussee", "network": "Verkehrsverbund Berlin-Brandenburg", "network:short": "VBB", "network:wikidata": "Q315451", "official_name": "Berlin Buckower Chaussee", "operator": "DB Netz AG", "public_transport": "station", "railway": "station", "railway:ref": "BBCH", "railway:station_category": "5", "station": "light_rail", "toilets:wheelchair": "no", "train": "yes", "uic_ref": "8089010", "wheelchair": "yes", "wikidata": "Q800499", "wikipedia": "de:Bahnhof Berlin Buckower Chaussee"}}, {"type": "node", "id": 2634929378, "lat": 52.6246647, "lon": 13.229194, "tags": {"contact:website": "http://www.s-bahn-berlin.de/fahrplanundnetz/bahnhof/heiligensee/73", "light_rail": "yes", "name": "Heiligensee", "network": "Verkehrsverbund Berlin-Brandenburg", "network:short": "VBB", "network:wikidata": "Q315451", "official_name": "Berlin-Heiligensee", "operator": "DB Netz AG", "public_transport": "station", "railway": "station", "railway:ref": "BHLS", "railway:station_category": "4", "ref": "BHLS", "station": "light_rail", "train": "yes", "uic_ref": "8089025", "wheelchair": "yes", "wikidata": "Q800475", "wikipedia": "de:Bahnhof Berlin-Heiligensee"}}, {"type": "node", "id": 2777026057, "lat": 52.5210938, "lon": 13.4126937, "tags": {"level": "-1"}}, {"type": "node", "id": 2777026077, "lat": 52.5211082, "lon": 13.4126752, "tags": {"level": "-1"}}, {"type": "node", "id": 2777026081, "lat": 52.5211225, "lon": 13.4126567, "tags": {"level": "-1"}}, {"type": "node", "id": 2777153434, "lat": 52.5210672, "lon": 13.4135737}, {"type": "node", "id": 2777153437, "lat": 52.5210704, "lon": 13.413616}, {"type": "node", "id": 2777153447, "lat": 52.5211941, "lon": 13.4135594}, {"type": "node", "id": 2777153449, "lat": 52.5212356, "lon": 13.4144325}, {"type": "node", "id": 2777153455, "lat": 52.5212657, "lon": 13.414573}, {"type": "node", "id": 2802973934, "lat": 52.3882208, "lon": 13.2997399, "tags": {"name": "Teltow", "note": "Aufgrund von Weichen im Stationsbereich offenbar Bahnhof (railway=station) statt Haltepunkt (railway=halt)", "operator": "DB Netz AG", "public_transport": "station", "railway": "station", "railway:ref": "BTL", "railway:station_category": "6", "train": "yes", "wheelchair": "yes", "wikidata": "Q7697868", "wikipedia": "de:Bahnhof Teltow"}}, {"type": "node", "id": 2808272930, "lat": 52.4793491, "lon": 13.3519181, "tags": {"contact:phone": "+49 30 297 43333", "contact:website": "http://www.s-bahn-berlin.de/fahrplanundnetz/bahnhof/schoeneberg/13", "departures_board": "timetable", "level": "1", "light_rail": "yes", "name": "Sch\u00f6neberg", "network": "Verkehrsverbund Berlin-Brandenburg", "network:short": "VBB", "note": "F\u00fcr den Personenverkehr benutzt die Bahn in der Regel das K\u00fcrzel BSGR und nicht BSGV.", "official_name": "Berlin-Sch\u00f6neberg (Vorortbahn)", "operator": "DB Netz AG;DB Station&Service AG", "public_transport": "station", "railway": "station", "railway:ref": "BSGV", "railway:station_category": "4", "ref:station": "558", "station": "light_rail", "uic_name": "Berlin-Sch\u00f6neberg", "uic_ref": "8089474", "website": "https://www.bahnhof.de/bahnhof-de/bahnhof/Schoeneberg-1025752", "wheelchair": "no", "wikidata": "Q543855", "wikipedia": "de:Bahnhof Berlin-Sch\u00f6neberg"}}, {"type": "node", "id": 2837556546, "lat": 52.5107448, "lon": 13.4351709, "tags": {"contact:website": "http://www.s-bahn-berlin.de/fahrplanundnetz/bahnhof/ostbahnhof/115", "light_rail": "yes", "name": "Ostbahnhof", "network": "Verkehrsverbund Berlin-Brandenburg", "network:short": "VBB", "network:wikidata": "Q315451", "official_name": "Berlin Ostbahnhof S-Bahn", "operator": "DB Station&Service AG", "platforms": "2", "public_transport": "station", "railway": "station", "railway:ref": "BOSB", "railway:station_category": "1", "station": "light_rail", "train": "yes", "uic_name": "Berlin Ostbahnhof", "uic_ref": "8010255", "wheelchair": "limited", "wikidata": "Q683239", "wikipedia": "de:Berlin Ostbahnhof"}}, {"type": "node", "id": 2909563126, "lat": 52.5914655, "lon": 13.4434822, "tags": {"contact:phone": "+49 30 297 43333", "contact:website": "http://www.s-bahn-berlin.de/fahrplanundnetz/bahnhof/blankenburg/42", "light_rail": "yes", "name": "Blankenburg", "network": "Verkehrsverbund Berlin-Brandenburg", "network:short": "VBB", "network:wikidata": "Q315451", "official_name": "Berlin-Blankenburg S-Bahn", "operator": "DB Netz AG", "public_transport": "station", "railway": "station", "railway:ref": "BBLB", "railway:station_category": "4", "station": "light_rail", "train": "yes", "uic_ref": "8089056", "wheelchair": "yes", "wikidata": "Q800469", "wikipedia": "de:Bahnhof Berlin-Blankenburg"}}, {"type": "node", "id": 2924245392, "lat": 52.5430625, "lon": 13.3650375, "tags": {"departures_board": "realtime", "departures_board:speech_output": "no", "level": "-1", "name": "Wedding", "public_transport": "station", "railway": "station", "station": "subway", "subway": "yes", "wheelchair": "yes", "wikidata": "Q638604", "wikipedia": "de:Bahnhof Berlin-Wedding"}}, {"type": "node", "id": 2974219763, "lat": 52.5319419, "lon": 13.2093454, "tags": {"contact:phone": "+49 30 297 43333", "contact:website": "http://www.s-bahn-berlin.de/fahrplanundnetz/bahnhof/stresow/177", "departures_board": "realtime", "departures_board:speech_output": "no", "light_rail": "yes", "name": "Stresow", "network": "Verkehrsverbund Berlin-Brandenburg", "network:short": "VBB", "note": "\"Berlin-Stresow\" ist die offizielle Betriebsstellenbezeichnung", "note:old_name": "Berlin-Spandau bzw. 1911-1936 Spandau (Hbf.)", "official_name": "Berlin-Stresow", "operator": "DB Netz AG", "public_transport": "station", "railway": "station", "railway:ref": "BSRW", "railway:ref:parent": "BSPA", "railway:station_category": "5", "station": "light_rail", "uic_ref": "8089053", "wheelchair": "yes", "wikidata": "Q800491", "wikipedia": "de:Bahnhof Berlin-Stresow"}}, {"type": "node", "id": 3092283379, "lat": 52.632409, "lon": 13.2902205, "tags": {"contact:phone": "+49 30 297 43333", "contact:website": "http://www.s-bahn-berlin.de/fahrplanundnetz/bahnhof/frohnau/60", "description": "S Frohnau", "light_rail": "yes", "name": "Frohnau", "network": "Verkehrsverbund Berlin-Brandenburg", "network:short": "VBB", "network:wikidata": "Q315451", "official_name": "Berlin-Frohnau", "operator": "DB Netz AG", "public_transport": "station", "railway": "station", "railway:ref": "BFOH", "railway:station_category": "4", "station": "light_rail", "train": "yes", "uic_ref": "8089061", "wheelchair": "yes", "wikidata": "Q800472", "wikipedia": "de:Bahnhof Berlin-Frohnau"}}, {"type": "node", "id": 3092447211, "lat": 52.6062718, "lon": 13.321194, "tags": {"contact:phone": "+49 30 297 43333", "contact:website": "http://www.s-bahn-berlin.de/fahrplanundnetz/bahnhof/waidmannslust/154", "description": "S Waidmannslust", "light_rail": "yes", "name": "Waidmannslust", "network": "Verkehrsverbund Berlin-Brandenburg", "network:short": "VBB", "network:wikidata": "Q315451", "official_name": "Berlin-Waidmannslust", "operator": "DB Netz AG", "public_transport": "station", "railway": "station", "railway:ref": "BWAI", "railway:station_category": "4", "station": "light_rail", "train": "yes", "uic_ref": "8089092", "wheelchair": "yes", "wikidata": "Q800492", "wikipedia": "de:Bahnhof Berlin-Waidmannslust"}}, {"type": "node", "id": 3101920259, "lat": 52.5347694, "lon": 13.1956287, "tags": {"name": "Berlin-Spandau", "operator": "DB Netz AG", "public_transport": "station", "railway": "station", "railway:ref": "BSPD", "railway:station_category": "2", "start_date": "1910-07-15", "toilets:wheelchair": "yes", "train": "yes", "uic_ref": "8010404", "url": "https://www.bahnhof.de/berlin-spandau", "wheelchair": "yes", "wikidata": "Q654980", "wikimedia_commons": "Category:Bahnhof Berlin-Spandau", "wikipedia": "de:Bahnhof Berlin-Spandau"}}, {"type": "node", "id": 3154117524, "lat": 52.5715004, "lon": 13.3809904, "tags": {"contact:phone": "+49 30 297 43333", "contact:website": "http://www.s-bahn-berlin.de/fahrplanundnetz/bahnhof/schoenholz/136", "departures_board": "realtime", "departures_board:speech_output": "no", "light_rail": "yes", "name": "Sch\u00f6nholz", "network": "Verkehrsverbund Berlin-Brandenburg", "network:short": "VBB", "network:wikidata": "Q315451", "official_name": "Berlin-Sch\u00f6nholz S-Bahn", "operator": "DB InfraGO AG", "public_transport": "station", "railway": "station", "railway:ref": "BSNH", "railway:station_category": "4", "ref:station": "560", "station": "light_rail", "train": "yes", "uic_ref": "8089087", "wheelchair": "yes", "wikidata": "Q800490", "wikipedia": "de:Bahnhof Berlin-Sch\u00f6nholz"}}, {"type": "node", "id": 3234856203, "lat": 52.4480308, "lon": 13.3607503, "tags": {"contact:phone": "+49 30 297 43333", "contact:website": "http://www.s-bahn-berlin.de/fahrplanundnetz/bahnhof/attilastrasse/29", "light_rail": "yes", "name": "Attilastra\u00dfe", "network": "Verkehrsverbund Berlin-Brandenburg", "network:short": "VBB", "network:wikidata": "Q315451", "official_name": "Berlin Attilastra\u00dfe", "operator": "DB Netz AG", "public_transport": "station", "railway": "station", "railway:ref": "BATS", "railway:station_category": "5", "station": "light_rail", "train": "yes", "uic_ref": "8089003", "wheelchair": "yes", "wikidata": "Q800497", "wikipedia": "de:Bahnhof Berlin Attilastra\u00dfe"}}, {"type": "node", "id": 3352091173, "lat": 52.5120808, "lon": 13.3896554, "tags": {"loc_name": "U Stadtmitte", "name": "Stadtmitte", "public_transport": "station", "railway": "station", "station": "subway", "subway": "yes", "wheelchair": "yes", "wikidata": "Q660066", "wikipedia": "de:U-Bahnhof Stadtmitte"}}, {"type": "node", "id": 3419894993, "lat": 52.5103817, "lon": 13.4349112, "tags": {"name": "Berlin Ostbahnhof", "name:ja": "\u30d9\u30eb\u30ea\u30f3\u30fb\u6771\u99c5", "network": "DBUS", "note": "der Fernbahnteil und die S-Bahn-Station sind zwei eigenst\u00e4ndige Bahnh\u00f6fe im gleichen Geb\u00e4ude!", "old_name": "Berlin Schlesischer Bahnhof;Berlin (Ost) Hauptbahnhof", "operator": "DB Station&Service AG", "public_transport": "station", "railway": "station", "railway:ref": "BHF", "railway:station_category": "1", "short_name": "Berlin Ostbf", "toilets:wheelchair": "no", "train": "yes", "uic_ref": "8010255", "url": "https://www.bahnhof.de/berlin-ostbahnhof", "wheelchair": "yes", "wikidata": "Q683239", "wikipedia": "de:Berlin Ostbahnhof"}}, {"type": "node", "id": 3419922343, "lat": 52.3914695, "lon": 13.5127026, "tags": {"name": "Sch\u00f6nefeld (bei Berlin)", "official_name": "Sch\u00f6nefeld (bei Berlin)", "old_name": "Berlin-Sch\u00f6nefeld Flughafen;Flughafen BER \u2013 Terminal 5 (Sch\u00f6nefeld)", "operator": "DB Station&Service AG", "public_transport": "station", "railway": "station", "railway:ref": "BFHS", "railway:station_category": "3", "train": "yes", "uic_name": "Berlin-Sch\u00f6nefeld Flughafen", "wheelchair": "yes", "wikidata": "Q661069", "wikipedia": "de:Bahnhof Berlin-Sch\u00f6nefeld Flughafen"}}, {"type": "node", "id": 3419922345, "lat": 52.3914537, "lon": 13.5132856, "tags": {"description": "Berlin-Sch\u00f6nefeld Flughafen, Gleis 5", "local_ref": "5", "name": "Sch\u00f6nefeld (bei Berlin)", "old_name": "Flughafen BER - Terminal 5", "public_transport": "stop_position", "railway": "stop", "ref": "5", "train": "yes"}}, {"type": "node", "id": 3423149134, "lat": 52.3942847, "lon": 13.128292, "tags": {"departures_board": "timetable", "man_made": "surveillance", "name": "Griebnitzsee", "note": "Vor Ort als Griebnitzsee ohne Pr\u00e4fix und Suffix augeschildert. Von der S-Bahn-Station betrieblich unabh\u00e4ngiger Bahnhof", "official_name": "Potsdam Griebnitzsee", "operator": "DB InfraGO", "operator:wikidata": "Q122870674", "public_transport": "station", "railway": "station", "railway:ref": "BGBS", "railway:station_category": "4", "train": "yes", "uic_name": "Potsdam Griebnitzsee", "uic_ref": "8080530", "wheelchair": "yes", "wikidata": "Q315133", "wikipedia": "de:Bahnhof Potsdam Griebnitzsee"}}, {"type": "node", "id": 3508654676, "lat": 52.4069533, "lon": 13.5582554, "tags": {"contact:website": "http://www.s-bahn-berlin.de/fahrplanundnetz/bahnhof/altglienicke/28", "departures_board": "no", "light_rail": "yes", "name": "Altglienicke", "network": "Verkehrsverbund Berlin-Brandenburg", "network:short": "VBB", "network:wikidata": "Q315451", "official_name": "Berlin-Altglienicke", "operator": "DB Netz AG", "public_transport": "station", "railway": "station", "railway:ref": "BAGL", "railway:station_category": "5", "station": "light_rail", "train": "yes", "uic_ref": "8089054", "wheelchair": "yes", "wikidata": "Q4736651", "wikipedia": "de:Bahnhof Berlin-Altglienicke"}}, {"type": "node", "id": 3508654679, "lat": 52.4128789, "lon": 13.5736378, "tags": {"contact:website": "http://www.s-bahn-berlin.de/fahrplanundnetz/bahnhof/gruenau/65", "light_rail": "yes", "name": "Gr\u00fcnau", "network": "Verkehrsverbund Berlin-Brandenburg", "network:short": "VBB", "official_name": "Berlin-Gr\u00fcnau S-Bahn", "operator": "DB Netz AG;DB Station&Service AG", "public_transport": "station", "railway": "station", "railway:ref": "BGAS", "railway:station_category": "4", "ref:station": "540", "short_name": "Bln-Gr\u00fcnau", "station": "light_rail", "uic_ref": "8089063", "wheelchair": "yes", "wikidata": "Q324777", "wikipedia": "de:Bahnhof Berlin-Gr\u00fcnau"}}, {"type": "node", "id": 3508654680, "lat": 52.4549058, "lon": 13.5097653, "tags": {"alt_name": "Berlin-Sch\u00f6neweide S-Bahn", "contact:phone": "+49 30 297 43333", "contact:website": "http://www.s-bahn-berlin.de/fahrplanundnetz/bahnhof/schoeneweide/133", "internet_access": "no", "light_rail": "yes", "name": "Sch\u00f6neweide", "network": "Verkehrsverbund Berlin-Brandenburg", "network:short": "VBB", "official_name": "Berlin-Sch\u00f6neweide S-Bahn", "operator": "DB Netz AG", "public_transport": "station", "railway": "station", "railway:ref": "BSW", "railway:station_category": "3", "ref:station": "559", "station": "light_rail", "uic_name": "Berlin-Sch\u00f6neweide (S)", "uic_ref": "8089168", "wheelchair": "yes", "wikidata": "Q540899", "wikipedia": "de:Bahnhof Berlin-Sch\u00f6neweide"}}, {"type": "node", "id": 3508978359, "lat": 52.3484435, "lon": 13.627647, "tags": {"contact:phone": "+49 30 297 43333", "contact:website": "http://www.s-bahn-berlin.de/fahrplanundnetz/bahnhof/zeuthen/168", "light_rail": "yes", "name": "Zeuthen", "network": "Verkehrsverbund Berlin-Brandenburg", "network:short": "VBB", "official_name": "Zeuthen S-Bahn", "operator": "DB Netz AG", "public_transport": "station", "railway": "station", "railway:ref": "BZTH", "railway:station_category": "5", "station": "light_rail", "uic_ref": "8081580", "wheelchair": "yes", "wikidata": "Q8069824", "wikipedia": "de:Bahnhof Zeuthen"}}, {"type": "node", "id": 3515302610, "lat": 52.4674002, "lon": 13.4898621, "tags": {"alt_name": "Berlin-Baumschulenweg S-Bahn", "contact:phone": "+49 30 297 43333", "contact:website": "http://www.s-bahn-berlin.de/fahrplanundnetz/bahnhof/baumschulenweg/174", "departures_board": "realtime", "departures_board:speech_output": "yes", "internet_access": "wlan", "light_rail": "yes", "name": "Baumschulenweg", "network": "Verkehrsverbund Berlin-Brandenburg", "network:short": "VBB", "official_name": "Berlin-Baumschulenweg S-Bahn", "operator": "DB Station&Service AG", "public_transport": "station", "railway": "station", "railway:ref": "BBMW", "railway:station_category": "4", "station": "light_rail", "uic_ref": "8089004", "wheelchair": "yes", "wikidata": "Q324336", "wikipedia": "de:Bahnhof Berlin-Baumschulenweg"}}, {"type": "node", "id": 3515302614, "lat": 52.4695134, "lon": 13.4437571, "tags": {"contact:phone": "+49 30 297 43333", "contact:website": "http://www.s-bahn-berlin.de/fahrplanundnetz/bahnhof/neukoelln/172", "light_rail": "yes", "name": "Neuk\u00f6lln", "network": "Verkehrsverbund Berlin-Brandenburg", "network:short": "VBB", "network:wikidata": "Q315451", "official_name": "Berlin-Neuk\u00f6lln S-Bahn", "operator": "DB Station&Service AG", "public_transport": "station", "railway": "station", "railway:ref": "BNK", "railway:station_category": "4", "station": "light_rail", "train": "yes", "uic_name": "Berlin-Neuk\u00f6lln", "uic_ref": "8089077", "wheelchair": "yes", "wikidata": "Q569905", "wikipedia": "de:Bahnhof Berlin-Neuk\u00f6lln"}}, {"type": "node", "id": 3540720029, "lat": 52.4548738, "lon": 13.5092508, "tags": {"alt_name": "Berlin-Sch\u00f6neweide Pbf", "departures_board": "realtime", "departures_board:speech_output": "no", "name": "Berlin-Sch\u00f6neweide", "network": "Verkehrsverbund Berlin-Brandenburg", "network:short": "VBB", "operator": "DB Netz AG", "public_transport": "station", "railway": "station", "railway:ref": "BSWP", "railway:station_category": "3", "ref:station": "559", "train": "yes", "uic_ref": "8010041", "wheelchair": "yes", "wikidata": "Q540899", "wikipedia": "de:Bahnhof Berlin-Sch\u00f6neweide"}}, {"type": "node", "id": 3541526943, "lat": 52.3909067, "lon": 13.5130469, "tags": {"contact:phone": "+49 30 297 43333", "contact:website": "http://www.s-bahn-berlin.de/fahrplanundnetz/bahnhof/flughafen-bln-schoenefeld/54", "light_rail": "yes", "name": "Sch\u00f6nefeld (bei Berlin)", "network": "Verkehrsverbund Berlin-Brandenburg", "network:short": "VBB", "official_name": "Sch\u00f6nefeld (bei Berlin)", "old_name": "Flughafen BER - Terminal 5", "operator": "DB Station&Service AG", "public_transport": "station", "railway": "station", "railway:ref": "BFLH", "railway:station_category": "3", "station": "light_rail", "uic_name": "Berlin-Sch\u00f6nefeld Flughafen", "uic_ref": "8010109", "wheelchair": "limited", "wikidata": "Q661069", "wikipedia": "de:Bahnhof Berlin-Sch\u00f6nefeld Flughafen"}}, {"type": "node", "id": 3658970189, "lat": 52.5063685, "lon": 13.4501205, "tags": {"light_rail": "yes", "name": "Warschauer Stra\u00dfe", "network": "Verkehrsverbund Berlin-Brandenburg", "network:short": "VBB", "official_name": "Berlin Warschauer Stra\u00dfe", "operator": "DB Netz AG;DB Station&Service AG", "public_transport": "station", "railway": "station", "railway:ref": "BWRS", "railway:ref:parent": "BOSB", "railway:station_category": "4", "station": "light_rail", "toilets:wheelchair": "no", "uic_ref": "8089045", "wheelchair": "yes", "wikidata": "Q664036", "wikipedia": "de:Bahnhof Berlin Warschauer Stra\u00dfe"}}, {"type": "node", "id": 3659830181, "lat": 52.5402462, "lon": 13.4389887, "tags": {"contact:phone": "+49 30 297 43333", "contact:website": "http://www.s-bahn-berlin.de/fahrplanundnetz/bahnhof/greifswalder-strasse/63", "light_rail": "yes", "name": "Greifswalder Stra\u00dfe", "network": "Verkehrsverbund Berlin-Brandenburg", "network:short": "VBB", "network:wikidata": "Q315451", "official_name": "Berlin Greifswalder Stra\u00dfe S-Bahn", "operator": "DB Netz AG", "public_transport": "station", "railway": "station", "railway:ref": "BGSF", "railway:station_category": "4", "station": "light_rail", "surveillance": "indoor", "surveillance:type": "camera", "uic_name": "Berlin Greifswalder Str", "uic_ref": "8089011", "wheelchair": "yes", "wikidata": "Q439246", "wikipedia": "de:Bahnhof Berlin Greifswalder Stra\u00dfe"}}, {"type": "node", "id": 3772787174, "lat": 52.5498029, "lon": 13.3531176, "tags": {"fixme": "Bahn setzt anderen Wert f\u00fcr Tag wheelchair als Mapper", "name": "Seestra\u00dfe", "public_transport": "station", "railway": "station", "station": "subway", "subway": "yes", "surveillance": "indoor", "wheelchair": "no", "wikidata": "Q554391", "wikipedia": "de:U-Bahnhof Seestra\u00dfe"}}, {"type": "node", "id": 3772836700, "lat": 52.5463833, "lon": 13.3591672, "tags": {"atm": "yes", "atm:operator": "Sparkasse", "name": "Leopoldplatz", "network": "Verkehrsverbund Berlin-Brandenburg", "network:short": "VBB", "network:wikidata": "Q315451", "operator": "Berliner Verkehrsbetriebe", "operator:short": "BVG", "operator:wikidata": "Q99633", "public_transport": "station", "railway": "station", "station": "subway", "subway": "yes", "surveillance": "indoor", "toilets:wheelchair": "no", "train": "yes", "wheelchair": "yes", "wikidata": "Q1960809", "wikipedia": "de:U-Bahnhof Leopoldplatz"}}, {"type": "node", "id": 3778075167, "lat": 52.4676341, "lon": 13.4312408, "tags": {"contact:phone": "+49 30 297 43333", "contact:website": "http://www.s-bahn-berlin.de/fahrplanundnetz/bahnhof/hermannstrasse/173", "light_rail": "yes", "name": "Hermannstra\u00dfe", "network": "Verkehrsverbund Berlin-Brandenburg", "network:short": "VBB", "official_name": "Berlin Hermannstra\u00dfe", "operator": "DB Netz AG;DB Station&Service AG", "public_transport": "station", "railway": "station", "railway:ref": "BHER", "railway:ref:parent": "BNK", "railway:station_category": "4", "ref:station": "2716", "station": "light_rail", "uic_ref": "8089105", "wheelchair": "yes", "wikidata": "Q1421962", "wikipedia": "de:Bahnhof Berlin Hermannstra\u00dfe"}}, {"type": "node", "id": 3779421874, "lat": 52.477658, "lon": 13.3295474, "tags": {"contact:website": "http://www.s-bahn-berlin.de/fahrplanundnetz/bahnhof/bundesplatz/48", "light_rail": "yes", "name": "Bundesplatz", "network": "Verkehrsverbund Berlin-Brandenburg", "network:short": "VBB", "official_name": "Berlin Bundesplatz", "operator": "DB Netz AG;DB Station&Service AG", "public_transport": "station", "railway": "station", "railway:ref": "BBUP", "railway:station_category": "4", "ref:station": "970", "station": "light_rail", "uic_ref": "8089107", "wheelchair": "yes", "wikidata": "Q464094", "wikipedia": "de:Bahnhof Berlin Bundesplatz"}}, {"type": "node", "id": 3799307108, "lat": 52.5136227, "lon": 13.4754364, "tags": {"atm": "yes", "atm:operator": "Sparkasse", "name": "Frankfurter Allee", "public_transport": "station", "railway": "station", "station": "subway", "subway": "yes", "surveillance": "indoor", "wheelchair": "yes", "wikidata": "Q552872", "wikipedia": "de:Bahnhof Berlin Frankfurter Allee"}}, {"type": "node", "id": 3808290434, "lat": 52.5050484, "lon": 13.3045162, "tags": {"contact:website": "http://www.s-bahn-berlin.de/fahrplanundnetz/bahnhof/charlottenburg/49", "light_rail": "yes", "name": "Charlottenburg", "name:ja": "\u30b7\u30e3\u30eb\u30ed\u30c3\u30c6\u30f3\u30d6\u30eb\u30af", "network": "Verkehrsverbund Berlin-Brandenburg", "network:short": "VBB", "network:wikidata": "Q315451", "official_name": "Berlin-Charlottenburg S-Bahn", "operator": "DB Netz AG", "public_transport": "station", "railway": "station", "railway:ref": "BCHS", "railway:station_category": "3", "ref": "BCHS", "station": "light_rail", "train": "yes", "uic_ref": "8010403", "wheelchair": "yes", "wikidata": "Q702596", "wikipedia": "de:Bahnhof Berlin-Charlottenburg"}}, {"type": "node", "id": 3820796396, "lat": 52.5312724, "lon": 13.3821605, "tags": {"description": "U Naturkundemuseum", "level": "-1", "name": "Naturkundemuseum", "note": "name before 2009 December: U Zinnowitzer Stra\u00dfe", "platforms": "2", "public_transport": "station", "railway": "station", "station": "subway", "subway": "yes", "surveillance": "indoor", "wheelchair": "yes", "wikidata": "Q554399", "wikipedia": "de:U-Bahnhof Naturkundemuseum"}}, {"type": "node", "id": 3842232853, "lat": 52.3985451, "lon": 13.3894102, "tags": {"contact:website": "http://www.s-bahn-berlin.de/fahrplanundnetz/bahnhof/schichauweg/132", "light_rail": "yes", "name": "Schichauweg", "network": "Verkehrsverbund Berlin-Brandenburg", "network:short": "VBB", "network:wikidata": "Q315451", "official_name": "Berlin Schichauweg", "operator": "DB Netz AG", "public_transport": "station", "railway": "station", "railway:ref": "BSC", "railway:station_category": "5", "station": "light_rail", "train": "yes", "uic_ref": "8089038", "wheelchair": "yes", "wikidata": "Q3672596", "wikipedia": "de:Bahnhof Berlin Schichauweg"}}, {"type": "node", "id": 3844356478, "lat": 52.5422898, "lon": 13.392876, "tags": {"departures_board": "realtime", "departures_board:speech_output": "no", "description": "U Voltastra\u00dfe", "name": "Voltastra\u00dfe", "name:ja": "\u30d5\u30a9\u30eb\u30bf\u901a\u308a", "public_transport": "station", "railway": "station", "station": "subway", "subway": "yes", "wheelchair": "yes", "wikidata": "Q663308", "wikipedia": "de:U-Bahnhof Voltastra\u00dfe"}}, {"type": "node", "id": 3844467019, "lat": 52.5036623, "lon": 13.4107479, "tags": {"check_date:wheelchair": "2022-07-22", "name": "Moritzplatz", "network": "Verkehrsverbund Berlin-Brandenburg", "network:short": "VBB", "network:wikidata": "Q315451", "operator": "Berliner Verkehrsbetriebe", "operator:short": "BVG", "operator:wikidata": "Q99633", "public_transport": "station", "railway": "station", "station": "subway", "subway": "yes", "toilets:wheelchair": "no", "train": "yes", "uic_name": "Moritzplatz (U), Berlin", "uic_ref": "730889", "wheelchair": "no", "wikidata": "Q374225", "wikipedia": "de:U-Bahnhof Moritzplatz"}}, {"type": "node", "id": 3844501316, "lat": 52.4930552, "lon": 13.4220572, "tags": {"atm": "yes", "atm:operator": "Bankhaus Lenz", "name": "Sch\u00f6nleinstra\u00dfe", "public_transport": "station", "railway": "station", "station": "subway", "subway": "yes", "wheelchair": "no", "wikidata": "Q666868", "wikipedia": "de:U-Bahnhof Sch\u00f6nleinstra\u00dfe"}}, {"type": "node", "id": 3846358177, "lat": 52.4298633, "lon": 13.3280815, "tags": {"contact:phone": "+49 30 297 43333", "contact:website": "http://www.s-bahn-berlin.de/fahrplanundnetz/bahnhof/lichterfelde-ost/99", "level": "1", "light_rail": "yes", "name": "Lichterfelde Ost", "network": "Verkehrsverbund Berlin-Brandenburg", "network:short": "VBB", "network:wikidata": "Q315451", "official_name": "Berlin-Lichterfelde Ost (S-Bahn)", "operator": "DB Netz AG", "public_transport": "station", "railway": "station", "railway:ref": "BLIO", "railway:station_category": "3", "station": "light_rail", "toilets:wheelchair": "no", "train": "yes", "uic_name": "Berlin-Lichterfelde Ost (S)", "uic_ref": "8089113", "wheelchair": "yes", "wikidata": "Q469743", "wikipedia": "de:Bahnhof Berlin-Lichterfelde Ost"}}, {"type": "node", "id": 3846415853, "lat": 52.4801685, "lon": 13.425281, "tags": {"departures_board": "realtime", "departures_board:speech_output": "no", "name": "Boddinstra\u00dfe", "public_transport": "station", "railway": "station", "station": "subway", "subway": "yes", "wheelchair": "yes", "wikidata": "Q819495", "wikipedia": "de:U-Bahnhof Boddinstra\u00dfe"}}, {"type": "node", "id": 3846471665, "lat": 52.4729787, "lon": 13.4283545, "tags": {"name": "Leinestra\u00dfe", "public_transport": "station", "railway": "station", "station": "subway", "subway": "yes", "wheelchair": "yes", "wikidata": "Q668563", "wikipedia": "de:U-Bahnhof Leinestra\u00dfe"}}, {"type": "node", "id": 3846589198, "lat": 52.5180981, "lon": 13.4315264, "tags": {"name": "Strausberger Platz", "public_transport": "station", "railway": "station", "station": "subway", "subway": "yes", "surveillance": "indoor", "wheelchair": "yes", "wheelchair:description": "Fahrstuhl", "wikidata": "Q570999", "wikipedia": "de:U-Bahnhof Strausberger Platz"}}, {"type": "node", "id": 3846748389, "lat": 52.4574096, "lon": 13.2897049, "tags": {"name": "Dahlem-Dorf", "public_transport": "station", "railway": "station", "station": "subway", "subway": "yes", "wheelchair": "yes", "wikidata": "Q668585", "wikimedia_commons": "File:Berlin U-Bf Dahlem-Dorf asv2023-06 img1.jpg", "wikipedia": "de:U-Bahnhof Dahlem-Dorf"}}, {"type": "node", "id": 3846755695, "lat": 52.5167465, "lon": 13.4447135, "tags": {"name": "Weberwiese", "public_transport": "station", "railway": "station", "station": "subway", "subway": "yes", "surveillance": "indoor", "wheelchair": "yes", "wikidata": "Q551768", "wikipedia": "de:U-Bahnhof Weberwiese"}}, {"type": "node", "id": 3851450060, "lat": 52.4628825, "lon": 13.4447716, "tags": {"name": "Grenzallee", "public_transport": "station", "railway": "station", "station": "subway", "subway": "yes", "wheelchair": "yes", "wikidata": "Q571836", "wikipedia": "de:U-Bahnhof Grenzallee"}}, {"type": "node", "id": 3854167532, "lat": 52.5566893, "lon": 13.3409843, "tags": {"name": "Rehberge", "public_transport": "station", "railway": "station", "station": "subway", "subway": "yes", "surveillance": "indoor", "wheelchair": "yes", "wikidata": "Q253850", "wikipedia": "de:U-Bahnhof Rehberge"}}, {"type": "node", "id": 3854590993, "lat": 52.5035788, "lon": 13.3814763, "tags": {"contact:phone": "+49 30 297 43333", "contact:website": "http://www.s-bahn-berlin.de/fahrplanundnetz/bahnhof/anhalter-bahnhof/15", "light_rail": "yes", "name": "S Anhalter Bahnhof", "network": "Verkehrsverbund Berlin-Brandenburg", "network:short": "VBB", "network:wikidata": "Q315451", "official_name": "Berlin Anhalter Bf", "operator": "DB Netz AG", "public_transport": "station", "railway": "station", "railway:ref": "BAHU", "railway:station_category": "3", "ref:station": "525", "station": "light_rail", "train": "yes", "uic_name": "Berlin Anhalter Bf", "uic_ref": "8089002", "wheelchair": "yes", "wikidata": "Q695244", "wikipedia": "de:Berlin Anhalter Bahnhof"}}, {"type": "node", "id": 3854590996, "lat": 52.5094035, "lon": 13.3766399, "tags": {"contact:phone": "+49 30 297 43333", "contact:website": "http://www.s-bahn-berlin.de/fahrplanundnetz/bahnhof/potsdamer-platz/124", "light_rail": "yes", "name": "Potsdamer Platz", "network": "Verkehrsverbund Berlin-Brandenburg", "network:short": "VBB", "network:wikidata": "Q315451", "official_name": "Berlin Potsdamer Platz (S-Bahn)", "operator": "DB Netz AG", "public_transport": "station", "railway": "station", "railway:ref": "BPOP", "railway:station_category": "2", "station": "light_rail", "train": "yes", "uic_name": "Berlin Potsdamer Platz (S)", "uic_ref": "8089032", "wheelchair": "limited", "wikidata": "Q672579", "wikipedia": "de:Bahnhof Berlin Potsdamer Platz"}}, {"type": "node", "id": 3854590997, "lat": 52.4977596, "lon": 13.3906496, "tags": {"alt_name": "U Hallesches Tor", "name": "Hallesches Tor", "public_transport": "station", "railway": "station", "station": "subway", "subway": "yes", "wheelchair": "yes", "wikidata": "Q658302", "wikipedia": "de:U-Bahnhof Hallesches Tor"}}, {"type": "node", "id": 3854591000, "lat": 52.5091586, "lon": 13.3782147, "tags": {"heritage": "4", "heritage:operator": "lda", "lda:criteria": "Baudenkmal", "name": "U Potsdamer Platz", "public_transport": "station", "railway": "station", "ref:lda": "09095936", "station": "subway", "subway": "yes", "wheelchair": "yes", "wikidata": "Q3909578", "wikimedia_commons": "Category:U-Bahnhof Potsdamer Platz (Berlin)"}}, {"type": "node", "id": 3856100103, "lat": 52.5249451, "lon": 13.3696614, "tags": {"departures_board": "realtime", "departures_board:speech_output": "no", "description": "Hauptbahnhof der Bundesdeutschen Hauptstadt Berlin", "description:ar": "\u0645\u062d\u0637\u0629 \u0628\u0631\u0644\u064a\u0646 \u0627\u0644\u0645\u0631\u0643\u0632\u064a\u0647", "description:de": "Hauptbahnhof der Bundesdeutschen Hauptstadt Berlin", "description:en": "Hauptbahnhof der Bundesdeutschen Hauptstadt Berlin", "description:es": "Estaci\u00f3n principal de la capital alemana, Berl\u00edn", "description:fr": "Gare principale de la capitale allemande Berlin", "description:ja": "\u30c9\u30a4\u30c4\u306e\u9996\u90fd\u30d9\u30eb\u30ea\u30f3\u306e\u4e3b\u8981\u99c5", "description:nl": "Hoofdstation van de Duitse hoofdstad Berlijn", "description:ru": "\u0413\u043b\u0430\u0432\u043d\u044b\u0439 \u0432\u043e\u043a\u0437\u0430\u043b \u0441\u0442\u043e\u043b\u0438\u0446\u044b \u0413\u0435\u0440\u043c\u0430\u043d\u0438\u0438 \u0411\u0435\u0440\u043b\u0438\u043d\u0430", "iata": "QPP", "layer": "5", "name": "Berlin Hauptbahnhof", "name:be": "\u0411\u0435\u0440\u043b\u0456\u043d-\u0426\u044d\u043d\u0442\u0440\u0430\u043b\u044c\u043d\u044b", "name:de": "Berlin Hauptbahnhof", "name:el": "\u039a\u03b5\u03bd\u03c4\u03c1\u03b9\u03ba\u03cc\u03c2 \u03c3\u03c4\u03b1\u03b8\u03bc\u03cc\u03c2 \u0392\u03b5\u03c1\u03bf\u03bb\u03af\u03bd\u03bf\u03c5", "name:en": "Berlin Central Station", "name:es": "Estaci\u00f3n central de Berl\u00edn", "name:fr": "Gare centrale de Berlin", "name:hu": "Berlini f\u0151p\u00e1lyaudvar", "name:it": "Stazione centrale di Berlino", "name:ja": "\u30d9\u30eb\u30ea\u30f3\u4e2d\u592e\u99c5", "name:nl": "Berlijn Centraal Station", "network": "DBUS", "official_name": "Berlin Hauptbahnhof-Lehrter Bf (Stadtb)", "old_name": "Lehrter Bahnhof", "operator": "DB InfraGO AG", "public_transport": "station", "railway": "station", "railway:ref": "BLS", "railway:station_category": "1", "short_name": "Berlin Hbf", "toilets:wheelchair": "yes", "train": "yes", "uic_name": "Berlin Hauptbahnhof", "uic_ref": "8011160", "url": "https://www.bahnhof.de/berlin-hauptbahnhof", "wheelchair": "yes", "wikidata": "Q1097", "wikipedia": "de:Berlin Hauptbahnhof"}}, {"type": "node", "id": 3856100108, "lat": 52.5252819, "lon": 13.3701242, "tags": {"layer": "-3", "name": "Hauptbahnhof", "operator": "Berliner Verkehrsbetriebe", "operator:short": "BVG", "public_transport": "station", "railway": "station", "start_date": "2009-08-09", "station": "subway", "subway": "yes", "surveillance": "public", "tactile_paving": "yes", "wheelchair": "yes"}}, {"type": "node", "id": 3856551765, "lat": 52.4377918, "lon": 13.4481868, "tags": {"name": "Britz-S\u00fcd", "public_transport": "station", "railway": "station", "station": "subway", "subway": "yes", "wheelchair": "yes", "wikidata": "Q571845", "wikipedia": "de:U-Bahnhof Britz-S\u00fcd"}}, {"type": "node", "id": 3856551767, "lat": 52.4293213, "lon": 13.4533376, "tags": {"check_date:wheelchair": "2022-07-29", "name": "Johannisthaler Chaussee", "public_transport": "station", "railway": "station", "station": "subway", "subway": "yes", "wheelchair": "yes", "wikidata": "Q638553", "wikipedia": "de:U-Bahnhof Johannisthaler Chaussee"}}, {"type": "node", "id": 3856551769, "lat": 52.4246425, "lon": 13.4626984, "tags": {"name": "Lipschitzallee", "public_transport": "station", "railway": "station", "station": "subway", "subway": "yes", "wheelchair": "yes", "wikidata": "Q571467", "wikipedia": "de:U-Bahnhof Lipschitzallee"}}, {"type": "node", "id": 3856551771, "lat": 52.41617, "lon": 13.4953978, "tags": {"name": "Rudow", "public_transport": "station", "railway": "station", "station": "subway", "subway": "yes", "wheelchair": "yes", "wikidata": "Q660024", "wikipedia": "de:U-Bahnhof Rudow"}}, {"type": "node", "id": 3856551777, "lat": 52.4233803, "lon": 13.4839403, "tags": {"name": "Zwickauer Damm", "public_transport": "station", "railway": "station", "station": "subway", "subway": "yes", "wheelchair": "yes", "wikidata": "Q572096", "wikipedia": "de:U-Bahnhof Zwickauer Damm"}}, {"type": "node", "id": 3858390219, "lat": 52.3869393, "lon": 13.3964496, "tags": {"contact:phone": "+49 30 297 43333", "contact:website": "http://www.s-bahn-berlin.de/fahrplanundnetz/bahnhof/lichtenrade/98", "light_rail": "yes", "name": "Lichtenrade", "network": "Verkehrsverbund Berlin-Brandenburg", "network:short": "VBB", "network:wikidata": "Q315451", "official_name": "Berlin-Lichtenrade", "operator": "DB Netz AG", "public_transport": "station", "railway": "station", "railway:ref": "BLRD", "railway:station_category": "5", "station": "light_rail", "train": "yes", "uic_name": "Berlin-Lichtenrade", "uic_ref": "8089070", "wheelchair": "yes", "wikidata": "Q6543354", "wikipedia": "de:Bahnhof Berlin-Lichtenrade"}}, {"type": "node", "id": 3858579923, "lat": 52.5602382, "lon": 13.3346178, "tags": {"name": "Afrikanische Stra\u00dfe", "public_transport": "station", "railway": "station", "station": "subway", "subway": "yes", "surveillance": "indoor", "wheelchair": "yes", "wikidata": "Q559239", "wikipedia": "de:U-Bahnhof Afrikanische Stra\u00dfe"}}, {"type": "node", "id": 3858818979, "lat": 52.5632274, "lon": 13.327129, "tags": {"name": "Kurt-Schumacher-Platz", "public_transport": "station", "railway": "station", "station": "subway", "subway": "yes", "surveillance": "indoor", "wheelchair": "yes", "wikidata": "Q555916", "wikipedia": "de:U-Bahnhof Kurt-Schumacher-Platz"}}, {"type": "node", "id": 3858932763, "lat": 52.5668172, "lon": 13.3126219, "tags": {"check_date:wheelchair": "2022-11-05", "name": "Scharnweberstra\u00dfe", "public_transport": "station", "railway": "station", "station": "subway", "subway": "yes", "surveillance": "outdoor", "wheelchair": "yes", "wikidata": "Q557586", "wikipedia": "de:U-Bahnhof Scharnweberstra\u00dfe"}}, {"type": "node", "id": 3859009452, "lat": 52.5710338, "lon": 13.3029254, "tags": {"heritage": "4", "heritage:operator": "lda", "name": "Otisstra\u00dfe", "old_name:1958-05-31--1961": "Seidelstra\u00dfe (Flugplatz Tegel)", "old_name:1961--1974-11": "Seidelstra\u00dfe (Flughafen Tegel)", "old_name:1974-11--2003-01-06": "Seidelstra\u00dfe", "public_transport": "station", "railway": "station", "ref:lda": "09012223", "start_date": "1958-05-31", "station": "subway", "subway": "yes", "surveillance": "outdoor", "wheelchair": "yes", "wikidata": "Q557582"}}, {"type": "node", "id": 3859032226, "lat": 52.575692, "lon": 13.2961132, "tags": {"check_date:wheelchair": "2022-05-09", "name": "Holzhauser Stra\u00dfe", "public_transport": "station", "railway": "station", "station": "subway", "subway": "yes", "wheelchair": "no", "wikidata": "Q557566", "wikipedia": "de:U-Bahnhof Holzhauser Stra\u00dfe"}}, {"type": "node", "id": 3862380796, "lat": 52.5818407, "lon": 13.2905918, "tags": {"name": "Borsigwerke", "public_transport": "station", "railway": "station", "station": "subway", "subway": "yes", "surveillance": "indoor", "wheelchair": "no", "wikidata": "Q525185", "wikipedia": "de:U-Bahnhof Borsigwerke"}}, {"type": "node", "id": 3862767512, "lat": 52.5166047, "lon": 13.3809897, "tags": {"level": "-3", "name": "Brandenburger Tor", "public_transport": "station", "railway": "station", "start_date": "2009-08-09", "station": "subway", "subway": "yes", "wheelchair": "yes", "wikidata": "Q477185", "wikipedia": "de:Bahnhof Berlin Brandenburger Tor"}}, {"type": "node", "id": 3865616067, "lat": 52.4685956, "lon": 13.4418203, "tags": {"atm": "yes", "atm:operator": "Sparkasse", "layer": "-2", "level": "-2", "location": "indoor", "name": "Neuk\u00f6lln", "public_transport": "station", "railway": "station", "station": "subway", "subway": "yes", "wheelchair": "yes", "wikidata": "Q21272767", "wikipedia": "de:Bahnhof Berlin-Neuk\u00f6lln"}}, {"type": "node", "id": 3866864060, "lat": 52.5121351, "lon": 13.5901922, "tags": {"contact:phone": "+49 30 297 43333", "contact:website": "http://www.s-bahn-berlin.de/fahrplanundnetz/bahnhof/kaulsdorf/89", "departures_board": "timetable", "internet_access": "no", "light_rail": "yes", "name": "Kaulsdorf", "network": "Verkehrsverbund Berlin-Brandenburg", "network:short": "VBB", "network:wikidata": "Q315451", "official_name": "Berlin-Kaulsdorf S-Bahn", "operator": "DB Netz AG", "public_transport": "station", "railway": "station", "railway:ref": "BKAD", "railway:station_category": "4", "station": "light_rail", "train": "yes", "uic_ref": "8089068", "wheelchair": "yes", "wikidata": "Q800478", "wikipedia": "de:Bahnhof Berlin-Kaulsdorf"}}, {"type": "node", "id": 3867910440, "lat": 52.5254666, "lon": 13.4050194, "tags": {"name": "Weinmeisterstra\u00dfe", "postal_code": "10119", "public_transport": "station", "railway": "station", "station": "subway", "subway": "yes", "wheelchair": "no", "wikidata": "Q661876", "wikipedia": "de:U-Bahnhof Weinmeisterstra\u00dfe"}}, {"type": "node", "id": 3869306763, "lat": 52.5204967, "lon": 13.3868236, "tags": {"contact:website": "http://www.s-bahn-berlin.de/fahrplanundnetz/bahnhof/friedrichstrasse/59", "level": "3", "light_rail": "yes", "name": "S Friedrichstra\u00dfe", "network": "Verkehrsverbund Berlin-Brandenburg", "network:short": "VBB", "network:wikidata": "Q315451", "official_name": "Berlin Friedrichstra\u00dfe (Stadtb) S-Bahn", "operator": "DB Netz AG", "public_transport": "station", "railway": "station", "railway:ref": "BFST", "railway:station_category": "2", "station": "light_rail", "train": "yes", "uic_ref": "8011306", "wheelchair": "yes", "wikidata": "Q702402", "wikipedia": "de:Bahnhof Berlin Friedrichstra\u00dfe"}}, {"type": "node", "id": 3869306768, "lat": 52.5202635, "lon": 13.3882862, "tags": {"layer": "-2", "level": "-2", "name": "U Friedrichstra\u00dfe", "public_transport": "station", "railway": "station", "station": "subway", "subway": "yes", "wheelchair": "yes", "wikidata": "Q3753274", "wikipedia": "de:Bahnhof Berlin Friedrichstra\u00dfe"}}, {"type": "node", "id": 3870475231, "lat": 52.5117915, "lon": 13.3850915, "tags": {"name": "Mohrenstra\u00dfe", "public_transport": "station", "railway": "station", "station": "subway", "subway": "yes", "wheelchair": "yes", "wikidata": "Q658391", "wikipedia": "de:U-Bahnhof Mohrenstra\u00dfe"}}, {"type": "node", "id": 3870914569, "lat": 52.505014, "lon": 13.4490065, "tags": {"internet_access": "wlan", "internet_access:fee": "no", "name": "Warschauer Stra\u00dfe", "name:en": "Warschauer Stra\u00dfe Station", "public_transport": "station", "railway": "station", "station": "subway", "subway": "yes", "wheelchair": "limited", "wikidata": "Q664036", "wikipedia": "de:Bahnhof Berlin Warschauer Stra\u00dfe"}}, {"type": "node", "id": 3872477458, "lat": 52.4434481, "lon": 13.2413921, "tags": {"internet_access": "wlan", "internet_access:fee": "no", "name": "Krumme Lanke", "operator": "Berliner Verkehrsbetriebe", "operator:short": "BVG", "public_transport": "station", "railway": "station", "start_date": "1929-12-22", "station": "subway", "subway": "yes", "website": "https://fahrinfo.bvg.de/barrierefrei/bin/stboard.bin/dn?ld=0.1&L=vs_bf&seqnr=3&ident=kf.054771.1341593343&time=22:50&input=9715305&start=1&view=STATIONINFO&", "wheelchair": "yes", "wikidata": "Q663945", "wikipedia": "de:U-Bahnhof Krumme Lanke"}}, {"type": "node", "id": 3872632789, "lat": 52.529482, "lon": 13.4547803, "tags": {"contact:website": "http://www.s-bahn-berlin.de/fahrplanundnetz/bahnhof/landsberger-allee/93", "internet_access": "no", "light_rail": "yes", "name": "Landsberger Allee", "network": "Verkehrsverbund Berlin-Brandenburg", "network:short": "VBB", "network:wikidata": "Q315451", "official_name": "Berlin Landsberger Allee", "operator": "DB InfraGO AG", "public_transport": "station", "railway": "station", "railway:ref": "BLST", "railway:ref:parent": "BGSS", "railway:station_category": "4", "ref:station": "3511", "station": "light_rail", "surveillance": "indoor", "surveillance:type": "camera", "train": "yes", "uic_ref": "8089020", "wheelchair": "yes", "wikidata": "Q800507", "wikipedia": "de:Bahnhof Berlin Landsberger Allee"}}, {"type": "node", "id": 3874806029, "lat": 52.4707164, "lon": 13.3415003, "tags": {"contact:website": "http://www.s-bahn-berlin.de/fahrplanundnetz/bahnhof/friedenau/12", "light_rail": "yes", "name": "Friedenau", "network": "Verkehrsverbund Berlin-Brandenburg", "network:short": "VBB", "official_name": "Berlin-Friedenau", "operator": "DB Netz AG", "public_transport": "station", "railway": "station", "railway:ref": "BFRU", "railway:ref:parent": "BSGR", "railway:station_category": "4", "station": "light_rail", "uic_ref": "8089058", "wheelchair": "yes", "wikidata": "Q800471", "wikipedia": "de:Bahnhof Berlin-Friedenau"}}, {"type": "node", "id": 3875882001, "lat": 52.4992628, "lon": 13.4280355, "tags": {"name": "G\u00f6rlitzer Bahnhof", "name:ja": "\u30b2\u30eb\u30ea\u30c3\u30c4\u30a1\u30fc\u99c5", "network": "Verkehrsverbund Berlin-Brandenburg", "network:short": "VBB", "network:wikidata": "Q315451", "operator": "Berliner Verkehrsbetriebe", "operator:short": "BVG", "operator:wikidata": "Q99633", "phone": "+49 30 19 44 9", "public_transport": "station", "railway": "station", "station": "subway", "subway": "yes", "surveillance": "indoor", "train": "yes", "website": "https://www.bvg.de/index.php/de/3729/name/U-Bahnlinie+U1/area/89395.html", "wheelchair": "no", "wikidata": "Q597759", "wikipedia": "de:U-Bahnhof G\u00f6rlitzer Bahnhof"}}, {"type": "node", "id": 3876077784, "lat": 52.5172347, "lon": 13.4124323, "tags": {"name": "Klosterstra\u00dfe", "public_transport": "station", "railway": "station", "station": "subway", "subway": "yes", "wheelchair": "yes", "wikidata": "Q657893", "wikipedia": "de:U-Bahnhof Klosterstra\u00dfe"}}, {"type": "node", "id": 3876218098, "lat": 52.52079, "lon": 13.4211125, "tags": {"name": "Schillingstra\u00dfe", "public_transport": "station", "railway": "station", "station": "subway", "subway": "yes", "surveillance": "indoor", "wheelchair": "yes", "wikidata": "Q552899", "wikipedia": "de:U-Bahnhof Schillingstra\u00dfe"}}, {"type": "node", "id": 3876349058, "lat": 52.515818, "lon": 13.4539745, "tags": {"name": "Frankfurter Tor", "public_transport": "station", "railway": "station", "station": "subway", "subway": "yes", "surveillance": "indoor", "wheelchair": "yes", "wikidata": "Q568627", "wikipedia": "de:U-Bahnhof Frankfurter Tor"}}, {"type": "node", "id": 3876481637, "lat": 52.5008341, "lon": 13.4414625, "tags": {"internet_access": "wlan", "name": "Schlesisches Tor", "public_transport": "station", "railway": "station", "station": "subway", "subway": "yes", "wheelchair": "yes", "wikidata": "Q602282", "wikipedia": "de:U-Bahnhof Schlesisches Tor"}}, {"type": "node", "id": 3876909305, "lat": 52.5362768, "lon": 13.3444152, "tags": {"check_date:wheelchair": "2022-07-11", "contact:phone": "+49 30 297 43333", "contact:website": "http://www.s-bahn-berlin.de/fahrplanundnetz/bahnhof/westhafen/158", "light_rail": "yes", "name": "Westhafen", "network": "Verkehrsverbund Berlin-Brandenburg", "network:short": "VBB", "network:wikidata": "Q315451", "note": "Die S-Bahn-Station hat keine Weichen und ist daher ein Haltepunkt.", "official_name": "Berlin Westhafen (S-Bahn)", "operator": "DB Netz AG", "public_transport": "station", "railway": "station", "railway:ref": "BWH", "railway:station_category": "4", "station": "light_rail", "train": "yes", "uic_name": "Berlin Westhafen", "uic_ref": "8089116", "wheelchair": "no", "wikidata": "Q465972", "wikimedia_commons": "Category:Bahnhof Berlin Westhafen", "wikipedia": "de:Bahnhof Berlin Westhafen"}}, {"type": "node", "id": 3876909306, "lat": 52.536735, "lon": 13.3425741, "tags": {"name": "Westhafen", "public_transport": "station", "railway": "station", "station": "subway", "subway": "yes", "wheelchair": "yes", "wikidata": "Q465972", "wikipedia": "de:Bahnhof Berlin Westhafen"}}, {"type": "node", "id": 3881590700, "lat": 52.4983972, "lon": 13.40591, "tags": {"name": "Prinzenstra\u00dfe", "public_transport": "station", "railway": "station", "station": "subway", "subway": "yes", "wheelchair": "limited", "wheelchair:description": "Aufzug nur in Richtung Warschauer Stra\u00dfe", "wikidata": "Q689797", "wikipedia": "de:U-Bahnhof Prinzenstra\u00dfe"}}, {"type": "node", "id": 3884823930, "lat": 52.4396754, "lon": 13.3875138, "tags": {"name": "Alt-Mariendorf", "public_transport": "station", "railway": "station", "station": "subway", "subway": "yes", "wheelchair": "no", "wikidata": "Q262168", "wikipedia": "de:U-Bahnhof Alt-Mariendorf"}}, {"type": "node", "id": 3887567777, "lat": 52.4860843, "lon": 13.3859508, "tags": {"description:old_name": "Historischer Bahnhofsname 1926-1937", "name": "Platz der Luftbr\u00fccke", "old_name": "Kreuzberg", "operator": "Berliner Verkehrbetriebe", "public_transport": "station", "railway": "station", "source:old_name": "Schriftzug innerhalb der Fliesen der Tunnelwand des Bahnhof;abgedeckt durch Plexiglass o.\u00e4.;Abdeckung tr\u00e4gt die in description hinterlegten Angaben", "station": "subway", "subway": "yes", "wheelchair": "no", "wikidata": "Q553146", "wikipedia": "de:U-Bahnhof Platz der Luftbr\u00fccke"}}, {"type": "node", "id": 3894910680, "lat": 52.5742433, "lon": 13.348511, "tags": {"name": "Paracelsus-Bad", "public_transport": "station", "railway": "station", "station": "subway", "subway": "yes", "wheelchair": "yes", "wikidata": "Q557562", "wikipedia": "de:U-Bahnhof Paracelsus-Bad"}}, {"type": "node", "id": 3895051317, "lat": 52.5711895, "lon": 13.3604739, "tags": {"atm": "yes", "atm:operator": "Bankhaus Lenz", "name": "Residenzstra\u00dfe", "public_transport": "station", "railway": "station", "station": "subway", "subway": "yes", "wheelchair": "no", "wikidata": "Q557513", "wikipedia": "de:U-Bahnhof Residenzstra\u00dfe"}}, {"type": "node", "id": 3895235324, "lat": 52.5645392, "lon": 13.3639236, "tags": {"name": "Franz-Neumann-Platz", "public_transport": "station", "railway": "station", "station": "subway", "subway": "yes", "wheelchair": "no", "wikidata": "Q555992", "wikipedia": "de:U-Bahnhof Franz-Neumann-Platz"}}, {"type": "node", "id": 3896342607, "lat": 52.5651525, "lon": 13.3923627, "tags": {"contact:phone": "+49 30 297 43333", "contact:website": "http://www.s-bahn-berlin.de/fahrplanundnetz/bahnhof/wollankstrasse/165", "departures_board": "realtime", "departures_board:speech_output": "no", "description": "S Wollankstra\u00dfe", "light_rail": "yes", "name": "Wollankstra\u00dfe", "network": "Verkehrsverbund Berlin-Brandenburg", "network:short": "VBB", "official_name": "Berlin Wollankstra\u00dfe", "old_name": "Pankow Nordbahn", "operator": "DB Netz AG", "public_transport": "station", "railway": "station", "railway:ref": "BWOK", "railway:station_category": "4", "station": "light_rail", "toilets:wheelchair": "no", "uic_ref": "8089048", "wheelchair": "yes", "wheelchair:description": "11.05.2018: Aufzug defekt, kein Reparaturtermin", "wikidata": "Q800515", "wikipedia": "de:Bahnhof Berlin Wollankstra\u00dfe"}}, {"type": "node", "id": 3896661775, "lat": 52.5593248, "lon": 13.413278, "tags": {"name": "Vinetastra\u00dfe", "network": "Verkehrsverbund Berlin-Brandenburg", "network:short": "VBB", "network:wikidata": "Q315451", "operator": "Berliner Verkehrsbetriebe", "operator:short": "BVG", "operator:wikidata": "Q99633", "public_transport": "station", "railway": "station", "station": "subway", "subway": "yes", "train": "yes", "wheelchair": "yes", "wikidata": "Q570906", "wikipedia": "de:U-Bahnhof Vinetastra\u00dfe"}}, {"type": "node", "id": 3898068655, "lat": 52.4599764, "lon": 13.3846346, "tags": {"name": "Kaiserin-Augusta-Stra\u00dfe", "public_transport": "station", "railway": "station", "station": "subway", "subway": "yes", "wheelchair": "yes", "wikidata": "Q559226", "wikipedia": "de:U-Bahnhof Kaiserin-Augusta-Stra\u00dfe"}}, {"type": "node", "id": 3898404805, "lat": 52.4462674, "lon": 13.3856905, "tags": {"name": "Westphalweg", "platforms": "2", "public_transport": "station", "railway": "station", "station": "subway", "subway": "yes", "wheelchair": "no", "wikidata": "Q554481", "wikipedia": "de:U-Bahnhof Westphalweg"}}, {"type": "node", "id": 3900136339, "lat": 52.4989853, "lon": 13.4183107, "tags": {"layer": "-2", "name": "Kottbusser Tor", "name:ja": "\u30b3\u30c3\u30c8\u30d6\u30c3\u30b5\u30fc\u30c8\u30fc\u30a2", "platforms": "2", "public_transport": "station", "railway": "station", "station": "subway", "subway": "yes", "surveillance": "indoor", "toilets:wheelchair": "no", "wheelchair": "yes", "wikidata": "Q819768", "wikipedia": "de:U-Bahnhof Kottbusser Tor"}}, {"type": "node", "id": 3900580952, "lat": 52.5109137, "lon": 13.2963306, "tags": {"name": "Sophie-Charlotte-Platz", "public_transport": "station", "railway": "station", "station": "subway", "subway": "yes", "toilets:wheelchair": "no", "wheelchair": "yes", "wikidata": "Q657879", "wikipedia": "de:U-Bahnhof Sophie-Charlotte-Platz"}}, {"type": "node", "id": 3901824902, "lat": 52.4995972, "lon": 13.3537297, "tags": {"name": "Nollendorfplatz", "public_transport": "station", "railway": "station", "station": "subway", "subway": "yes", "surveillance": "outdoor", "toilets:wheelchair": "no", "wheelchair": "yes", "wikidata": "Q571039", "wikipedia": "de:U-Bahnhof Nollendorfplatz"}}, {"type": "node", "id": 3904674211, "lat": 52.5112959, "lon": 13.4041155, "tags": {"name": "Spittelmarkt", "public_transport": "station", "railway": "station", "station": "subway", "subway": "yes", "wheelchair": "yes", "wikidata": "Q569489", "wikipedia": "de:U-Bahnhof Spittelmarkt"}}, {"type": "node", "id": 3906622702, "lat": 52.4999599, "lon": 13.3619411, "tags": {"name": "Kurf\u00fcrstenstra\u00dfe", "public_transport": "station", "railway": "station", "station": "subway", "subway": "yes", "wheelchair": "no", "wikidata": "Q690203", "wikipedia": "de:U-Bahnhof Kurf\u00fcrstenstra\u00dfe"}}, {"type": "node", "id": 3906729688, "lat": 52.5351574, "lon": 13.377318, "tags": {"departures_board": "realtime", "departures_board:speech_output": "no", "name": "Schwartzkopffstra\u00dfe", "public_transport": "station", "railway": "station", "station": "subway", "subway": "yes", "surveillance": "indoor", "wheelchair": "yes", "wheelchair:description": "Fahrstuhl", "wikidata": "Q554360", "wikipedia": "de:U-Bahnhof Schwartzkopffstra\u00dfe"}}, {"type": "node", "id": 3908141014, "lat": 52.5215661, "lon": 13.4112804, "tags": {"contact:website": "http://www.s-bahn-berlin.de/fahrplanundnetz/bahnhof/alexanderplatz/26", "internet_access": "wlan", "light_rail": "yes", "name": "Alexanderplatz", "name:ja": "\u30a2\u30ec\u30af\u30b5\u30f3\u30c0\u30fc\u5e83\u5834", "network": "Verkehrsverbund Berlin-Brandenburg", "network:short": "VBB", "official_name": "Berlin Alexanderplatz S-Bahn", "operator": "DB Netz AG", "public_transport": "station", "railway": "station", "railway:ref": "BALX", "railway:station_category": "3", "station": "light_rail", "toilets:wheelchair": "yes", "uic_ref": "8089001", "wheelchair": "yes", "wikidata": "Q698497", "wikipedia": "de:Bahnhof Berlin Alexanderplatz"}}, {"type": "node", "id": 3916325095, "lat": 52.5323899, "lon": 13.4126861, "tags": {"name": "Senefelderplatz", "network": "Verkehrsverbund Berlin-Brandenburg", "network:short": "VBB", "network:wikidata": "Q315451", "operator": "Berliner Verkehrsbetriebe", "operator:short": "BVG", "operator:wikidata": "Q99633", "public_transport": "station", "railway": "station", "station": "subway", "subway": "yes", "train": "yes", "wheelchair": "no", "wikidata": "Q32661454", "wikipedia": "de:U-Bahnhof Senefelderplatz"}}, {"type": "node", "id": 3918542874, "lat": 52.4945315, "lon": 13.3090745, "tags": {"name": "Konstanzer Stra\u00dfe", "public_transport": "station", "railway": "station", "station": "subway", "subway": "yes", "surveillance": "indoor", "wheelchair": "no", "wikidata": "Q571019", "wikipedia": "de:U-Bahnhof Konstanzer Stra\u00dfe"}}, {"type": "node", "id": 3918711741, "lat": 52.4762696, "lon": 13.4393375, "tags": {"name": "Karl-Marx-Stra\u00dfe", "public_transport": "station", "railway": "station", "station": "subway", "subway": "yes", "wheelchair": "yes", "wikidata": "Q519494", "wikipedia": "de:U-Bahnhof Karl-Marx-Stra\u00dfe"}}, {"type": "node", "id": 3928759793, "lat": 52.5255998, "lon": 13.3873583, "tags": {"name": "Oranienburger Tor", "public_transport": "station", "railway": "station", "station": "subway", "subway": "yes", "wheelchair": "yes", "wikidata": "Q571485", "wikipedia": "de:U-Bahnhof Oranienburger Tor"}}, {"type": "node", "id": 3931919580, "lat": 52.5000028, "lon": 13.3073226, "tags": {"name": "Adenauerplatz", "public_transport": "station", "railway": "station", "station": "subway", "subway": "yes", "surveillance": "indoor", "wheelchair": "yes", "wikidata": "Q570939", "wikipedia": "de:U-Bahnhof Adenauerplatz"}}, {"type": "node", "id": 3933477396, "lat": 52.5338331, "lon": 13.5964015, "tags": {"name": "Cottbusser Platz", "public_transport": "station", "railway": "station", "station": "subway", "subway": "yes", "surveillance": "indoor", "toilets:wheelchair": "no", "wheelchair": "yes", "wikidata": "Q557547", "wikipedia": "de:U-Bahnhof Cottbusser Platz"}}, {"type": "node", "id": 3933477399, "lat": 52.5211535, "lon": 13.5889176, "tags": {"name": "Kaulsdorf-Nord", "old_name": "Albert-Norden-Stra\u00dfe", "public_transport": "station", "railway": "station", "station": "subway", "subway": "yes", "surveillance": "indoor", "wheelchair": "yes", "wikidata": "Q553140", "wikipedia": "de:U-Bahnhof Kaulsdorf-Nord"}}, {"type": "node", "id": 3933477401, "lat": 52.5124541, "lon": 13.4870792, "tags": {"internet_access:ssid": "BVG Wi-Fi", "name": "Magdalenenstra\u00dfe", "public_transport": "station", "railway": "station", "station": "subway", "subway": "yes", "surveillance": "indoor", "wheelchair": "yes", "wikidata": "Q473901", "wikipedia": "de:U-Bahnhof Magdalenenstra\u00dfe"}}, {"type": "node", "id": 3933477404, "lat": 52.5286152, "lon": 13.5906369, "tags": {"name": "Kienberg (G\u00e4rten der Welt)", "old_name": "U Neue Grottkauer Stra\u00dfe", "public_transport": "station", "railway": "station", "station": "subway", "subway": "yes", "surveillance": "indoor", "wheelchair": "yes", "wikidata": "Q556003", "wikipedia": "de:U-Bahnhof Neue Grottkauer Stra\u00dfe"}}, {"type": "node", "id": 3933566460, "lat": 52.5514056, "lon": 13.3671696, "tags": {"line": "U9", "name": "Nauener Platz", "public_transport": "station", "railway": "station", "station": "subway", "subway": "yes", "wheelchair": "yes", "wikidata": "Q555986", "wikipedia": "de:U-Bahnhof Nauener Platz"}}, {"type": "node", "id": 3933855820, "lat": 52.503724, "lon": 13.3748605, "tags": {"name": "Mendelssohn-Bartholdy-Park", "public_transport": "station", "railway": "station", "station": "subway", "subway": "yes", "wheelchair": "yes", "wikidata": "Q658405", "wikipedia": "de:U-Bahnhof Mendelssohn-Bartholdy-Park"}}, {"type": "node", "id": 3933855823, "lat": 52.4986927, "lon": 13.383123, "tags": {"loc_name": "U M\u00f6ckernbr\u00fccke", "name": "M\u00f6ckernbr\u00fccke", "public_transport": "station", "railway": "station", "station": "subway", "subway": "yes", "wheelchair": "no", "wikidata": "Q704716", "wikipedia": "de:U-Bahnhof M\u00f6ckernbr\u00fccke"}}, {"type": "node", "id": 3933855829, "lat": 52.5522617, "lon": 13.3814583, "tags": {"internet_access": "yes", "name": "Pankstra\u00dfe", "public_transport": "station", "railway": "station", "station": "subway", "subway": "yes", "wheelchair": "no", "wikidata": "Q571380", "wikipedia": "de:U-Bahnhof Pankstra\u00dfe"}}, {"type": "node", "id": 3935369912, "lat": 52.5147399, "lon": 13.4644405, "tags": {"name": "Samariterstra\u00dfe", "public_transport": "station", "railway": "station", "station": "subway", "subway": "yes", "surveillance": "indoor", "toilets:wheelchair": "no", "wheelchair": "yes", "wikidata": "Q552891", "wikipedia": "de:U-Bahnhof Samariterstra\u00dfe"}}, {"type": "node", "id": 3935470812, "lat": 52.5384335, "lon": 13.633123, "tags": {"name": "H\u00f6now", "public_transport": "station", "railway": "station", "station": "subway", "subway": "yes", "surveillance": "indoor", "wheelchair": "yes", "wikidata": "Q550317", "wikipedia": "de:U-Bahnhof H\u00f6now"}}, {"type": "node", "id": 3936632576, "lat": 52.5714452, "lon": 13.5653023, "tags": {"name": "Ahrensfelde", "network": "Verkehrsverbund Berlin-Brandenburg", "operator": "DB Netz AG;DB Station&Service AG", "public_transport": "station", "railway": "station", "railway:ref": "BAHR", "railway:station_category": "4", "ref:station": "28", "train": "yes", "uic_ref": "8011003", "wheelchair": "yes", "wikidata": "Q800363", "wikipedia": "de:Bahnhof Ahrensfelde"}}, {"type": "node", "id": 3936632939, "lat": 52.5713397, "lon": 13.5656581, "tags": {"contact:phone": "+49 30 297 43333", "contact:website": "http://www.s-bahn-berlin.de/fahrplanundnetz/bahnhof/ahrensfelde/25", "light_rail": "yes", "name": "Ahrensfelde", "network": "Verkehrsverbund Berlin-Brandenburg", "network:short": "VBB", "official_name": "Ahrensfelde S-Bahn", "operator": "DB Station&Service AG", "public_transport": "station", "railway": "station", "railway:ref": "BAF", "railway:station_category": "4", "ref:station": "28", "station": "light_rail", "uic_ref": "8011003", "wheelchair": "yes", "wikidata": "Q800363", "wikipedia": "de:Bahnhof Ahrensfelde"}}, {"type": "node", "id": 3946122064, "lat": 52.4975858, "lon": 13.3632209, "tags": {"name": "B\u00fclowstra\u00dfe", "note": "http://www.bvg.de/de/Fahrinfo/Verkehrsmeldungen/Verkehrsmeldung-Detail?id=6898", "public_transport": "station", "railway": "station", "station": "subway", "subway": "yes", "surveillance": "outdoor", "wheelchair": "yes", "wikidata": "Q374881", "wikipedia": "de:U-Bahnhof B\u00fclowstra\u00dfe"}}, {"type": "node", "id": 3947836158, "lat": 52.5133502, "lon": 13.395591, "tags": {"name": "Hausvogteiplatz", "public_transport": "station", "railway": "station", "station": "subway", "subway": "yes", "wheelchair": "no", "wikidata": "Q656523", "wikipedia": "de:U-Bahnhof Hausvogteiplatz"}}, {"type": "node", "id": 3948690912, "lat": 52.4655217, "lon": 13.3856299, "tags": {"name": "Alt-Tempelhof", "public_transport": "station", "railway": "station", "station": "subway", "subway": "yes", "wheelchair": "no", "wikidata": "Q559212", "wikipedia": "de:U-Bahnhof Alt-Tempelhof"}}, {"type": "node", "id": 3948690916, "lat": 52.4537449, "lon": 13.3844659, "tags": {"departures_board": "realtime", "name": "Ullsteinstra\u00dfe", "platforms": "2", "public_transport": "station", "railway": "station", "station": "subway", "subway": "yes", "wheelchair": "yes", "wikidata": "Q637870", "wikipedia": "de:U-Bahnhof Ullsteinstra\u00dfe"}}, {"type": "node", "id": 3949521962, "lat": 52.4941308, "lon": 13.3886168, "tags": {"internet_access": "wlan", "name": "Mehringdamm", "platforms": "2", "public_transport": "station", "railway": "station", "station": "subway", "subway": "yes", "wheelchair": "yes", "wikidata": "Q657905", "wikipedia": "de:U-Bahnhof Mehringdamm"}}, {"type": "node", "id": 3949521963, "lat": 52.4780189, "lon": 13.3862561, "tags": {"name": "Paradestra\u00dfe", "public_transport": "station", "railway": "station", "station": "subway", "subway": "yes", "wheelchair": "yes", "wikidata": "Q557543", "wikipedia": "de:U-Bahnhof Paradestra\u00dfe"}}, {"type": "node", "id": 3950105985, "lat": 52.5111151, "lon": 13.4986022, "tags": {"internet_access": "yes", "internet_access:ssid": "BVG Wi-Fi", "level": "-2", "name": "Lichtenberg", "public_transport": "station", "railway": "station", "station": "subway", "subway": "yes", "surveillance": "indoor", "wheelchair": "yes"}}, {"type": "node", "id": 3955368088, "lat": 52.4498912, "lon": 13.2530752, "tags": {"departures_board": "realtime", "departures_board:speech_output": "no", "internet_access": "wlan", "internet_access:fee": "no", "name": "Onkel Toms H\u00fctte", "public_transport": "station", "railway": "station", "station": "subway", "subway": "yes", "wheelchair": "yes", "wikidata": "Q389214", "wikipedia": "de:U-Bahnhof Onkel Toms H\u00fctte"}}, {"type": "node", "id": 3955368093, "lat": 52.4503608, "lon": 13.2690711, "tags": {"departures_board": "realtime", "departures_board:speech_output": "no", "name": "Oskar-Helene-Heim", "public_transport": "station", "railway": "station", "station": "subway", "subway": "yes", "toilets:wheelchair": "no", "wheelchair": "yes", "wikidata": "Q681336", "wikipedia": "de:U-Bahnhof Oskar-Helene-Heim"}}, {"type": "node", "id": 3955368095, "lat": 52.4510388, "lon": 13.281744, "tags": {"check_date:wheelchair": "2022-11-06", "name": "Freie Universit\u00e4t (Thielplatz)", "old_name": "U Thielplatz", "public_transport": "station", "railway": "station", "station": "subway", "subway": "yes", "wheelchair": "yes", "wikidata": "Q571331", "wikipedia": "de:U-Bahnhof Thielplatz"}}, {"type": "node", "id": 3957757603, "lat": 52.5028118, "lon": 13.3266968, "tags": {"name": "Uhlandstra\u00dfe", "public_transport": "station", "railway": "station", "start_date": "1913-10-12", "station": "subway", "subway": "yes", "wheelchair": "no", "wikidata": "Q568224", "wikipedia": "de:U-Bahnhof Uhlandstra\u00dfe (Berlin)"}}, {"type": "node", "id": 3957757604, "lat": 52.5017976, "lon": 13.3430005, "tags": {"atm": "yes", "name": "Wittenbergplatz", "public_transport": "station", "railway": "station", "station": "subway", "subway": "yes", "wheelchair": "limited", "wikidata": "Q692727", "wikipedia": "de:U-Bahnhof Wittenbergplatz"}}, {"type": "node", "id": 3957897529, "lat": 52.518008, "lon": 13.3420365, "tags": {"line": "U9", "name": "Hansaplatz", "public_transport": "station", "railway": "station", "station": "subway", "subway": "yes", "toilets:wheelchair": "no", "wheelchair": "yes", "wikidata": "Q287552", "wikipedia": "de:U-Bahnhof Hansaplatz"}}, {"type": "node", "id": 3959201657, "lat": 52.5323818, "lon": 13.3413533, "tags": {"line": "U9", "name": "Birkenstra\u00dfe", "public_transport": "station", "railway": "station", "station": "subway", "subway": "yes", "toilets:wheelchair": "no", "wheelchair": "yes", "wikidata": "Q555998", "wikipedia": "de:U-Bahnhof Birkenstra\u00dfe"}}, {"type": "node", "id": 3959389239, "lat": 52.4520801, "lon": 13.4492022, "tags": {"name": "Blaschkoallee", "public_transport": "station", "railway": "station", "station": "subway", "subway": "yes", "wheelchair": "yes", "wikidata": "Q666911", "wikipedia": "de:U-Bahnhof Blaschkoallee"}}, {"type": "node", "id": 3959653399, "lat": 52.4864895, "lon": 13.3205449, "tags": {"name": "Blissestra\u00dfe", "public_transport": "station", "railway": "station", "station": "subway", "subway": "yes", "wheelchair": "no", "wikidata": "Q571397", "wikipedia": "de:U-Bahnhof Blissestra\u00dfe"}}, {"type": "node", "id": 3959895235, "lat": 52.4670266, "lon": 13.3088711, "tags": {"name": "Breitenbachplatz", "public_transport": "station", "railway": "station", "station": "subway", "subway": "yes", "wheelchair": "yes", "wikidata": "Q571339", "wikipedia": "de:U-Bahnhof Breitenbachplatz"}}, {"type": "node", "id": 3961281931, "lat": 52.4310735, "lon": 13.2585888, "tags": {"contact:website": "http://www.s-bahn-berlin.de/fahrplanundnetz/bahnhof/zehlendorf/6", "layer": "1", "level": "1", "light_rail": "yes", "name": "Zehlendorf", "network": "Verkehrsverbund Berlin-Brandenburg", "network:short": "VBB", "official_name": "Berlin-Zehlendorf", "operator": "DB Station&Service AG", "public_transport": "station", "railway": "station", "railway:ref": "BZD", "railway:station_category": "4", "station": "light_rail", "uic_ref": "8089098", "wheelchair": "yes", "wikidata": "Q737962", "wikipedia": "de:Bahnhof Berlin-Zehlendorf"}}, {"type": "node", "id": 3983548303, "lat": 52.5571597, "lon": 13.3732715, "tags": {"name": "Osloer Stra\u00dfe", "public_transport": "station", "railway": "station", "station": "subway", "subway": "yes", "wheelchair": "yes", "wikidata": "Q662217", "wikipedia": "de:U-Bahnhof Osloer Stra\u00dfe"}}, {"type": "node", "id": 3995738144, "lat": 52.5102343, "lon": 13.4978129, "tags": {"contact:website": "http://www.s-bahn-berlin.de/fahrplanundnetz/bahnhof/lichtenberg/97", "departures_board": "realtime", "departures_board:speech_output": "no", "internet_access": "wlan", "light_rail": "yes", "name": "Lichtenberg", "network": "Verkehrsverbund Berlin-Brandenburg", "network:short": "VBB", "official_name": "Berlin-Lichtenberg S-Bahn", "operator": "DB InfraGO AG", "public_transport": "station", "railway": "station", "railway:ref": "BLI", "railway:station_category": "2", "ref:station": "549", "station": "light_rail", "uic_ref": "8010036", "wheelchair": "yes", "wikidata": "Q634247", "wikipedia": "de:Bahnhof Berlin-Lichtenberg"}}, {"type": "node", "id": 4011129259, "lat": 52.4099669, "lon": 13.3085527, "tags": {"contact:phone": "+49 30 297 43333", "contact:website": "http://www.s-bahn-berlin.de/fahrplanundnetz/bahnhof/lichterfelde-sued/21", "light_rail": "yes", "name": "Lichterfelde S\u00fcd", "network": "Verkehrsverbund Berlin-Brandenburg", "network:short": "VBB", "official_name": "Berlin-Lichterfelde S\u00fcd", "operator": "DB Netz AG", "public_transport": "station", "railway": "station", "railway:ref": "BLIS", "railway:station_category": "5", "station": "light_rail", "uic_ref": "8089472", "wheelchair": "yes", "wikidata": "Q800482", "wikipedia": "de:Bahnhof Berlin-Lichterfelde S\u00fcd"}}, {"type": "node", "id": 4011336129, "lat": 52.448279, "lon": 13.3537492, "tags": {"contact:phone": "+49 30 297 43333", "contact:website": "http://www.s-bahn-berlin.de/fahrplanundnetz/bahnhof/suedende/148", "light_rail": "yes", "name": "S\u00fcdende", "network": "Verkehrsverbund Berlin-Brandenburg", "network:short": "VBB", "official_name": "Berlin S\u00fcdende", "operator": "DB Netz AG", "public_transport": "station", "railway": "station", "railway:ref": "BSDE", "railway:ref:parent": "BPRS", "railway:station_category": "5", "station": "light_rail", "toilets:wheelchair": "no", "uic_ref": "8089115", "wheelchair": "yes", "wikidata": "Q800511", "wikipedia": "de:Bahnhof Berlin-S\u00fcdende"}}, {"type": "node", "id": 4012502919, "lat": 52.4516372, "lon": 13.6899776, "tags": {"contact:website": "http://www.s-bahn-berlin.de/fahrplanundnetz/bahnhof/rahnsdorf/127", "light_rail": "yes", "name": "Rahnsdorf", "network": "Verkehrsverbund Berlin-Brandenburg", "network:short": "VBB", "official_name": "Berlin-Rahnsdorf", "operator": "DB Netz AG", "public_transport": "station", "railway": "station", "railway:ref": "BRD", "railway:station_category": "5", "station": "light_rail", "uic_ref": "8089082", "wheelchair": "yes", "wikidata": "Q800489", "wikipedia": "de:Bahnhof Berlin-Rahnsdorf"}}, {"type": "node", "id": 4012713682, "lat": 52.4599231, "lon": 13.356253, "tags": {"contact:website": "http://www.s-bahn-berlin.de/fahrplanundnetz/bahnhof/priesterweg/126", "light_rail": "yes", "name": "Priesterweg", "network": "Verkehrsverbund Berlin-Brandenburg", "network:short": "VBB", "official_name": "Berlin Priesterweg", "operator": "DB Netz AG", "public_transport": "station", "railway": "station", "railway:ref": "BPRS", "railway:station_category": "4", "station": "light_rail", "uic_ref": "8089034", "wheelchair": "yes", "wikidata": "Q800508", "wikipedia": "de:Bahnhof Berlin Priesterweg"}}, {"type": "node", "id": 4019995099, "lat": 52.3920647, "lon": 13.5150529}, {"type": "node", "id": 4027945653, "lat": 52.6358345, "lon": 13.4916378, "tags": {"contact:phone": "+49 30 297 43333", "contact:website": "http://www.s-bahn-berlin.de/fahrplanundnetz/bahnhof/buch/46", "light_rail": "yes", "name": "Buch", "network": "Verkehrsverbund Berlin-Brandenburg", "network:short": "VBB", "official_name": "Berlin-Buch", "operator": "DB Netz AG", "public_transport": "station", "railway": "station", "railway:ref": "BBU", "railway:station_category": "4", "station": "light_rail", "uic_ref": "8089057", "wheelchair": "yes", "wikidata": "Q4892359", "wikipedia": "de:Bahnhof Berlin-Buch"}}, {"type": "node", "id": 4059804083, "lat": 52.6647002, "lon": 13.3400405, "tags": {"check_date:wheelchair": "2022-10-02", "contact:phone": "+49 30 297 43333", "contact:website": "http://www.s-bahn-berlin.de/fahrplanundnetz/bahnhof/schoenfliess/134", "light_rail": "yes", "name": "Sch\u00f6nflie\u00df", "network": "Verkehrsverbund Berlin-Brandenburg", "network:short": "VBB", "official_name": "Sch\u00f6nflie\u00df S-Bahn", "operator": "DB Netz AG", "public_transport": "station", "railway": "station", "railway:ref": "BSNF", "railway:station_category": "6", "station": "light_rail", "uic_name": "Sch\u00f6nflie\u00df(b Oranienburg)", "uic_ref": "8081290", "wheelchair": "no", "wikidata": "Q801423", "wikipedia": "de:Bahnhof Sch\u00f6nflie\u00df"}}, {"type": "node", "id": 4071360788, "lat": 52.52704, "lon": 13.5365518, "tags": {"contact:phone": "+49 30 297 43333", "contact:website": "http://www.s-bahn-berlin.de/fahrplanundnetz/bahnhof/springpfuhl/141", "light_rail": "yes", "name": "Springpfuhl", "network": "Verkehrsverbund Berlin-Brandenburg", "network:short": "VBB", "official_name": "Berlin Springpfuhl", "operator": "DB Netz AG", "public_transport": "station", "railway": "station", "railway:ref": "BSPH", "railway:station_category": "4", "shelter": "yes", "station": "light_rail", "tactile_paving": "yes", "uic_ref": "8089040", "wheelchair": "yes", "wikidata": "Q320263", "wikipedia": "de:Bahnhof Berlin Springpfuhl"}}, {"type": "node", "id": 4208739688, "lat": 52.5347721, "lon": 13.1974528, "tags": {"check_date:wheelchair": "2022-10-09", "contact:website": "http://www.s-bahn-berlin.de/fahrplanundnetz/bahnhof/spandau/139", "light_rail": "yes", "name": "Spandau", "network": "Verkehrsverbund Berlin-Brandenburg", "network:short": "VBB", "official_name": "Berlin-Spandau S-Bahn", "old_name": "Spandau-West", "operator": "DB Station&Service AG", "public_transport": "station", "railway": "station", "railway:ref": "BSPA", "railway:station_category": "2", "ref": "S5", "station": "light_rail", "toilets:wheelchair": "yes", "uic_name": "Berlin-Spandau", "uic_ref": "8010404", "wheelchair": "yes", "wikidata": "Q654980", "wikipedia": "de:Bahnhof Berlin-Spandau"}}, {"type": "node", "id": 4213705914, "lat": 52.5201123, "lon": 13.3729545, "tags": {"layer": "-3", "level": "-2", "name": "Bundestag", "operator": "Berliner Verkehrsbetriebe", "operator:short": "BVG", "public_transport": "station", "railway": "station", "start_date": "2009-08-09", "station": "subway", "subway": "yes", "surveillance": "public", "tactile_paving": "yes", "toilets:wheelchair": "yes", "train": "no", "wheelchair": "yes", "wikidata": "Q694848", "wikipedia": "de:U-Bahnhof Bundestag"}}, {"type": "node", "id": 4440948591, "lat": 52.5261489, "lon": 13.3412971, "tags": {"check_date:wheelchair": "2022-08-15", "line": "U9", "name": "Turmstra\u00dfe", "public_transport": "station", "railway": "station", "station": "subway", "subway": "yes", "wheelchair": "yes", "wikidata": "Q571400", "wikipedia": "de:U-Bahnhof Turmstra\u00dfe"}}, {"type": "node", "id": 4512633105, "lat": 52.5367748, "lon": 13.2727638, "tags": {"alt_name": "U-Bhf Siemensdamm", "name": "Siemensdamm", "public_transport": "station", "railway": "station", "station": "subway", "subway": "yes", "surveillance": "indoor", "wheelchair": "yes", "wikidata": "Q663264", "wikipedia": "de:U-Bahnhof Siemensdamm"}}, {"type": "node", "id": 4598319045, "lat": 52.4977241, "lon": 13.5229595, "tags": {"internet_access": "wlan", "name": "Tierpark", "public_transport": "station", "railway": "station", "station": "subway", "subway": "yes", "surveillance": "indoor", "surveillance:type": "camera", "wheelchair": "yes", "wikidata": "Q570954", "wikipedia": "de:U-Bahnhof Tierpark"}}, {"type": "node", "id": 4598414751, "lat": 52.5215849, "lon": 13.4139082, "tags": {"check_date:wheelchair": "2022-09-26", "layer": "-5", "level": "-5", "name": "Alexanderplatz", "name:ja": "\u30a2\u30ec\u30af\u30b5\u30f3\u30c0\u30fc\u5e83\u5834", "name:ko": "U \uc54c\ub809\uc0b0\ub354\uad11\uc7a5(\uc5ed)", "public_transport": "station", "railway": "station", "station": "subway", "subway": "yes", "surveillance": "indoor", "wheelchair": "yes"}}, {"type": "node", "id": 4644994619, "lat": 52.5307879, "lon": 13.3006301, "tags": {"name": "Jungfernheide", "name:ja": "\u30e6\u30f3\u30b0\u30d5\u30a7\u30eb\u30f3\u30cf\u30a4\u30c7", "public_transport": "station", "railway": "station", "station": "subway", "subway": "yes", "surveillance": "indoor", "wheelchair": "yes"}}, {"type": "node", "id": 4710404225, "lat": 52.5390354, "lon": 13.2055652, "tags": {"level": "-2"}}, {"type": "node", "id": 4710404226, "lat": 52.5390916, "lon": 13.2055964}, {"type": "node", "id": 4710404227, "lat": 52.5389877, "lon": 13.2055379}, {"type": "node", "id": 4710404232, "lat": 52.5385219, "lon": 13.2072342}, {"type": "node", "id": 4710404233, "lat": 52.5385819, "lon": 13.2073055}, {"type": "node", "id": 4744165580, "lat": 52.5028181, "lon": 13.4694146, "tags": {"departures_board": "realtime", "departures_board:speech_output": "no", "name": "Berlin Ostkreuz (Stadtbahn-F)", "note": "Bitte die 5 Nodes mit uic_ref in Bezug auf das Eisenbahn-Tagging so lassen und auch die Position nicht ver\u00e4ndern. Die beiden Stadtbahn-Nodes BOKS und BOKR werden gerendert.", "operator": "DB InfraGO AG", "public_transport": "station", "railway": "station", "railway:ref": "BOKR", "railway:ref:parent": "BHF", "railway:station_category": "3", "ref:station": "4809", "train": "yes", "uic_name": "Berlin Ostkreuz", "wheelchair": "yes", "wikidata": "Q660045", "wikimedia_commons": "Category:Bahnhof Berlin Ostkreuz", "wikipedia": "de:Bahnhof Berlin Ostkreuz"}}, {"type": "node", "id": 4746086763, "lat": 52.5028779, "lon": 13.4696738, "tags": {"name": "Berlin Ostkreuz (Ringbahn-F)", "network": "Verkehrsverbund Berlin-Brandenburg", "network:short": "VBB", "network:wikidata": "Q315451", "note": "Bitte die 5 Nodes mit uic_ref in Bezug auf das Eisenbahn-Tagging so lassen und auch die Position nicht ver\u00e4ndern. Die beiden Stadtbahn-Nodes BOKS und BOKR werden gerendert.", "official_name": "Berlin Ostkreuz (Ringbahn-F)", "operator": "DB InfraGO AG", "public_transport": "station", "railway": "station", "railway:ref": "BOKN", "railway:station_category": "3", "ref:station": "4809", "site": "Bf", "train": "yes", "uic_name": "Berlin Ostkreuz", "wheelchair": "yes", "wikidata": "Q660045", "wikipedia": "de:Bahnhof Berlin Ostkreuz"}}, {"type": "node", "id": 4788379933, "lat": 52.538977, "lon": 13.6183463, "tags": {"addr:city": "Berlin", "addr:postcode": "12627", "internet_access": "wlan", "name": "Louis-Lewin-Stra\u00dfe", "public_transport": "station", "railway": "station", "station": "subway", "subway": "yes", "surveillance": "indoor", "wheelchair": "limited", "wikidata": "Q557558", "wikipedia": "de:U-Bahnhof Louis-Lewin-Stra\u00dfe"}}, {"type": "node", "id": 4788379937, "lat": 52.5366883, "lon": 13.606672, "tags": {"name": "Hellersdorf", "public_transport": "station", "railway": "station", "station": "subway", "subway": "yes", "surveillance": "indoor", "wheelchair": "no", "wikidata": "Q571676", "wikipedia": "de:U-Bahnhof Hellersdorf"}}, {"type": "node", "id": 4936820460, "lat": 52.5211628, "lon": 13.4135873}, {"type": "node", "id": 4940731304, "lat": 52.5123348, "lon": 13.4101754, "tags": {"check_date:wheelchair": "2022-07-26", "name": "M\u00e4rkisches Museum", "public_transport": "station", "railway": "station", "station": "subway", "subway": "yes", "wheelchair": "yes", "wikidata": "Q657871", "wikipedia": "de:U-Bahnhof M\u00e4rkisches Museum"}}, {"type": "node", "id": 4946078136, "lat": 52.5010288, "lon": 13.2847452, "tags": {"contact:phone": "+49 30 297 43333", "contact:website": "http://www.s-bahn-berlin.de/fahrplanundnetz/bahnhof/westkreuz/159", "light_rail": "yes", "name": "Westkreuz (Stadtbahn)", "network": "Verkehrsverbund Berlin-Brandenburg", "network:short": "VBB", "network:wikidata": "Q315451", "note": "F\u00fcr den Personenverkehr benutzt die Bahn in der Regel das K\u00fcrzel BWKR und nicht BWKRR oder BWKR.", "operator": "DB Netz AG", "public_transport": "station", "railway": "station", "railway:ref": "BWKS", "railway:station_category": "3", "site": "Bf", "station": "light_rail", "train": "yes", "uic_name": "Berlin Westkreuz", "uic_ref": "8089047", "wheelchair": "yes", "wikidata": "Q678125", "wikipedia": "de:Bahnhof Berlin Westkreuz"}}, {"type": "node", "id": 4946078139, "lat": 52.5035668, "lon": 13.4697788, "tags": {"name": "Berlin Ostkreuz (Ostbahn)", "note": "Bitte die 5 Nodes mit uic_ref in Bezug auf das Eisenbahn-Tagging so lassen und auch die Position nicht ver\u00e4ndern. Die beiden Stadtbahn-Nodes BOKS und BOKR werden gerendert.", "operator": "DB InfraGO AG", "public_transport": "station", "railway": "station", "railway:ref": "BOKO", "railway:station_category": "3", "ref:station": "4809", "uic_name": "Berlin Ostkreuz", "uic_ref": "8011162", "wheelchair": "yes", "wikidata": "Q660045", "wikipedia": "de:Bahnhof Berlin Ostkreuz"}}, {"type": "node", "id": 4947095076, "lat": 52.521196, "lon": 13.4135043}, {"type": "node", "id": 4949971070, "lat": 52.5662755, "lon": 13.4103397, "tags": {"contact:phone": "+49 30 297 43333", "contact:website": "http://www.s-bahn-berlin.de/fahrplanundnetz/bahnhof/pankow/117", "light_rail": "yes", "name": "Pankow", "network": "Verkehrsverbund Berlin-Brandenburg", "network:short": "VBB", "official_name": "Berlin-Pankow S-Bahn", "operator": "DB Netz AG;DB Station&Service AG", "public_transport": "station", "railway": "station", "railway:ref": "BPKW", "railway:station_category": "5", "ref:station": "555", "station": "light_rail", "train": "yes", "uic_name": "Berlin-Pankow", "uic_ref": "8089080", "wheelchair": "yes", "wikidata": "Q653775", "wikipedia": "de:Bahnhof Berlin-Pankow"}}, {"type": "node", "id": 4959163245, "lat": 52.4479557, "lon": 13.3071282, "tags": {"contact:phone": "+49 30 297 43333", "contact:website": "http://www.s-bahn-berlin.de/fahrplanundnetz/bahnhof/botanischer-garten/9", "light_rail": "yes", "name": "Botanischer Garten", "network": "Verkehrsverbund Berlin-Brandenburg", "network:short": "VBB", "network:wikidata": "Q315451", "official_name": "Berlin Botanischer Garten", "operator": "DB Netz AG", "public_transport": "station", "railway": "station", "railway:ref": "BBGT", "railway:station_category": "4", "station": "light_rail", "toilets:wheelchair": "no", "train": "yes", "uic_ref": "8089009", "wheelchair": "no", "wikidata": "Q800498", "wikipedia": "de:Bahnhof Berlin Botanischer Garten"}}, {"type": "node", "id": 4975238627, "lat": 52.5388806, "lon": 13.2064179}, {"type": "node", "id": 4975238628, "lat": 52.5387704, "lon": 13.2063404}, {"type": "node", "id": 4989868817, "lat": 52.5351709, "lon": 13.1997742, "tags": {"departures_board": "realtime", "departures_board:speech_output": "no", "name": "Rathaus Spandau", "public_transport": "station", "railway": "station", "station": "subway", "subway": "yes", "wheelchair": "yes", "wikidata": "Q650704", "wikipedia": "en:Rathaus Spandau (Berlin U-Bahn)"}}, {"type": "node", "id": 5099979652, "lat": 52.4903665, "lon": 13.3602198, "tags": {"atm": "yes", "atm:operator": "Sparkasse", "name": "Kleistpark", "public_transport": "station", "railway": "station", "station": "subway", "subway": "yes", "wheelchair": "yes", "wikidata": "Q571161", "wikipedia": "de:U-Bahnhof Kleistpark"}}, {"type": "node", "id": 5116771809, "lat": 52.5060447, "lon": 13.3906125, "tags": {"name": "Kochstra\u00dfe/Checkpoint Charlie", "name:ru": "\u041a\u043e\u0445\u0448\u0442\u0440\u0430\u0441\u0441\u0435", "platforms": "2", "public_transport": "station", "railway": "station", "station": "subway", "subway": "yes", "wheelchair": "yes", "wikidata": "Q201849", "wikipedia": "de:U-Bahnhof Kochstra\u00dfe"}}, {"type": "node", "id": 5134482957, "lat": 52.4831773, "lon": 13.341972, "tags": {"name": "Rathaus Sch\u00f6neberg", "old_name": "Stadtpark", "operator": "Berliner Verkehrsbetriebe", "public_transport": "station", "railway": "station", "start_date": "1910-10-01", "station": "subway", "subway": "yes", "wheelchair": "yes", "wikidata": "Q570926", "wikipedia": "de:U-Bahnhof Rathaus Sch\u00f6neberg"}}, {"type": "node", "id": 5134716875, "lat": 52.4961755, "lon": 13.3431855, "tags": {"level": "-1", "name": "Viktoria-Luise-Platz", "platforms": "1", "public_transport": "station", "railway": "station", "station": "subway", "subway": "yes", "wheelchair": "yes", "wikidata": "Q178685", "wikipedia": "de:U-Bahnhof Viktoria-Luise-Platz"}}, {"type": "node", "id": 5149137347, "lat": 52.4732464, "lon": 13.314415, "tags": {"name": "R\u00fcdesheimer Platz", "public_transport": "station", "railway": "station", "station": "subway", "subway": "yes", "wheelchair": "yes", "wikidata": "Q167147", "wikipedia": "de:U-Bahnhof R\u00fcdesheimer Platz"}}, {"type": "node", "id": 5160531362, "lat": 52.4641033, "lon": 13.2957519, "tags": {"name": "Podbielskiallee", "public_transport": "station", "railway": "station", "station": "subway", "subway": "yes", "wheelchair": "yes", "wikidata": "Q571324", "wikipedia": "de:U-Bahnhof Podbielskiallee"}}, {"type": "node", "id": 5162689183, "lat": 52.5004423, "lon": 13.3364644, "tags": {"name": "Augsburger Stra\u00dfe", "public_transport": "station", "railway": "station", "station": "subway", "subway": "yes", "wheelchair": "no", "wikidata": "Q667035", "wikipedia": "de:U-Bahnhof Augsburger Stra\u00dfe"}}, {"type": "node", "id": 5162689184, "lat": 52.4797961, "lon": 13.3128835, "tags": {"name": "Heidelberger Platz", "public_transport": "station", "railway": "station", "station": "subway", "subway": "yes", "wheelchair": "yes", "wikidata": "Q302810", "wikipedia": "de:Bahnhof Berlin Heidelberger Platz"}}, {"type": "node", "id": 5162689220, "lat": 52.4940847, "lon": 13.3247547, "tags": {"name": "Hohenzollernplatz", "public_transport": "station", "railway": "station", "station": "subway", "subway": "yes", "wheelchair": "yes", "wikidata": "Q571570", "wikipedia": "de:U-Bahnhof Hohenzollernplatz"}}, {"type": "node", "id": 5162689571, "lat": 52.4964453, "lon": 13.3310091, "tags": {"atm": "yes", "atm:operator": "Sparkasse", "name": "Spichernstra\u00dfe", "public_transport": "station", "railway": "station", "station": "subway", "subway": "yes", "wheelchair": "yes", "wikidata": "Q667046", "wikipedia": "de:U-Bahnhof Spichernstra\u00dfe"}}, {"type": "node", "id": 5162689572, "lat": 52.4905442, "lon": 13.3151361, "tags": {"name": "Fehrbelliner Platz", "public_transport": "station", "railway": "station", "station": "subway", "subway": "yes", "surveillance": "indoor", "wheelchair": "yes", "wikidata": "Q663245", "wikipedia": "de:U-Bahnhof Fehrbelliner Platz"}}, {"type": "node", "id": 5171026793, "lat": 52.4862857, "lon": 13.4245531, "tags": {"atm": "yes", "atm:operator": "Sparkasse", "check_date:wheelchair": "2022-07-28", "name": "Hermannplatz", "public_transport": "station", "railway": "station", "station": "subway", "subway": "yes", "wheelchair": "yes", "wikidata": "Q658929", "wikipedia": "de:U-Bahnhof Hermannplatz"}}, {"type": "node", "id": 5171026794, "lat": 52.4816522, "lon": 13.4341793, "tags": {"check_date:wheelchair": "2022-07-29", "name": "Rathaus Neuk\u00f6lln", "public_transport": "station", "railway": "station", "station": "subway", "subway": "yes", "wheelchair": "yes", "wikidata": "Q628770", "wikipedia": "de:U-Bahnhof Rathaus Neuk\u00f6lln"}}, {"type": "node", "id": 5171026799, "lat": 52.4447743, "lon": 13.4495999, "tags": {"internet_access": "yes", "internet_access:fee": "no", "internet_access:ssid": "BVG Wi-Fi", "name": "Parchimer Allee", "public_transport": "station", "railway": "station", "station": "subway", "subway": "yes", "wheelchair": "yes", "wikidata": "Q571855", "wikipedia": "de:U-Bahnhof Parchimer Allee"}}, {"type": "node", "id": 5176114547, "lat": 52.5362794, "lon": 13.2933009, "tags": {"name": "Jakob-Kaiser-Platz", "public_transport": "station", "railway": "station", "station": "subway", "subway": "yes", "surveillance": "indoor", "wheelchair": "no", "wikidata": "Q638526", "wikipedia": "de:U-Bahnhof Jakob-Kaiser-Platz"}}, {"type": "node", "id": 5176114617, "lat": 52.5066749, "lon": 13.3066372, "tags": {"atm": "yes", "atm:operator": "Sparkasse", "check_date:wheelchair": "2022-11-06", "name": "Wilmersdorfer Stra\u00dfe", "name:ja": "\u30f4\u30a3\u30eb\u30de\u30fc\u30b9\u30c9\u30eb\u30d5\u30a1\u30fc\u901a\u308a", "public_transport": "station", "railway": "station", "station": "subway", "subway": "yes", "surveillance": "indoor", "wheelchair": "yes", "wikidata": "Q570961", "wikipedia": "de:U-Bahnhof Wilmersdorfer Stra\u00dfe"}}, {"type": "node", "id": 5183374155, "lat": 52.537652, "lon": 13.2175358, "tags": {"name": "Zitadelle", "public_transport": "station", "railway": "station", "station": "subway", "subway": "yes", "surveillance": "indoor", "wheelchair": "yes", "wikidata": "Q663212", "wikipedia": "de:U-Bahnhof Zitadelle"}}, {"type": "node", "id": 5183375788, "lat": 52.5379819, "lon": 13.2478176, "tags": {"name": "Paulsternstra\u00dfe", "public_transport": "station", "railway": "station", "station": "subway", "subway": "yes", "surveillance": "indoor", "wheelchair": "no", "wikidata": "Q570943", "wikipedia": "de:U-Bahnhof Paulsternstra\u00dfe"}}, {"type": "node", "id": 5183375797, "lat": 52.5366262, "lon": 13.2861036, "tags": {"alt_name": "U-Bhf Halemweg", "name": "Halemweg", "public_transport": "station", "railway": "station", "station": "subway", "subway": "yes", "surveillance": "indoor", "wheelchair": "no", "wikidata": "Q571025", "wikipedia": "de:U-Bahnhof Halemweg"}}, {"type": "node", "id": 5188090881, "lat": 52.5390458, "lon": 13.2055711, "tags": {"level": "-2"}}, {"type": "node", "id": 5188091215, "lat": 52.539025, "lon": 13.2055593, "tags": {"level": "-2"}}, {"type": "node", "id": 5188091283, "lat": 52.5387104, "lon": 13.2069238}, {"type": "node", "id": 5198810677, "lat": 52.5400429, "lon": 13.3702888, "tags": {"departures_board": "realtime", "departures_board:speech_output": "no", "internet_access": "wlan", "internet_access:fee": "no", "name": "Reinickendorfer Stra\u00dfe", "public_transport": "station", "railway": "station", "station": "subway", "subway": "yes", "surveillance": "indoor", "wheelchair": "yes", "wikidata": "Q559249", "wikipedia": "de:U-Bahnhof Reinickendorfer Stra\u00dfe"}}, {"type": "node", "id": 5202316503, "lat": 52.6525426, "lon": 13.42858, "tags": {"name": "Sch\u00f6nerlinde", "public_transport": "station", "railway": "station", "railway:ref": "BSL", "train": "yes", "wheelchair": "yes", "wikidata": "Q65480881"}}, {"type": "node", "id": 5219721336, "lat": 52.5494885, "lon": 13.4137114, "tags": {"internet_access": "wlan", "name": "Sch\u00f6nhauser Allee", "public_transport": "station", "railway": "station", "station": "subway", "subway": "yes", "train": "yes", "wheelchair": "yes"}}, {"type": "node", "id": 5219721338, "lat": 52.5786231, "lon": 13.3335031, "tags": {"name": "Karl-Bonhoeffer-Nervenklinik", "public_transport": "station", "railway": "station", "station": "subway", "subway": "yes", "wheelchair": "yes", "wikidata": "Q475553", "wikipedia": "de:Bahnhof Berlin Karl-Bonhoeffer-Nervenklinik"}}, {"type": "node", "id": 5219721339, "lat": 52.5956412, "lon": 13.3347115, "tags": {"name": "Wittenau", "public_transport": "station", "railway": "station", "station": "subway", "subway": "yes", "wheelchair": "yes", "wikidata": "Q175212", "wikipedia": "de:Bahnhof Berlin-Wittenau (Wilhelmsruher Damm)"}}, {"type": "node", "id": 5219756617, "lat": 52.5276951, "lon": 13.4104868, "tags": {"name": "Rosa-Luxemburg-Platz", "public_transport": "station", "railway": "station", "station": "subway", "subway": "yes", "wheelchair": "yes", "wikidata": "Q658790", "wikipedia": "de:U-Bahnhof Rosa-Luxemburg-Platz"}}, {"type": "node", "id": 5219756618, "lat": 52.5263437, "lon": 13.3047721, "tags": {"check_date:wheelchair": "2022-11-06", "name": "Mierendorffplatz", "name:ja": "\u30df\u30fc\u30ec\u30f3\u30c9\u30eb\u30d5\u30d7\u30e9\u30c3\u30c4", "public_transport": "station", "railway": "station", "station": "subway", "subway": "yes", "surveillance": "indoor", "toilets:wheelchair": "yes", "wheelchair": "no", "wikidata": "Q571393", "wikipedia": "de:U-Bahnhof Mierendorffplatz"}}, {"type": "node", "id": 5220107618, "lat": 52.56678, "lon": 13.4117203, "tags": {"check_date:wheelchair": "2022-11-10", "name": "Pankow", "public_transport": "station", "railway": "station", "station": "subway", "subway": "yes", "wheelchair": "yes"}}, {"type": "node", "id": 5220114129, "lat": 52.5387183, "lon": 13.2330942, "tags": {"check_date:wheelchair": "2022-11-05", "name": "Haselhorst", "network": "Verkehrsverbund Berlin-Brandenburg", "network:short": "VBB", "network:wikidata": "Q315451", "operator": "Berliner Verkehrsbetriebe", "operator:short": "BVG", "operator:wikidata": "Q99633", "public_transport": "station", "railway": "station", "ref_name": "U Haselhorst (Berlin)", "station": "subway", "subway": "yes", "surveillance": "indoor", "wheelchair": "yes", "wikidata": "Q570916", "wikipedia": "de:U-Bahnhof Haselhorst"}}, {"type": "node", "id": 5250030091, "lat": 52.5106178, "lon": 13.3898514, "tags": {"loc_name": "U Stadtmitte", "name": "Stadtmitte", "public_transport": "station", "railway": "station", "station": "subway", "subway": "yes", "wheelchair": "yes"}}, {"type": "node", "id": 5250030092, "lat": 52.4990257, "lon": 13.3917126, "tags": {"alt_name": "U Hallesches Tor", "name": "Hallesches Tor", "public_transport": "station", "railway": "station", "station": "subway", "subway": "yes", "wheelchair": "yes", "wikipedia": "de:U-Bahnhof Hallesches Tor"}}, {"type": "node", "id": 5250030093, "lat": 52.4991179, "lon": 13.3828981, "tags": {"loc_name": "U M\u00f6ckernbr\u00fccke", "name": "M\u00f6ckernbr\u00fccke", "public_transport": "station", "railway": "station", "station": "subway", "subway": "yes", "wheelchair": "no", "wikidata": "Q704716"}}, {"type": "node", "id": 5284961126, "lat": 52.5029812, "lon": 13.4691195, "tags": {"departures_board": "realtime", "departures_board:speech_output": "no", "light_rail": "yes", "name": "Ostkreuz (Ringbahn)", "network": "Verkehrsverbund Berlin-Brandenburg", "network:short": "VBB", "network:wikidata": "Q315451", "note": "Bitte die 5 Nodes mit uic_ref in Bezug auf das Eisenbahn-Tagging so lassen und auch die Position nicht ver\u00e4ndern. Die beiden Stadtbahn-Nodes BOKS und BOKR werden gerendert.", "official_name": "Berlin Ostkreuz (Ringbahn-S)", "operator": "DB InfraGO AG", "public_transport": "station", "railway": "station", "railway:ref": "BOK", "railway:station_category": "3", "ref:station": "4809", "site": "Bf", "station": "light_rail", "train": "yes", "uic_name": "Berlin Ostkreuz (S)", "uic_ref": "8089028", "wheelchair": "yes", "wikidata": "Q660045", "wikipedia": "de:Bahnhof Berlin Ostkreuz"}}, {"type": "node", "id": 5315601264, "lat": 52.5118952, "lon": 13.6107967, "tags": {"departures_board": "timetable", "name": "Berlin-Mahlsdorf", "operator": "DB Netz AG", "public_transport": "station", "railway": "station", "railway:ref": "BMHL", "train": "yes", "wheelchair": "yes", "wikidata": "Q800484", "wikipedia": "de:Bahnhof Berlin-Mahlsdorf"}}, {"type": "node", "id": 5320311289, "lat": 52.520768, "lon": 13.3866879, "tags": {"contact:website": "http://www.s-bahn-berlin.de/fahrplanundnetz/bahnhof/friedrichstrasse/59", "level": "-2", "light_rail": "yes", "name": "S Friedrichstra\u00dfe", "network": "Verkehrsverbund Berlin-Brandenburg", "network:short": "VBB", "network:wikidata": "Q315451", "operator": "DB Netz AG", "public_transport": "station", "railway": "station", "railway:ref": "BFSTT", "railway:station_category": "2", "station": "light_rail", "surveillance": "indoor", "train": "yes", "uic_ref": "8011306", "wheelchair": "yes", "wikidata": "Q702402", "wikipedia": "de:Bahnhof Berlin Friedrichstra\u00dfe"}}, {"type": "node", "id": 5324318370, "lat": 52.4776476, "lon": 13.3285001, "tags": {"line": "U9", "name": "Bundesplatz", "operator": "Berliner Verkehrsbetriebe", "operator:short": "BVG", "public_transport": "station", "railway": "station", "station": "subway", "subway": "yes", "wheelchair": "yes", "wikidata": "Q464094", "wikipedia": "de:Bahnhof Berlin Bundesplatz"}}, {"type": "node", "id": 5330823481, "lat": 52.5369951, "lon": 13.262306, "tags": {"name": "Rohrdamm", "public_transport": "station", "railway": "station", "station": "subway", "subway": "yes", "surveillance": "indoor", "wheelchair": "no", "wikidata": "Q570911", "wikimedia_commons": "Category:U-Bahnhof Rohrdamm (Berlin)", "wikipedia": "de:U-Bahnhof Rohrdamm"}}, {"type": "node", "id": 5679382211, "lat": 52.469568, "lon": 13.385629, "tags": {"departures_board": "realtime", "departures_board:speech_output": "no", "name": "Tempelhof", "public_transport": "station", "railway": "station", "station": "subway", "subway": "yes", "wheelchair": "yes", "wikidata": "Q571405", "wikipedia": "de:Bahnhof Berlin-Tempelhof"}}, {"type": "node", "id": 5713678268, "lat": 52.5168643, "lon": 13.2504479, "tags": {"check_date:wheelchair": "2022-11-06", "name": "Olympia-Stadion", "public_transport": "station", "railway": "station", "station": "subway", "subway": "yes", "wheelchair": "yes", "wikidata": "Q656441", "wikipedia": "de:U-Bahnhof Olympia-Stadion"}}, {"type": "node", "id": 5713678269, "lat": 52.5104484, "lon": 13.4160272, "tags": {"name": "Heinrich-Heine-Stra\u00dfe", "public_transport": "station", "railway": "station", "station": "subway", "subway": "yes", "wheelchair": "no", "wikidata": "Q663204", "wikipedia": "de:U-Bahnhof Heinrich-Heine-Stra\u00dfe"}}, {"type": "node", "id": 5713678270, "lat": 52.5415154, "lon": 13.4121769, "tags": {"name": "Eberswalder Stra\u00dfe", "name:ja": "\u30a8\u30d9\u30eb\u30b9\u30f4\u30a1\u30eb\u30c0\u30fc\u901a\u308a", "old_name": "U Dimitroffstra\u00dfe", "public_transport": "station", "railway": "station", "station": "subway", "subway": "yes", "wheelchair": "yes", "wikidata": "Q571382", "wikipedia": "de:U-Bahnhof Eberswalder Stra\u00dfe"}}, {"type": "node", "id": 5713944071, "lat": 52.5374381, "lon": 13.3966175, "tags": {"name": "Bernauer Stra\u00dfe", "public_transport": "station", "railway": "station", "station": "subway", "subway": "yes", "wheelchair": "yes", "wikidata": "Q689293", "wikipedia": "de:U-Bahnhof Bernauer Stra\u00dfe"}}, {"type": "node", "id": 5718454109, "lat": 52.5894565, "lon": 13.2837514, "tags": {"name": "Alt-Tegel", "network": "Verkehrsverbund Berlin-Brandenburg", "network:short": "VBB", "network:wikidata": "Q315451", "operator": "Berliner Verkehrsbetriebe", "operator:short": "BVG", "operator:wikidata": "Q99633", "public_transport": "station", "railway": "station", "station": "subway", "subway": "yes", "train": "yes", "wheelchair": "yes", "wikidata": "Q656090", "wikipedia": "de:U-Bahnhof Alt-Tegel"}}, {"type": "node", "id": 5726082246, "lat": 52.5388381, "lon": 13.2062573, "tags": {"check_date:wheelchair": "2022-11-05", "name": "Altstadt Spandau", "public_transport": "station", "railway": "station", "station": "subway", "subway": "yes", "surveillance": "indoor", "wheelchair": "no", "wikidata": "Q571402", "wikipedia": "de:U-Bahnhof Altstadt Spandau"}}, {"type": "node", "id": 6555763842, "lat": 52.4233264, "lon": 13.4745668, "tags": {"name": "Wutzkyallee", "public_transport": "station", "railway": "station", "station": "subway", "subway": "yes", "wheelchair": "yes", "wikidata": "Q571841", "wikipedia": "de:U-Bahnhof Wutzkyallee"}}, {"type": "node", "id": 7103322725, "lat": 52.476214, "lon": 13.3651375, "tags": {"contact:phone": "+49 30 297 43333", "contact:website": "http://www.s-bahn-berlin.de/fahrplanundnetz/bahnhof/suedkreuz/119", "departures_board": "realtime", "departures_board:speech_output": "no", "light_rail": "yes", "name": "S\u00fcdkreuz (Nord-S\u00fcd)", "network": "Verkehrsverbund Berlin-Brandenburg", "network:short": "VBB", "official_name": "Berlin S\u00fcdkreuz (Vorortbahn)", "operator": "DB Netz AG;DB Station&Service AG", "public_transport": "station", "railway": "station", "railway:ref": "BSKV", "railway:station_category": "1", "ref:station": "4859", "station": "light_rail", "wheelchair": "yes"}}, {"type": "node", "id": 7590477149, "lat": 52.4647137, "lon": 13.5382582, "tags": {"name": "Betriebswerk", "operator": "Berliner Parkeisenbahn", "public_transport": "station", "railway": "station", "station": "miniature", "train": "yes", "wheelchair": "no"}}, {"type": "node", "id": 7590477180, "lat": 52.4664864, "lon": 13.5484166, "tags": {"name": "Badesee", "old_name": "Pionierzentrum", "old_name1": "Puppentheater", "operator": "Berliner Parkeisenbahn", "public_transport": "station", "railway": "station", "station": "miniature", "train": "yes"}}, {"type": "node", "id": 7590482488, "lat": 52.4579993, "lon": 13.5433115, "tags": {"name": "Hauptbahnhof", "old_name": "Bf. Pionierpark \"E.Th\u00e4lmann\"", "operator": "Berliner Parkeisenbahn", "public_transport": "station", "railway": "station", "station": "miniature", "train": "yes", "wheelchair": "yes"}}, {"type": "node", "id": 8170768521, "lat": 52.5169884, "lon": 13.38882, "tags": {"line": "U5;U6", "name": "Unter den Linden", "public_transport": "station", "railway": "station", "station": "subway", "subway": "yes", "surveillance": "indoor", "wheelchair": "yes"}}, {"type": "node", "id": 8170768522, "lat": 52.5188425, "lon": 13.4080828, "tags": {"name": "Rotes Rathaus", "public_transport": "station", "railway": "station", "station": "subway", "subway": "yes", "surveillance": "indoor", "wheelchair": "yes"}}, {"type": "node", "id": 9082329700, "lat": 52.5172626, "lon": 13.3988844, "tags": {"name": "Museumsinsel", "public_transport": "station", "railway": "station", "station": "subway", "subway": "yes", "surveillance": "indoor", "wheelchair": "yes", "wikidata": "Q1459924", "wikimedia_commons": "Category:U-Bahnhof Museumsinsel", "wikipedia": "en:Museumsinsel (Berlin U-Bahn)"}}, {"type": "node", "id": 9122675268, "lat": 52.522128, "lon": 13.4133269}, {"type": "node", "id": 11247145895, "lat": 52.5221403, "lon": 13.4133428}, {"type": "node", "id": 11891045337, "lat": 52.4683699, "lon": 13.5540438, "tags": {"name": "Wuhlheide Parkeisenbahn", "operator": "Berliner Parkeisenbahn", "public_transport": "station", "railway": "station", "station": "miniature", "train": "yes", "wheelchair": "yes"}}, {"type": "way", "id": 35781031, "nodes": [1198648224, 418364613, 1198648176, 1198648206, 4019995099, 418364616, 1198648152, 1198648164, 1198648227, 1198648224], "tags": {"area": "yes", "description": "Flughafen BER - Terminal 5", "disused:railway": "platform", "ref": "7;9", "train": "yes", "wheelchair": "yes"}}, {"type": "way", "id": 199430452, "nodes": [2094347352, 2094345006, 2094347365, 2094347368, 2094345009, 9122675268, 11247145895, 2094267047, 2094345010, 2094347370, 2094347367, 2094347359, 2094347361, 2094347357, 2094347354, 2094345005, 2094347350, 2094345001, 2777153455, 2777153449, 2094344998, 2094347348, 2094347352], "tags": {"indoor": "area", "layer": "-1", "level": "-1", "subway": "yes", "tunnel": "yes"}}, {"type": "way", "id": 199489523, "nodes": [2094345000, 2777026081, 2777026077, 2777026057, 2094347346, 4947095076, 2094344997, 2777153434, 2777153437, 4936820460, 2777153447, 2094347352, 2094345006, 2094362222, 2094362224, 2094362223, 2094362221, 2094345000], "tags": {"indoor": "area", "layer": "-2", "level": "-2", "tunnel": "yes"}}, {"type": "way", "id": 199492156, "nodes": [2094345000, 2777026081, 2777026077, 2777026057, 2094347346, 2094347344, 2094347340, 2094347342, 2094351461, 2094351463, 2094344996, 2094351471, 2094351465, 2094362218, 2094362219, 2094345004, 2094392647, 2094392648, 2094392646, 2094392494, 2094345007, 2094362227, 2094362228, 2094362225, 2094345003, 2094345000], "tags": {"indoor": "area", "layer": "-1", "level": "-1", "location": "underground", "tunnel": "yes"}}, {"type": "way", "id": 477738273, "nodes": [4710404226, 5188090881, 4710404225, 5188091215, 4710404227, 4975238628, 4710404232, 4710404233, 5188091283, 4975238627, 4710404226], "tags": {"area": "yes", "bench": "yes", "bin": "yes", "layer": "-2", "level": "-2", "name": "Altstadt Spandau", "public_transport": "platform", "railway": "platform", "station": "subway", "subway": "yes", "wheelchair": "no"}}, {"type": "relation", "id": 1213980, "members": [{"type": "node", "ref": 31076660, "role": "stop"}, {"type": "node", "ref": 951487093, "role": "stop"}, {"type": "relation", "ref": 16201260, "role": "platform"}, {"type": "node", "ref": 951487100, "role": "stop"}, {"type": "node", "ref": 3419922345, "role": "stop"}, {"type": "relation", "ref": 16201261, "role": "platform"}, {"type": "way", "ref": 35781031, "role": "platform"}, {"type": "node", "ref": 3419922343, "role": ""}], "tags": {"name": "S Sch\u00f6nefeld (bei Berlin) [Bahnhof] (Regionalbahn)", "network": "Verkehrsverbund Berlin-Brandenburg", "network:short": "VBB", "network:wikidata": "Q315451", "old_name": "Berlin-Sch\u00f6nefeld Flughafen, Bahnhof;Flughafen BER - Terminal 5 [Bahnhof]", "operator": "DB Station&Service AG", "public_transport": "stop_area", "railway": "station", "ref:VBB": "900260005", "train": "yes", "type": "public_transport", "uic_name": "Berlin-Sch\u00f6nefeld Flughafen", "uic_ref": "8010109", "website": "https://fahrinfo.vbb.de/bin/stboard.exe/dn?start=yes&input=900260005"}}, {"type": "relation", "id": 2678660, "members": [{"type": "way", "ref": 199489523, "role": ""}, {"type": "way", "ref": 199430452, "role": ""}, {"type": "way", "ref": 199492156, "role": ""}], "tags": {"level": "-1", "name": "U Alexanderplatz", "name:ja": "U \u30a2\u30ec\u30af\u30b5\u30f3\u30c0\u30fc\u5e83\u5834", "station": "subway", "subway": "yes", "tunnel": "yes", "type": "site", "wheelchair": "yes"}}]}